<?xml version="1.0" encoding="UTF-8"?>
<gpx version="1.1" creator="The Lost Trailhead" xmlns="http://www.topografix.com/GPX/1/1" xmlns:xsi="http://www.w3.org/2001/XMLSchema-instance" xsi:schemaLocation="http://www.topografix.com/GPX/1/1 http://www.topografix.com/GPX/1/1/gpx.xsd">
<metadata><name>Melakwa Lake</name><desc>The Lost Trailhead, thelosttrailhead.com/hikes/melakwa-lake. Conditions change. Use at your own risk.</desc><link href="https://thelosttrailhead.com/hikes/melakwa-lake"><text>Melakwa Lake on The Lost Trailhead</text></link></metadata>
<trk><name>Melakwa Lake</name><link href="https://thelosttrailhead.com/hikes/melakwa-lake"><text>Melakwa Lake on The Lost Trailhead</text></link><trkseg>
<trkpt lat="47.414083" lon="-121.439340"><ele>694.5</ele></trkpt>
<trkpt lat="47.413949" lon="-121.440518"><ele>699.9</ele></trkpt>
<trkpt lat="47.413829" lon="-121.440775"><ele>697.6</ele></trkpt>
<trkpt lat="47.413256" lon="-121.441632"><ele>693.0</ele></trkpt>
<trkpt lat="47.413129" lon="-121.441729"><ele>692.9</ele></trkpt>
<trkpt lat="47.412924" lon="-121.441743"><ele>691.4</ele></trkpt>
<trkpt lat="47.412859" lon="-121.441832"><ele>690.3</ele></trkpt>
<trkpt lat="47.413004" lon="-121.442257"><ele>689.0</ele></trkpt>
<trkpt lat="47.413081" lon="-121.442767"><ele>687.3</ele></trkpt>
<trkpt lat="47.412927" lon="-121.443545"><ele>688.7</ele></trkpt>
<trkpt lat="47.413056" lon="-121.443855"><ele>689.7</ele></trkpt>
<trkpt lat="47.413281" lon="-121.443946"><ele>690.6</ele></trkpt>
<trkpt lat="47.413772" lon="-121.443690"><ele>691.9</ele></trkpt>
<trkpt lat="47.414785" lon="-121.443379"><ele>694.5</ele></trkpt>
<trkpt lat="47.415268" lon="-121.443409"><ele>697.4</ele></trkpt>
<trkpt lat="47.415389" lon="-121.443236"><ele>698.2</ele></trkpt>
<trkpt lat="47.415749" lon="-121.442997"><ele>700.5</ele></trkpt>
<trkpt lat="47.415937" lon="-121.442786"><ele>700.8</ele></trkpt>
<trkpt lat="47.416153" lon="-121.442421"><ele>702.3</ele></trkpt>
<trkpt lat="47.416321" lon="-121.441906"><ele>701.5</ele></trkpt>
<trkpt lat="47.416491" lon="-121.441650"><ele>702.1</ele></trkpt>
<trkpt lat="47.416651" lon="-121.441515"><ele>703.1</ele></trkpt>
<trkpt lat="47.417138" lon="-121.441681"><ele>706.3</ele></trkpt>
<trkpt lat="47.417576" lon="-121.442015"><ele>712.3</ele></trkpt>
<trkpt lat="47.417846" lon="-121.442512"><ele>714.8</ele></trkpt>
<trkpt lat="47.418114" lon="-121.443340"><ele>718.5</ele></trkpt>
<trkpt lat="47.418278" lon="-121.443695"><ele>721.7</ele></trkpt>
<trkpt lat="47.418427" lon="-121.443894"><ele>724.3</ele></trkpt>
<trkpt lat="47.418627" lon="-121.444024"><ele>729.1</ele></trkpt>
<trkpt lat="47.418786" lon="-121.443962"><ele>727.2</ele></trkpt>
<trkpt lat="47.418830" lon="-121.443654"><ele>725.6</ele></trkpt>
<trkpt lat="47.419018" lon="-121.443393"><ele>727.7</ele></trkpt>
<trkpt lat="47.419083" lon="-121.443357"><ele>728.0</ele></trkpt>
<trkpt lat="47.419230" lon="-121.443445"><ele>731.5</ele></trkpt>
<trkpt lat="47.419403" lon="-121.443443"><ele>735.6</ele></trkpt>
<trkpt lat="47.419874" lon="-121.443002"><ele>743.4</ele></trkpt>
<trkpt lat="47.420303" lon="-121.442698"><ele>751.3</ele></trkpt>
<trkpt lat="47.420435" lon="-121.442519"><ele>753.2</ele></trkpt>
<trkpt lat="47.420494" lon="-121.442538"><ele>755.0</ele></trkpt>
<trkpt lat="47.420590" lon="-121.442682"><ele>758.7</ele></trkpt>
<trkpt lat="47.420558" lon="-121.442673"><ele>758.6</ele></trkpt>
<trkpt lat="47.420659" lon="-121.443025"><ele>761.8</ele></trkpt>
<trkpt lat="47.420866" lon="-121.443410"><ele>766.0</ele></trkpt>
<trkpt lat="47.421040" lon="-121.443875"><ele>769.4</ele></trkpt>
<trkpt lat="47.421091" lon="-121.444592"><ele>776.3</ele></trkpt>
<trkpt lat="47.421565" lon="-121.445048"><ele>781.7</ele></trkpt>
<trkpt lat="47.422084" lon="-121.446392"><ele>792.7</ele></trkpt>
<trkpt lat="47.422285" lon="-121.447137"><ele>797.2</ele></trkpt>
<trkpt lat="47.422391" lon="-121.447923"><ele>797.7</ele></trkpt>
<trkpt lat="47.422503" lon="-121.448327"><ele>797.7</ele></trkpt>
<trkpt lat="47.422426" lon="-121.448490"><ele>796.6</ele></trkpt>
<trkpt lat="47.422366" lon="-121.448943"><ele>799.0</ele></trkpt>
<trkpt lat="47.422505" lon="-121.449680"><ele>802.3</ele></trkpt>
<trkpt lat="47.422624" lon="-121.449774"><ele>803.3</ele></trkpt>
<trkpt lat="47.422745" lon="-121.450072"><ele>805.1</ele></trkpt>
<trkpt lat="47.423116" lon="-121.450527"><ele>810.6</ele></trkpt>
<trkpt lat="47.423333" lon="-121.450626"><ele>812.4</ele></trkpt>
<trkpt lat="47.423502" lon="-121.450553"><ele>815.7</ele></trkpt>
<trkpt lat="47.423613" lon="-121.450652"><ele>818.3</ele></trkpt>
<trkpt lat="47.423780" lon="-121.450653"><ele>820.6</ele></trkpt>
<trkpt lat="47.423948" lon="-121.450852"><ele>825.0</ele></trkpt>
<trkpt lat="47.424093" lon="-121.450824"><ele>828.4</ele></trkpt>
<trkpt lat="47.424452" lon="-121.451073"><ele>836.3</ele></trkpt>
<trkpt lat="47.424585" lon="-121.451096"><ele>837.5</ele></trkpt>
<trkpt lat="47.424938" lon="-121.451403"><ele>839.8</ele></trkpt>
<trkpt lat="47.425087" lon="-121.451426"><ele>835.5</ele></trkpt>
<trkpt lat="47.425218" lon="-121.451961"><ele>840.1</ele></trkpt>
<trkpt lat="47.425038" lon="-121.452115"><ele>840.6</ele></trkpt>
<trkpt lat="47.424889" lon="-121.452052"><ele>842.6</ele></trkpt>
<trkpt lat="47.425018" lon="-121.452177"><ele>841.6</ele></trkpt>
<trkpt lat="47.425065" lon="-121.452130"><ele>840.8</ele></trkpt>
<trkpt lat="47.424868" lon="-121.452004"><ele>843.0</ele></trkpt>
<trkpt lat="47.424778" lon="-121.452024"><ele>843.9</ele></trkpt>
<trkpt lat="47.424748" lon="-121.452125"><ele>844.8</ele></trkpt>
<trkpt lat="47.424869" lon="-121.452721"><ele>851.1</ele></trkpt>
<trkpt lat="47.424900" lon="-121.453143"><ele>853.9</ele></trkpt>
<trkpt lat="47.424872" lon="-121.453948"><ele>860.2</ele></trkpt>
<trkpt lat="47.424808" lon="-121.454166"><ele>862.9</ele></trkpt>
<trkpt lat="47.424813" lon="-121.454326"><ele>863.8</ele></trkpt>
<trkpt lat="47.425033" lon="-121.454091"><ele>868.0</ele></trkpt>
<trkpt lat="47.425057" lon="-121.453914"><ele>868.3</ele></trkpt>
<trkpt lat="47.425228" lon="-121.453506"><ele>872.3</ele></trkpt>
<trkpt lat="47.425214" lon="-121.453387"><ele>873.8</ele></trkpt>
<trkpt lat="47.425394" lon="-121.453274"><ele>875.9</ele></trkpt>
<trkpt lat="47.425751" lon="-121.453541"><ele>879.9</ele></trkpt>
<trkpt lat="47.426458" lon="-121.453561"><ele>885.7</ele></trkpt>
<trkpt lat="47.426805" lon="-121.453652"><ele>888.9</ele></trkpt>
<trkpt lat="47.427265" lon="-121.453576"><ele>895.1</ele></trkpt>
<trkpt lat="47.427202" lon="-121.453535"><ele>894.3</ele></trkpt>
<trkpt lat="47.427499" lon="-121.453617"><ele>897.5</ele></trkpt>
<trkpt lat="47.428185" lon="-121.453241"><ele>902.8</ele></trkpt>
<trkpt lat="47.428567" lon="-121.453241"><ele>909.1</ele></trkpt>
<trkpt lat="47.428562" lon="-121.453341"><ele>912.4</ele></trkpt>
<trkpt lat="47.428048" lon="-121.453768"><ele>919.7</ele></trkpt>
<trkpt lat="47.429180" lon="-121.454003"><ele>937.3</ele></trkpt>
<trkpt lat="47.429703" lon="-121.453998"><ele>945.3</ele></trkpt>
<trkpt lat="47.430011" lon="-121.454199"><ele>952.9</ele></trkpt>
<trkpt lat="47.430228" lon="-121.454159"><ele>959.3</ele></trkpt>
<trkpt lat="47.430445" lon="-121.454261"><ele>964.3</ele></trkpt>
<trkpt lat="47.430809" lon="-121.454123"><ele>972.4</ele></trkpt>
<trkpt lat="47.431446" lon="-121.453380"><ele>989.1</ele></trkpt>
<trkpt lat="47.431502" lon="-121.453416"><ele>990.9</ele></trkpt>
<trkpt lat="47.431529" lon="-121.453541"><ele>992.8</ele></trkpt>
<trkpt lat="47.431454" lon="-121.453997"><ele>998.9</ele></trkpt>
<trkpt lat="47.431564" lon="-121.453973"><ele>1000.9</ele></trkpt>
<trkpt lat="47.431955" lon="-121.453289"><ele>1010.6</ele></trkpt>
<trkpt lat="47.431990" lon="-121.453070"><ele>1014.2</ele></trkpt>
<trkpt lat="47.431942" lon="-121.453285"><ele>1016.6</ele></trkpt>
<trkpt lat="47.432095" lon="-121.453226"><ele>1021.6</ele></trkpt>
<trkpt lat="47.432057" lon="-121.453208"><ele>1022.5</ele></trkpt>
<trkpt lat="47.431925" lon="-121.453629"><ele>1028.5</ele></trkpt>
<trkpt lat="47.432018" lon="-121.453662"><ele>1030.1</ele></trkpt>
<trkpt lat="47.432141" lon="-121.453535"><ele>1035.4</ele></trkpt>
<trkpt lat="47.432056" lon="-121.453732"><ele>1037.7</ele></trkpt>
<trkpt lat="47.432048" lon="-121.453905"><ele>1039.9</ele></trkpt>
<trkpt lat="47.432215" lon="-121.453676"><ele>1043.7</ele></trkpt>
<trkpt lat="47.432129" lon="-121.453897"><ele>1047.0</ele></trkpt>
<trkpt lat="47.432354" lon="-121.453675"><ele>1052.7</ele></trkpt>
<trkpt lat="47.432376" lon="-121.453717"><ele>1054.6</ele></trkpt>
<trkpt lat="47.432320" lon="-121.453723"><ele>1056.3</ele></trkpt>
<trkpt lat="47.432302" lon="-121.453815"><ele>1057.6</ele></trkpt>
<trkpt lat="47.432416" lon="-121.453826"><ele>1060.9</ele></trkpt>
<trkpt lat="47.432368" lon="-121.453910"><ele>1063.7</ele></trkpt>
<trkpt lat="47.432318" lon="-121.453897"><ele>1064.2</ele></trkpt>
<trkpt lat="47.432277" lon="-121.454009"><ele>1064.9</ele></trkpt>
<trkpt lat="47.432499" lon="-121.453941"><ele>1069.1</ele></trkpt>
<trkpt lat="47.432397" lon="-121.454021"><ele>1072.0</ele></trkpt>
<trkpt lat="47.432369" lon="-121.454170"><ele>1072.6</ele></trkpt>
<trkpt lat="47.432201" lon="-121.454483"><ele>1075.7</ele></trkpt>
<trkpt lat="47.432401" lon="-121.454475"><ele>1079.6</ele></trkpt>
<trkpt lat="47.432664" lon="-121.454339"><ele>1086.1</ele></trkpt>
<trkpt lat="47.433087" lon="-121.454423"><ele>1092.4</ele></trkpt>
<trkpt lat="47.433724" lon="-121.454783"><ele>1098.4</ele></trkpt>
<trkpt lat="47.434335" lon="-121.455382"><ele>1100.3</ele></trkpt>
<trkpt lat="47.434699" lon="-121.455470"><ele>1098.1</ele></trkpt>
<trkpt lat="47.434851" lon="-121.455726"><ele>1097.3</ele></trkpt>
<trkpt lat="47.434830" lon="-121.455874"><ele>1097.7</ele></trkpt>
<trkpt lat="47.434884" lon="-121.455975"><ele>1097.7</ele></trkpt>
<trkpt lat="47.435650" lon="-121.456253"><ele>1095.0</ele></trkpt>
<trkpt lat="47.435686" lon="-121.456177"><ele>1094.5</ele></trkpt>
<trkpt lat="47.435644" lon="-121.456027"><ele>1094.0</ele></trkpt>
<trkpt lat="47.435703" lon="-121.455962"><ele>1094.9</ele></trkpt>
<trkpt lat="47.436241" lon="-121.456324"><ele>1099.3</ele></trkpt>
<trkpt lat="47.436476" lon="-121.456266"><ele>1102.7</ele></trkpt>
<trkpt lat="47.436737" lon="-121.456316"><ele>1105.6</ele></trkpt>
<trkpt lat="47.436975" lon="-121.456395"><ele>1108.1</ele></trkpt>
<trkpt lat="47.437132" lon="-121.456529"><ele>1109.5</ele></trkpt>
<trkpt lat="47.437841" lon="-121.456773"><ele>1117.6</ele></trkpt>
<trkpt lat="47.438137" lon="-121.457262"><ele>1121.5</ele></trkpt>
<trkpt lat="47.438409" lon="-121.457347"><ele>1124.7</ele></trkpt>
<trkpt lat="47.438995" lon="-121.457836"><ele>1131.4</ele></trkpt>
<trkpt lat="47.439131" lon="-121.458008"><ele>1133.3</ele></trkpt>
<trkpt lat="47.439281" lon="-121.458013"><ele>1135.1</ele></trkpt>
<trkpt lat="47.439440" lon="-121.458108"><ele>1137.4</ele></trkpt>
<trkpt lat="47.439566" lon="-121.458360"><ele>1140.4</ele></trkpt>
<trkpt lat="47.440610" lon="-121.459499"><ele>1155.3</ele></trkpt>
<trkpt lat="47.440744" lon="-121.459728"><ele>1159.7</ele></trkpt>
<trkpt lat="47.440795" lon="-121.460032"><ele>1164.1</ele></trkpt>
<trkpt lat="47.440920" lon="-121.460297"><ele>1166.8</ele></trkpt>
<trkpt lat="47.440990" lon="-121.460593"><ele>1170.7</ele></trkpt>
<trkpt lat="47.441209" lon="-121.460826"><ele>1175.3</ele></trkpt>
<trkpt lat="47.441263" lon="-121.460954"><ele>1178.1</ele></trkpt>
<trkpt lat="47.441251" lon="-121.461287"><ele>1180.5</ele></trkpt>
<trkpt lat="47.441414" lon="-121.461712"><ele>1186.4</ele></trkpt>
<trkpt lat="47.441594" lon="-121.461827"><ele>1191.7</ele></trkpt>
<trkpt lat="47.441697" lon="-121.461064"><ele>1199.4</ele></trkpt>
<trkpt lat="47.441680" lon="-121.461257"><ele>1201.5</ele></trkpt>
<trkpt lat="47.441749" lon="-121.461659"><ele>1204.8</ele></trkpt>
<trkpt lat="47.441964" lon="-121.461384"><ele>1212.7</ele></trkpt>
<trkpt lat="47.442056" lon="-121.461575"><ele>1218.3</ele></trkpt>
<trkpt lat="47.442030" lon="-121.461711"><ele>1220.3</ele></trkpt>
<trkpt lat="47.442125" lon="-121.461600"><ele>1223.1</ele></trkpt>
<trkpt lat="47.442150" lon="-121.462293"><ele>1232.5</ele></trkpt>
<trkpt lat="47.442196" lon="-121.462325"><ele>1234.3</ele></trkpt>
<trkpt lat="47.442295" lon="-121.462134"><ele>1236.5</ele></trkpt>
<trkpt lat="47.442328" lon="-121.461841"><ele>1239.5</ele></trkpt>
<trkpt lat="47.442448" lon="-121.462557"><ele>1248.9</ele></trkpt>
<trkpt lat="47.442614" lon="-121.462878"><ele>1254.8</ele></trkpt>
<trkpt lat="47.442679" lon="-121.462815"><ele>1257.0</ele></trkpt>
<trkpt lat="47.442643" lon="-121.462642"><ele>1259.6</ele></trkpt>
<trkpt lat="47.442746" lon="-121.461999"><ele>1269.3</ele></trkpt>
<trkpt lat="47.442756" lon="-121.462357"><ele>1274.0</ele></trkpt>
<trkpt lat="47.442891" lon="-121.462499"><ele>1277.4</ele></trkpt>
<trkpt lat="47.442929" lon="-121.462734"><ele>1277.4</ele></trkpt>
<trkpt lat="47.443163" lon="-121.463239"><ele>1284.8</ele></trkpt>
<trkpt lat="47.443370" lon="-121.463412"><ele>1290.8</ele></trkpt>
<trkpt lat="47.443345" lon="-121.463594"><ele>1293.6</ele></trkpt>
<trkpt lat="47.443521" lon="-121.463904"><ele>1297.1</ele></trkpt>
<trkpt lat="47.443638" lon="-121.464270"><ele>1300.2</ele></trkpt>
<trkpt lat="47.443651" lon="-121.464740"><ele>1304.7</ele></trkpt>
<trkpt lat="47.443450" lon="-121.464805"><ele>1307.0</ele></trkpt>
<trkpt lat="47.443342" lon="-121.464989"><ele>1308.2</ele></trkpt>
<trkpt lat="47.443607" lon="-121.465998"><ele>1323.9</ele></trkpt>
<trkpt lat="47.443747" lon="-121.465855"><ele>1330.2</ele></trkpt>
<trkpt lat="47.443761" lon="-121.466124"><ele>1333.8</ele></trkpt>
<trkpt lat="47.443598" lon="-121.466717"><ele>1343.6</ele></trkpt>
<trkpt lat="47.443680" lon="-121.466801"><ele>1346.3</ele></trkpt>
<trkpt lat="47.443778" lon="-121.466808"><ele>1347.5</ele></trkpt>
<trkpt lat="47.444128" lon="-121.466601"><ele>1355.1</ele></trkpt>
<trkpt lat="47.444214" lon="-121.465857"><ele>1361.5</ele></trkpt>
<trkpt lat="47.444280" lon="-121.465638"><ele>1365.7</ele></trkpt>
<trkpt lat="47.444311" lon="-121.466061"><ele>1373.0</ele></trkpt>
<trkpt lat="47.444409" lon="-121.466424"><ele>1376.6</ele></trkpt>
<trkpt lat="47.444419" lon="-121.467006"><ele>1384.4</ele></trkpt>
<trkpt lat="47.444193" lon="-121.467272"><ele>1389.8</ele></trkpt>
<trkpt lat="47.444097" lon="-121.467657"><ele>1394.6</ele></trkpt>
<trkpt lat="47.444046" lon="-121.467719"><ele>1396.5</ele></trkpt>
<trkpt lat="47.444075" lon="-121.467734"><ele>1397.0</ele></trkpt>
<trkpt lat="47.443781" lon="-121.467691"><ele>1401.7</ele></trkpt>
<trkpt lat="47.443847" lon="-121.467837"><ele>1404.1</ele></trkpt>
<trkpt lat="47.444165" lon="-121.468001"><ele>1409.3</ele></trkpt>
<trkpt lat="47.444267" lon="-121.467935"><ele>1412.3</ele></trkpt>
<trkpt lat="47.444748" lon="-121.467976"><ele>1415.7</ele></trkpt>
<trkpt lat="47.444981" lon="-121.467929"><ele>1412.8</ele></trkpt>
<trkpt lat="47.445376" lon="-121.467698"><ele>1413.0</ele></trkpt>
<trkpt lat="47.445549" lon="-121.467701"><ele>1411.2</ele></trkpt>
<trkpt lat="47.445692" lon="-121.467803"><ele>1408.9</ele></trkpt>
<trkpt lat="47.445971" lon="-121.467757"><ele>1405.0</ele></trkpt>
<trkpt lat="47.446293" lon="-121.467852"><ele>1401.7</ele></trkpt>
<trkpt lat="47.447226" lon="-121.468317"><ele>1393.3</ele></trkpt>
<trkpt lat="47.447656" lon="-121.468369"><ele>1391.5</ele></trkpt>
<trkpt lat="47.447946" lon="-121.468541"><ele>1387.6</ele></trkpt>
<trkpt lat="47.448048" lon="-121.468654"><ele>1385.1</ele></trkpt>
<trkpt lat="47.448156" lon="-121.469045"><ele>1381.8</ele></trkpt>
<trkpt lat="47.448418" lon="-121.469696"><ele>1375.3</ele></trkpt>
<trkpt lat="47.448685" lon="-121.470120"><ele>1371.6</ele></trkpt>
<trkpt lat="47.448952" lon="-121.470279"><ele>1368.4</ele></trkpt>
<trkpt lat="47.449093" lon="-121.470285"><ele>1368.8</ele></trkpt>
<trkpt lat="47.449247" lon="-121.470128"><ele>1372.4</ele></trkpt>
<trkpt lat="47.449289" lon="-121.469727"><ele>1375.5</ele></trkpt>
<trkpt lat="47.449341" lon="-121.469640"><ele>1374.6</ele></trkpt>
<trkpt lat="47.449300" lon="-121.469451"><ele>1371.0</ele></trkpt>
<trkpt lat="47.449358" lon="-121.469468"><ele>1371.2</ele></trkpt>
<trkpt lat="47.449393" lon="-121.469631"><ele>1370.8</ele></trkpt>
<trkpt lat="47.449364" lon="-121.469737"><ele>1370.7</ele></trkpt>
<trkpt lat="47.449482" lon="-121.469771"><ele>1371.6</ele></trkpt>
<trkpt lat="47.449647" lon="-121.469716"><ele>1373.4</ele></trkpt>
<trkpt lat="47.449550" lon="-121.469705"><ele>1372.3</ele></trkpt>
<trkpt lat="47.449647" lon="-121.469716"><ele>1373.4</ele></trkpt>
<trkpt lat="47.449482" lon="-121.469771"><ele>1371.6</ele></trkpt>
<trkpt lat="47.449364" lon="-121.469737"><ele>1370.7</ele></trkpt>
<trkpt lat="47.449393" lon="-121.469631"><ele>1370.8</ele></trkpt>
<trkpt lat="47.449358" lon="-121.469468"><ele>1371.2</ele></trkpt>
<trkpt lat="47.449300" lon="-121.469451"><ele>1371.0</ele></trkpt>
<trkpt lat="47.449341" lon="-121.469640"><ele>1374.6</ele></trkpt>
<trkpt lat="47.449289" lon="-121.469727"><ele>1375.5</ele></trkpt>
<trkpt lat="47.449247" lon="-121.470128"><ele>1372.4</ele></trkpt>
<trkpt lat="47.449093" lon="-121.470285"><ele>1368.8</ele></trkpt>
<trkpt lat="47.448952" lon="-121.470279"><ele>1368.4</ele></trkpt>
<trkpt lat="47.448685" lon="-121.470120"><ele>1371.6</ele></trkpt>
<trkpt lat="47.448418" lon="-121.469696"><ele>1375.3</ele></trkpt>
<trkpt lat="47.448156" lon="-121.469045"><ele>1381.8</ele></trkpt>
<trkpt lat="47.448048" lon="-121.468654"><ele>1385.1</ele></trkpt>
<trkpt lat="47.447946" lon="-121.468541"><ele>1387.6</ele></trkpt>
<trkpt lat="47.447656" lon="-121.468369"><ele>1391.5</ele></trkpt>
<trkpt lat="47.447226" lon="-121.468317"><ele>1393.3</ele></trkpt>
<trkpt lat="47.446293" lon="-121.467852"><ele>1401.7</ele></trkpt>
<trkpt lat="47.445971" lon="-121.467757"><ele>1405.0</ele></trkpt>
<trkpt lat="47.445692" lon="-121.467803"><ele>1408.9</ele></trkpt>
<trkpt lat="47.445549" lon="-121.467701"><ele>1411.2</ele></trkpt>
<trkpt lat="47.445376" lon="-121.467698"><ele>1413.0</ele></trkpt>
<trkpt lat="47.444981" lon="-121.467929"><ele>1412.8</ele></trkpt>
<trkpt lat="47.444748" lon="-121.467976"><ele>1415.7</ele></trkpt>
<trkpt lat="47.444267" lon="-121.467935"><ele>1412.3</ele></trkpt>
<trkpt lat="47.444165" lon="-121.468001"><ele>1409.3</ele></trkpt>
<trkpt lat="47.443847" lon="-121.467837"><ele>1404.1</ele></trkpt>
<trkpt lat="47.443781" lon="-121.467691"><ele>1401.7</ele></trkpt>
<trkpt lat="47.444075" lon="-121.467734"><ele>1397.0</ele></trkpt>
<trkpt lat="47.444046" lon="-121.467719"><ele>1396.5</ele></trkpt>
<trkpt lat="47.444097" lon="-121.467657"><ele>1394.6</ele></trkpt>
<trkpt lat="47.444193" lon="-121.467272"><ele>1389.8</ele></trkpt>
<trkpt lat="47.444419" lon="-121.467006"><ele>1384.4</ele></trkpt>
<trkpt lat="47.444409" lon="-121.466424"><ele>1376.6</ele></trkpt>
<trkpt lat="47.444311" lon="-121.466061"><ele>1373.0</ele></trkpt>
<trkpt lat="47.444280" lon="-121.465638"><ele>1365.7</ele></trkpt>
<trkpt lat="47.444214" lon="-121.465857"><ele>1361.5</ele></trkpt>
<trkpt lat="47.444128" lon="-121.466601"><ele>1355.1</ele></trkpt>
<trkpt lat="47.443778" lon="-121.466808"><ele>1347.5</ele></trkpt>
<trkpt lat="47.443680" lon="-121.466801"><ele>1346.3</ele></trkpt>
<trkpt lat="47.443598" lon="-121.466717"><ele>1343.6</ele></trkpt>
<trkpt lat="47.443761" lon="-121.466124"><ele>1333.8</ele></trkpt>
<trkpt lat="47.443747" lon="-121.465855"><ele>1330.2</ele></trkpt>
<trkpt lat="47.443607" lon="-121.465998"><ele>1323.9</ele></trkpt>
<trkpt lat="47.443342" lon="-121.464989"><ele>1308.2</ele></trkpt>
<trkpt lat="47.443450" lon="-121.464805"><ele>1307.0</ele></trkpt>
<trkpt lat="47.443651" lon="-121.464740"><ele>1304.7</ele></trkpt>
<trkpt lat="47.443638" lon="-121.464270"><ele>1300.2</ele></trkpt>
<trkpt lat="47.443521" lon="-121.463904"><ele>1297.1</ele></trkpt>
<trkpt lat="47.443345" lon="-121.463594"><ele>1293.6</ele></trkpt>
<trkpt lat="47.443370" lon="-121.463412"><ele>1290.8</ele></trkpt>
<trkpt lat="47.443163" lon="-121.463239"><ele>1284.8</ele></trkpt>
<trkpt lat="47.442929" lon="-121.462734"><ele>1277.4</ele></trkpt>
<trkpt lat="47.442891" lon="-121.462499"><ele>1277.4</ele></trkpt>
<trkpt lat="47.442756" lon="-121.462357"><ele>1274.0</ele></trkpt>
<trkpt lat="47.442746" lon="-121.461999"><ele>1269.3</ele></trkpt>
<trkpt lat="47.442643" lon="-121.462642"><ele>1259.6</ele></trkpt>
<trkpt lat="47.442679" lon="-121.462815"><ele>1257.0</ele></trkpt>
<trkpt lat="47.442614" lon="-121.462878"><ele>1254.8</ele></trkpt>
<trkpt lat="47.442448" lon="-121.462557"><ele>1248.9</ele></trkpt>
<trkpt lat="47.442328" lon="-121.461841"><ele>1239.5</ele></trkpt>
<trkpt lat="47.442295" lon="-121.462134"><ele>1236.5</ele></trkpt>
<trkpt lat="47.442196" lon="-121.462325"><ele>1234.3</ele></trkpt>
<trkpt lat="47.442150" lon="-121.462293"><ele>1232.5</ele></trkpt>
<trkpt lat="47.442125" lon="-121.461600"><ele>1223.1</ele></trkpt>
<trkpt lat="47.442030" lon="-121.461711"><ele>1220.3</ele></trkpt>
<trkpt lat="47.442056" lon="-121.461575"><ele>1218.3</ele></trkpt>
<trkpt lat="47.441964" lon="-121.461384"><ele>1212.7</ele></trkpt>
<trkpt lat="47.441749" lon="-121.461659"><ele>1204.8</ele></trkpt>
<trkpt lat="47.441680" lon="-121.461257"><ele>1201.5</ele></trkpt>
<trkpt lat="47.441697" lon="-121.461064"><ele>1199.4</ele></trkpt>
<trkpt lat="47.441594" lon="-121.461827"><ele>1191.7</ele></trkpt>
<trkpt lat="47.441414" lon="-121.461712"><ele>1186.4</ele></trkpt>
<trkpt lat="47.441251" lon="-121.461287"><ele>1180.5</ele></trkpt>
<trkpt lat="47.441263" lon="-121.460954"><ele>1178.1</ele></trkpt>
<trkpt lat="47.441209" lon="-121.460826"><ele>1175.3</ele></trkpt>
<trkpt lat="47.440990" lon="-121.460593"><ele>1170.7</ele></trkpt>
<trkpt lat="47.440920" lon="-121.460297"><ele>1166.8</ele></trkpt>
<trkpt lat="47.440795" lon="-121.460032"><ele>1164.1</ele></trkpt>
<trkpt lat="47.440744" lon="-121.459728"><ele>1159.7</ele></trkpt>
<trkpt lat="47.440610" lon="-121.459499"><ele>1155.3</ele></trkpt>
<trkpt lat="47.439566" lon="-121.458360"><ele>1140.4</ele></trkpt>
<trkpt lat="47.439440" lon="-121.458108"><ele>1137.4</ele></trkpt>
<trkpt lat="47.439281" lon="-121.458013"><ele>1135.1</ele></trkpt>
<trkpt lat="47.439131" lon="-121.458008"><ele>1133.3</ele></trkpt>
<trkpt lat="47.438995" lon="-121.457836"><ele>1131.4</ele></trkpt>
<trkpt lat="47.438409" lon="-121.457347"><ele>1124.7</ele></trkpt>
<trkpt lat="47.438137" lon="-121.457262"><ele>1121.5</ele></trkpt>
<trkpt lat="47.437841" lon="-121.456773"><ele>1117.6</ele></trkpt>
<trkpt lat="47.437132" lon="-121.456529"><ele>1109.5</ele></trkpt>
<trkpt lat="47.436975" lon="-121.456395"><ele>1108.1</ele></trkpt>
<trkpt lat="47.436737" lon="-121.456316"><ele>1105.6</ele></trkpt>
<trkpt lat="47.436476" lon="-121.456266"><ele>1102.7</ele></trkpt>
<trkpt lat="47.436241" lon="-121.456324"><ele>1099.3</ele></trkpt>
<trkpt lat="47.435703" lon="-121.455962"><ele>1094.9</ele></trkpt>
<trkpt lat="47.435644" lon="-121.456027"><ele>1094.0</ele></trkpt>
<trkpt lat="47.435686" lon="-121.456177"><ele>1094.5</ele></trkpt>
<trkpt lat="47.435650" lon="-121.456253"><ele>1095.0</ele></trkpt>
<trkpt lat="47.434884" lon="-121.455975"><ele>1097.7</ele></trkpt>
<trkpt lat="47.434830" lon="-121.455874"><ele>1097.7</ele></trkpt>
<trkpt lat="47.434851" lon="-121.455726"><ele>1097.3</ele></trkpt>
<trkpt lat="47.434699" lon="-121.455470"><ele>1098.1</ele></trkpt>
<trkpt lat="47.434335" lon="-121.455382"><ele>1100.3</ele></trkpt>
<trkpt lat="47.433724" lon="-121.454783"><ele>1098.4</ele></trkpt>
<trkpt lat="47.433087" lon="-121.454423"><ele>1092.4</ele></trkpt>
<trkpt lat="47.432664" lon="-121.454339"><ele>1086.1</ele></trkpt>
<trkpt lat="47.432401" lon="-121.454475"><ele>1079.6</ele></trkpt>
<trkpt lat="47.432201" lon="-121.454483"><ele>1075.7</ele></trkpt>
<trkpt lat="47.432369" lon="-121.454170"><ele>1072.6</ele></trkpt>
<trkpt lat="47.432397" lon="-121.454021"><ele>1072.0</ele></trkpt>
<trkpt lat="47.432499" lon="-121.453941"><ele>1069.1</ele></trkpt>
<trkpt lat="47.432277" lon="-121.454009"><ele>1064.9</ele></trkpt>
<trkpt lat="47.432318" lon="-121.453897"><ele>1064.2</ele></trkpt>
<trkpt lat="47.432368" lon="-121.453910"><ele>1063.7</ele></trkpt>
<trkpt lat="47.432416" lon="-121.453826"><ele>1060.9</ele></trkpt>
<trkpt lat="47.432302" lon="-121.453815"><ele>1057.6</ele></trkpt>
<trkpt lat="47.432320" lon="-121.453723"><ele>1056.3</ele></trkpt>
<trkpt lat="47.432376" lon="-121.453717"><ele>1054.6</ele></trkpt>
<trkpt lat="47.432354" lon="-121.453675"><ele>1052.7</ele></trkpt>
<trkpt lat="47.432129" lon="-121.453897"><ele>1047.0</ele></trkpt>
<trkpt lat="47.432215" lon="-121.453676"><ele>1043.7</ele></trkpt>
<trkpt lat="47.432048" lon="-121.453905"><ele>1039.9</ele></trkpt>
<trkpt lat="47.432056" lon="-121.453732"><ele>1037.7</ele></trkpt>
<trkpt lat="47.432141" lon="-121.453535"><ele>1035.4</ele></trkpt>
<trkpt lat="47.432018" lon="-121.453662"><ele>1030.1</ele></trkpt>
<trkpt lat="47.431925" lon="-121.453629"><ele>1028.5</ele></trkpt>
<trkpt lat="47.432057" lon="-121.453208"><ele>1022.5</ele></trkpt>
<trkpt lat="47.432095" lon="-121.453226"><ele>1021.6</ele></trkpt>
<trkpt lat="47.431942" lon="-121.453285"><ele>1016.6</ele></trkpt>
<trkpt lat="47.431990" lon="-121.453070"><ele>1014.2</ele></trkpt>
<trkpt lat="47.431955" lon="-121.453289"><ele>1010.6</ele></trkpt>
<trkpt lat="47.431564" lon="-121.453973"><ele>1000.9</ele></trkpt>
<trkpt lat="47.431454" lon="-121.453997"><ele>998.9</ele></trkpt>
<trkpt lat="47.431529" lon="-121.453541"><ele>992.8</ele></trkpt>
<trkpt lat="47.431502" lon="-121.453416"><ele>990.9</ele></trkpt>
<trkpt lat="47.431446" lon="-121.453380"><ele>989.1</ele></trkpt>
<trkpt lat="47.430809" lon="-121.454123"><ele>972.4</ele></trkpt>
<trkpt lat="47.430445" lon="-121.454261"><ele>964.3</ele></trkpt>
<trkpt lat="47.430228" lon="-121.454159"><ele>959.3</ele></trkpt>
<trkpt lat="47.430011" lon="-121.454199"><ele>952.9</ele></trkpt>
<trkpt lat="47.429703" lon="-121.453998"><ele>945.3</ele></trkpt>
<trkpt lat="47.429180" lon="-121.454003"><ele>937.3</ele></trkpt>
<trkpt lat="47.428048" lon="-121.453768"><ele>919.7</ele></trkpt>
<trkpt lat="47.428562" lon="-121.453341"><ele>912.4</ele></trkpt>
<trkpt lat="47.428567" lon="-121.453241"><ele>909.1</ele></trkpt>
<trkpt lat="47.428185" lon="-121.453241"><ele>902.8</ele></trkpt>
<trkpt lat="47.427499" lon="-121.453617"><ele>897.5</ele></trkpt>
<trkpt lat="47.427202" lon="-121.453535"><ele>894.3</ele></trkpt>
<trkpt lat="47.427265" lon="-121.453576"><ele>895.1</ele></trkpt>
<trkpt lat="47.426805" lon="-121.453652"><ele>888.9</ele></trkpt>
<trkpt lat="47.426458" lon="-121.453561"><ele>885.7</ele></trkpt>
<trkpt lat="47.425751" lon="-121.453541"><ele>879.9</ele></trkpt>
<trkpt lat="47.425394" lon="-121.453274"><ele>875.9</ele></trkpt>
<trkpt lat="47.425214" lon="-121.453387"><ele>873.8</ele></trkpt>
<trkpt lat="47.425228" lon="-121.453506"><ele>872.3</ele></trkpt>
<trkpt lat="47.425057" lon="-121.453914"><ele>868.3</ele></trkpt>
<trkpt lat="47.425033" lon="-121.454091"><ele>868.0</ele></trkpt>
<trkpt lat="47.424813" lon="-121.454326"><ele>863.8</ele></trkpt>
<trkpt lat="47.424808" lon="-121.454166"><ele>862.9</ele></trkpt>
<trkpt lat="47.424872" lon="-121.453948"><ele>860.2</ele></trkpt>
<trkpt lat="47.424900" lon="-121.453143"><ele>853.9</ele></trkpt>
<trkpt lat="47.424869" lon="-121.452721"><ele>851.1</ele></trkpt>
<trkpt lat="47.424748" lon="-121.452125"><ele>844.8</ele></trkpt>
<trkpt lat="47.424778" lon="-121.452024"><ele>843.9</ele></trkpt>
<trkpt lat="47.424868" lon="-121.452004"><ele>843.0</ele></trkpt>
<trkpt lat="47.425065" lon="-121.452130"><ele>840.8</ele></trkpt>
<trkpt lat="47.425018" lon="-121.452177"><ele>841.6</ele></trkpt>
<trkpt lat="47.424889" lon="-121.452052"><ele>842.6</ele></trkpt>
<trkpt lat="47.425038" lon="-121.452115"><ele>840.6</ele></trkpt>
<trkpt lat="47.425218" lon="-121.451961"><ele>840.1</ele></trkpt>
<trkpt lat="47.425087" lon="-121.451426"><ele>835.5</ele></trkpt>
<trkpt lat="47.424938" lon="-121.451403"><ele>839.8</ele></trkpt>
<trkpt lat="47.424585" lon="-121.451096"><ele>837.5</ele></trkpt>
<trkpt lat="47.424452" lon="-121.451073"><ele>836.3</ele></trkpt>
<trkpt lat="47.424093" lon="-121.450824"><ele>828.4</ele></trkpt>
<trkpt lat="47.423948" lon="-121.450852"><ele>825.0</ele></trkpt>
<trkpt lat="47.423780" lon="-121.450653"><ele>820.6</ele></trkpt>
<trkpt lat="47.423613" lon="-121.450652"><ele>818.3</ele></trkpt>
<trkpt lat="47.423502" lon="-121.450553"><ele>815.7</ele></trkpt>
<trkpt lat="47.423333" lon="-121.450626"><ele>812.4</ele></trkpt>
<trkpt lat="47.423116" lon="-121.450527"><ele>810.6</ele></trkpt>
<trkpt lat="47.422745" lon="-121.450072"><ele>805.1</ele></trkpt>
<trkpt lat="47.422624" lon="-121.449774"><ele>803.3</ele></trkpt>
<trkpt lat="47.422505" lon="-121.449680"><ele>802.3</ele></trkpt>
<trkpt lat="47.422366" lon="-121.448943"><ele>799.0</ele></trkpt>
<trkpt lat="47.422426" lon="-121.448490"><ele>796.6</ele></trkpt>
<trkpt lat="47.422503" lon="-121.448327"><ele>797.7</ele></trkpt>
<trkpt lat="47.422391" lon="-121.447923"><ele>797.7</ele></trkpt>
<trkpt lat="47.422285" lon="-121.447137"><ele>797.2</ele></trkpt>
<trkpt lat="47.422084" lon="-121.446392"><ele>792.7</ele></trkpt>
<trkpt lat="47.421565" lon="-121.445048"><ele>781.7</ele></trkpt>
<trkpt lat="47.421091" lon="-121.444592"><ele>776.3</ele></trkpt>
<trkpt lat="47.421040" lon="-121.443875"><ele>769.4</ele></trkpt>
<trkpt lat="47.420866" lon="-121.443410"><ele>766.0</ele></trkpt>
<trkpt lat="47.420659" lon="-121.443025"><ele>761.8</ele></trkpt>
<trkpt lat="47.420558" lon="-121.442673"><ele>758.6</ele></trkpt>
<trkpt lat="47.420590" lon="-121.442682"><ele>758.7</ele></trkpt>
<trkpt lat="47.420494" lon="-121.442538"><ele>755.0</ele></trkpt>
<trkpt lat="47.420435" lon="-121.442519"><ele>753.2</ele></trkpt>
<trkpt lat="47.420303" lon="-121.442698"><ele>751.3</ele></trkpt>
<trkpt lat="47.419874" lon="-121.443002"><ele>743.4</ele></trkpt>
<trkpt lat="47.419403" lon="-121.443443"><ele>735.6</ele></trkpt>
<trkpt lat="47.419230" lon="-121.443445"><ele>731.5</ele></trkpt>
<trkpt lat="47.419083" lon="-121.443357"><ele>728.0</ele></trkpt>
<trkpt lat="47.419018" lon="-121.443393"><ele>727.7</ele></trkpt>
<trkpt lat="47.418830" lon="-121.443654"><ele>725.6</ele></trkpt>
<trkpt lat="47.418786" lon="-121.443962"><ele>727.2</ele></trkpt>
<trkpt lat="47.418627" lon="-121.444024"><ele>729.1</ele></trkpt>
<trkpt lat="47.418427" lon="-121.443894"><ele>724.3</ele></trkpt>
<trkpt lat="47.418278" lon="-121.443695"><ele>721.7</ele></trkpt>
<trkpt lat="47.418114" lon="-121.443340"><ele>718.5</ele></trkpt>
<trkpt lat="47.417846" lon="-121.442512"><ele>714.8</ele></trkpt>
<trkpt lat="47.417576" lon="-121.442015"><ele>712.3</ele></trkpt>
<trkpt lat="47.417138" lon="-121.441681"><ele>706.3</ele></trkpt>
<trkpt lat="47.416651" lon="-121.441515"><ele>703.1</ele></trkpt>
<trkpt lat="47.416491" lon="-121.441650"><ele>702.1</ele></trkpt>
<trkpt lat="47.416321" lon="-121.441906"><ele>701.5</ele></trkpt>
<trkpt lat="47.416153" lon="-121.442421"><ele>702.3</ele></trkpt>
<trkpt lat="47.415937" lon="-121.442786"><ele>700.8</ele></trkpt>
<trkpt lat="47.415749" lon="-121.442997"><ele>700.5</ele></trkpt>
<trkpt lat="47.415389" lon="-121.443236"><ele>698.2</ele></trkpt>
<trkpt lat="47.415268" lon="-121.443409"><ele>697.4</ele></trkpt>
<trkpt lat="47.414785" lon="-121.443379"><ele>694.5</ele></trkpt>
<trkpt lat="47.413772" lon="-121.443690"><ele>691.9</ele></trkpt>
<trkpt lat="47.413281" lon="-121.443946"><ele>690.6</ele></trkpt>
<trkpt lat="47.413056" lon="-121.443855"><ele>689.7</ele></trkpt>
<trkpt lat="47.412927" lon="-121.443545"><ele>688.7</ele></trkpt>
<trkpt lat="47.413081" lon="-121.442767"><ele>687.3</ele></trkpt>
<trkpt lat="47.413004" lon="-121.442257"><ele>689.0</ele></trkpt>
<trkpt lat="47.412859" lon="-121.441832"><ele>690.3</ele></trkpt>
<trkpt lat="47.412924" lon="-121.441743"><ele>691.4</ele></trkpt>
<trkpt lat="47.413129" lon="-121.441729"><ele>692.9</ele></trkpt>
<trkpt lat="47.413256" lon="-121.441632"><ele>693.0</ele></trkpt>
<trkpt lat="47.413829" lon="-121.440775"><ele>697.6</ele></trkpt>
<trkpt lat="47.413949" lon="-121.440518"><ele>699.9</ele></trkpt>
<trkpt lat="47.414083" lon="-121.439340"><ele>694.5</ele></trkpt>
</trkseg></trk>
</gpx>
