<?xml version="1.0" encoding="UTF-8"?>
<gpx version="1.1" creator="The Lost Trailhead" xmlns="http://www.topografix.com/GPX/1/1" xmlns:xsi="http://www.w3.org/2001/XMLSchema-instance" xsi:schemaLocation="http://www.topografix.com/GPX/1/1 http://www.topografix.com/GPX/1/1/gpx.xsd">
<metadata><name>Dirty Harry's Balcony</name><desc>The Lost Trailhead, thelosttrailhead.com/hikes/dirty-harrys-balcony. Conditions change. Use at your own risk.</desc><link href="https://thelosttrailhead.com/hikes/dirty-harrys-balcony"><text>Dirty Harry's Balcony on The Lost Trailhead</text></link></metadata>
<trk><name>Dirty Harry's Balcony</name><link href="https://thelosttrailhead.com/hikes/dirty-harrys-balcony"><text>Dirty Harry's Balcony on The Lost Trailhead</text></link><trkseg>
<trkpt lat="47.430984" lon="-121.632334"><ele>404.7</ele></trkpt>
<trkpt lat="47.431312" lon="-121.632392"><ele>405.3</ele></trkpt>
<trkpt lat="47.431285" lon="-121.632352"><ele>405.6</ele></trkpt>
<trkpt lat="47.431349" lon="-121.632104"><ele>405.0</ele></trkpt>
<trkpt lat="47.431387" lon="-121.631655"><ele>403.3</ele></trkpt>
<trkpt lat="47.431496" lon="-121.631430"><ele>402.4</ele></trkpt>
<trkpt lat="47.431628" lon="-121.631310"><ele>402.3</ele></trkpt>
<trkpt lat="47.431885" lon="-121.631446"><ele>402.1</ele></trkpt>
<trkpt lat="47.432077" lon="-121.631458"><ele>400.8</ele></trkpt>
<trkpt lat="47.432259" lon="-121.631648"><ele>401.8</ele></trkpt>
<trkpt lat="47.432424" lon="-121.631634"><ele>405.4</ele></trkpt>
<trkpt lat="47.432656" lon="-121.631832"><ele>407.0</ele></trkpt>
<trkpt lat="47.432980" lon="-121.631975"><ele>408.7</ele></trkpt>
<trkpt lat="47.432903" lon="-121.631856"><ele>409.4</ele></trkpt>
<trkpt lat="47.432983" lon="-121.631579"><ele>412.5</ele></trkpt>
<trkpt lat="47.432975" lon="-121.631332"><ele>412.7</ele></trkpt>
<trkpt lat="47.432722" lon="-121.630195"><ele>416.7</ele></trkpt>
<trkpt lat="47.432589" lon="-121.628898"><ele>434.5</ele></trkpt>
<trkpt lat="47.432485" lon="-121.628518"><ele>440.0</ele></trkpt>
<trkpt lat="47.432054" lon="-121.627482"><ele>455.9</ele></trkpt>
<trkpt lat="47.432371" lon="-121.627658"><ele>463.1</ele></trkpt>
<trkpt lat="47.432358" lon="-121.627515"><ele>464.9</ele></trkpt>
<trkpt lat="47.432164" lon="-121.627040"><ele>472.1</ele></trkpt>
<trkpt lat="47.431979" lon="-121.626900"><ele>475.6</ele></trkpt>
<trkpt lat="47.431737" lon="-121.626570"><ele>479.1</ele></trkpt>
<trkpt lat="47.431556" lon="-121.626536"><ele>481.4</ele></trkpt>
<trkpt lat="47.431154" lon="-121.626661"><ele>489.7</ele></trkpt>
<trkpt lat="47.431410" lon="-121.626209"><ele>494.8</ele></trkpt>
<trkpt lat="47.431353" lon="-121.625934"><ele>497.9</ele></trkpt>
<trkpt lat="47.431376" lon="-121.625535"><ele>501.8</ele></trkpt>
<trkpt lat="47.431217" lon="-121.625245"><ele>507.0</ele></trkpt>
<trkpt lat="47.431329" lon="-121.624980"><ele>512.1</ele></trkpt>
<trkpt lat="47.431213" lon="-121.624914"><ele>514.4</ele></trkpt>
<trkpt lat="47.431099" lon="-121.624940"><ele>516.7</ele></trkpt>
<trkpt lat="47.430990" lon="-121.624819"><ele>520.3</ele></trkpt>
<trkpt lat="47.431067" lon="-121.624351"><ele>525.3</ele></trkpt>
<trkpt lat="47.431056" lon="-121.624167"><ele>526.5</ele></trkpt>
<trkpt lat="47.430599" lon="-121.622990"><ele>543.9</ele></trkpt>
<trkpt lat="47.430645" lon="-121.623001"><ele>547.5</ele></trkpt>
<trkpt lat="47.430619" lon="-121.622810"><ele>550.9</ele></trkpt>
<trkpt lat="47.430646" lon="-121.622837"><ele>551.3</ele></trkpt>
<trkpt lat="47.430742" lon="-121.622733"><ele>553.9</ele></trkpt>
<trkpt lat="47.430992" lon="-121.622848"><ele>560.7</ele></trkpt>
<trkpt lat="47.430918" lon="-121.622593"><ele>564.8</ele></trkpt>
<trkpt lat="47.431229" lon="-121.622774"><ele>574.6</ele></trkpt>
<trkpt lat="47.431201" lon="-121.622576"><ele>576.2</ele></trkpt>
<trkpt lat="47.430949" lon="-121.622166"><ele>581.1</ele></trkpt>
<trkpt lat="47.430978" lon="-121.622144"><ele>583.3</ele></trkpt>
<trkpt lat="47.431446" lon="-121.622490"><ele>596.9</ele></trkpt>
<trkpt lat="47.431569" lon="-121.622453"><ele>601.7</ele></trkpt>
<trkpt lat="47.431822" lon="-121.622692"><ele>607.7</ele></trkpt>
<trkpt lat="47.431870" lon="-121.622677"><ele>610.0</ele></trkpt>
<trkpt lat="47.431858" lon="-121.622431"><ele>611.3</ele></trkpt>
<trkpt lat="47.431572" lon="-121.622054"><ele>615.4</ele></trkpt>
<trkpt lat="47.431556" lon="-121.621905"><ele>618.8</ele></trkpt>
<trkpt lat="47.431634" lon="-121.621898"><ele>622.1</ele></trkpt>
<trkpt lat="47.431640" lon="-121.621626"><ele>628.5</ele></trkpt>
<trkpt lat="47.431570" lon="-121.621552"><ele>629.4</ele></trkpt>
<trkpt lat="47.432061" lon="-121.621987"><ele>633.4</ele></trkpt>
<trkpt lat="47.432461" lon="-121.622107"><ele>642.0</ele></trkpt>
<trkpt lat="47.432452" lon="-121.621749"><ele>644.2</ele></trkpt>
<trkpt lat="47.432532" lon="-121.621922"><ele>649.0</ele></trkpt>
<trkpt lat="47.432698" lon="-121.621950"><ele>651.9</ele></trkpt>
<trkpt lat="47.432680" lon="-121.621458"><ele>660.7</ele></trkpt>
<trkpt lat="47.432458" lon="-121.620974"><ele>665.8</ele></trkpt>
<trkpt lat="47.432660" lon="-121.621134"><ele>670.0</ele></trkpt>
<trkpt lat="47.432817" lon="-121.621371"><ele>671.7</ele></trkpt>
<trkpt lat="47.433027" lon="-121.621281"><ele>679.1</ele></trkpt>
<trkpt lat="47.432832" lon="-121.620966"><ele>685.9</ele></trkpt>
<trkpt lat="47.432906" lon="-121.620981"><ele>687.2</ele></trkpt>
<trkpt lat="47.432911" lon="-121.620922"><ele>688.4</ele></trkpt>
<trkpt lat="47.432706" lon="-121.620466"><ele>693.1</ele></trkpt>
<trkpt lat="47.432485" lon="-121.620220"><ele>696.2</ele></trkpt>
<trkpt lat="47.432299" lon="-121.620108"><ele>697.3</ele></trkpt>
<trkpt lat="47.432227" lon="-121.619981"><ele>699.0</ele></trkpt>
<trkpt lat="47.432163" lon="-121.619619"><ele>700.6</ele></trkpt>
<trkpt lat="47.432174" lon="-121.619099"><ele>706.1</ele></trkpt>
<trkpt lat="47.432157" lon="-121.619018"><ele>706.1</ele></trkpt>
<trkpt lat="47.432091" lon="-121.618981"><ele>705.1</ele></trkpt>
<trkpt lat="47.432208" lon="-121.619014"><ele>708.3</ele></trkpt>
<trkpt lat="47.432588" lon="-121.619447"><ele>716.4</ele></trkpt>
<trkpt lat="47.432772" lon="-121.619742"><ele>719.6</ele></trkpt>
<trkpt lat="47.432862" lon="-121.620071"><ele>721.0</ele></trkpt>
<trkpt lat="47.432958" lon="-121.620235"><ele>721.7</ele></trkpt>
<trkpt lat="47.433186" lon="-121.620474"><ele>723.8</ele></trkpt>
<trkpt lat="47.433256" lon="-121.620447"><ele>725.5</ele></trkpt>
<trkpt lat="47.433278" lon="-121.620369"><ele>726.3</ele></trkpt>
<trkpt lat="47.433280" lon="-121.620244"><ele>728.8</ele></trkpt>
<trkpt lat="47.433141" lon="-121.620130"><ele>732.4</ele></trkpt>
<trkpt lat="47.433144" lon="-121.619982"><ele>735.2</ele></trkpt>
<trkpt lat="47.433225" lon="-121.619939"><ele>737.7</ele></trkpt>
<trkpt lat="47.433190" lon="-121.619931"><ele>737.7</ele></trkpt>
<trkpt lat="47.433216" lon="-121.619854"><ele>738.4</ele></trkpt>
<trkpt lat="47.433057" lon="-121.619585"><ele>742.0</ele></trkpt>
<trkpt lat="47.432800" lon="-121.618821"><ele>750.0</ele></trkpt>
<trkpt lat="47.432704" lon="-121.618725"><ele>751.1</ele></trkpt>
<trkpt lat="47.432803" lon="-121.618823"><ele>750.4</ele></trkpt>
<trkpt lat="47.433183" lon="-121.618131"><ele>750.2</ele></trkpt>
<trkpt lat="47.433374" lon="-121.617662"><ele>753.0</ele></trkpt>
<trkpt lat="47.433746" lon="-121.617535"><ele>747.7</ele></trkpt>
<trkpt lat="47.433730" lon="-121.617394"><ele>747.1</ele></trkpt>
<trkpt lat="47.433582" lon="-121.617128"><ele>745.1</ele></trkpt>
<trkpt lat="47.433564" lon="-121.616676"><ele>742.9</ele></trkpt>
<trkpt lat="47.433679" lon="-121.616416"><ele>742.2</ele></trkpt>
<trkpt lat="47.433697" lon="-121.616085"><ele>739.9</ele></trkpt>
<trkpt lat="47.433864" lon="-121.615460"><ele>744.7</ele></trkpt>
<trkpt lat="47.433702" lon="-121.615287"><ele>746.7</ele></trkpt>
<trkpt lat="47.433608" lon="-121.615020"><ele>750.8</ele></trkpt>
<trkpt lat="47.433750" lon="-121.615161"><ele>754.7</ele></trkpt>
<trkpt lat="47.433951" lon="-121.614849"><ele>760.1</ele></trkpt>
<trkpt lat="47.434084" lon="-121.614790"><ele>763.2</ele></trkpt>
<trkpt lat="47.434120" lon="-121.614435"><ele>766.0</ele></trkpt>
<trkpt lat="47.434059" lon="-121.614280"><ele>766.9</ele></trkpt>
<trkpt lat="47.433812" lon="-121.614229"><ele>769.3</ele></trkpt>
<trkpt lat="47.433721" lon="-121.614145"><ele>769.5</ele></trkpt>
<trkpt lat="47.433732" lon="-121.613452"><ele>770.0</ele></trkpt>
<trkpt lat="47.433570" lon="-121.613286"><ele>774.2</ele></trkpt>
<trkpt lat="47.433925" lon="-121.613233"><ele>778.5</ele></trkpt>
<trkpt lat="47.434156" lon="-121.612922"><ele>781.8</ele></trkpt>
<trkpt lat="47.434269" lon="-121.612858"><ele>783.5</ele></trkpt>
<trkpt lat="47.434287" lon="-121.612692"><ele>785.6</ele></trkpt>
<trkpt lat="47.434554" lon="-121.612535"><ele>786.2</ele></trkpt>
<trkpt lat="47.434615" lon="-121.612095"><ele>784.4</ele></trkpt>
<trkpt lat="47.434432" lon="-121.611279"><ele>781.1</ele></trkpt>
<trkpt lat="47.434721" lon="-121.611318"><ele>779.7</ele></trkpt>
<trkpt lat="47.434778" lon="-121.611239"><ele>780.3</ele></trkpt>
<trkpt lat="47.434452" lon="-121.610463"><ele>783.2</ele></trkpt>
<trkpt lat="47.434219" lon="-121.610420"><ele>780.2</ele></trkpt>
<trkpt lat="47.433920" lon="-121.610180"><ele>782.1</ele></trkpt>
<trkpt lat="47.433799" lon="-121.610160"><ele>784.2</ele></trkpt>
<trkpt lat="47.433685" lon="-121.610233"><ele>788.2</ele></trkpt>
<trkpt lat="47.433799" lon="-121.610160"><ele>784.2</ele></trkpt>
<trkpt lat="47.433920" lon="-121.610180"><ele>782.1</ele></trkpt>
<trkpt lat="47.434219" lon="-121.610420"><ele>780.2</ele></trkpt>
<trkpt lat="47.434452" lon="-121.610463"><ele>783.2</ele></trkpt>
<trkpt lat="47.434778" lon="-121.611239"><ele>780.3</ele></trkpt>
<trkpt lat="47.434721" lon="-121.611318"><ele>779.7</ele></trkpt>
<trkpt lat="47.434432" lon="-121.611279"><ele>781.1</ele></trkpt>
<trkpt lat="47.434615" lon="-121.612095"><ele>784.4</ele></trkpt>
<trkpt lat="47.434554" lon="-121.612535"><ele>786.2</ele></trkpt>
<trkpt lat="47.434287" lon="-121.612692"><ele>785.6</ele></trkpt>
<trkpt lat="47.434269" lon="-121.612858"><ele>783.5</ele></trkpt>
<trkpt lat="47.434156" lon="-121.612922"><ele>781.8</ele></trkpt>
<trkpt lat="47.433925" lon="-121.613233"><ele>778.5</ele></trkpt>
<trkpt lat="47.433570" lon="-121.613286"><ele>774.2</ele></trkpt>
<trkpt lat="47.433732" lon="-121.613452"><ele>770.0</ele></trkpt>
<trkpt lat="47.433721" lon="-121.614145"><ele>769.5</ele></trkpt>
<trkpt lat="47.433812" lon="-121.614229"><ele>769.3</ele></trkpt>
<trkpt lat="47.434059" lon="-121.614280"><ele>766.9</ele></trkpt>
<trkpt lat="47.434120" lon="-121.614435"><ele>766.0</ele></trkpt>
<trkpt lat="47.434084" lon="-121.614790"><ele>763.2</ele></trkpt>
<trkpt lat="47.433951" lon="-121.614849"><ele>760.1</ele></trkpt>
<trkpt lat="47.433750" lon="-121.615161"><ele>754.7</ele></trkpt>
<trkpt lat="47.433608" lon="-121.615020"><ele>750.8</ele></trkpt>
<trkpt lat="47.433702" lon="-121.615287"><ele>746.7</ele></trkpt>
<trkpt lat="47.433864" lon="-121.615460"><ele>744.7</ele></trkpt>
<trkpt lat="47.433697" lon="-121.616085"><ele>739.9</ele></trkpt>
<trkpt lat="47.433679" lon="-121.616416"><ele>742.2</ele></trkpt>
<trkpt lat="47.433564" lon="-121.616676"><ele>742.9</ele></trkpt>
<trkpt lat="47.433582" lon="-121.617128"><ele>745.1</ele></trkpt>
<trkpt lat="47.433730" lon="-121.617394"><ele>747.1</ele></trkpt>
<trkpt lat="47.433746" lon="-121.617535"><ele>747.7</ele></trkpt>
<trkpt lat="47.433374" lon="-121.617662"><ele>753.0</ele></trkpt>
<trkpt lat="47.433183" lon="-121.618131"><ele>750.2</ele></trkpt>
<trkpt lat="47.432803" lon="-121.618823"><ele>750.4</ele></trkpt>
<trkpt lat="47.432704" lon="-121.618725"><ele>751.1</ele></trkpt>
<trkpt lat="47.432800" lon="-121.618821"><ele>750.0</ele></trkpt>
<trkpt lat="47.433057" lon="-121.619585"><ele>742.0</ele></trkpt>
<trkpt lat="47.433216" lon="-121.619854"><ele>738.4</ele></trkpt>
<trkpt lat="47.433190" lon="-121.619931"><ele>737.7</ele></trkpt>
<trkpt lat="47.433225" lon="-121.619939"><ele>737.7</ele></trkpt>
<trkpt lat="47.433144" lon="-121.619982"><ele>735.2</ele></trkpt>
<trkpt lat="47.433141" lon="-121.620130"><ele>732.4</ele></trkpt>
<trkpt lat="47.433280" lon="-121.620244"><ele>728.8</ele></trkpt>
<trkpt lat="47.433278" lon="-121.620369"><ele>726.3</ele></trkpt>
<trkpt lat="47.433256" lon="-121.620447"><ele>725.5</ele></trkpt>
<trkpt lat="47.433186" lon="-121.620474"><ele>723.8</ele></trkpt>
<trkpt lat="47.432958" lon="-121.620235"><ele>721.7</ele></trkpt>
<trkpt lat="47.432862" lon="-121.620071"><ele>721.0</ele></trkpt>
<trkpt lat="47.432772" lon="-121.619742"><ele>719.6</ele></trkpt>
<trkpt lat="47.432588" lon="-121.619447"><ele>716.4</ele></trkpt>
<trkpt lat="47.432208" lon="-121.619014"><ele>708.3</ele></trkpt>
<trkpt lat="47.432091" lon="-121.618981"><ele>705.1</ele></trkpt>
<trkpt lat="47.432157" lon="-121.619018"><ele>706.1</ele></trkpt>
<trkpt lat="47.432174" lon="-121.619099"><ele>706.1</ele></trkpt>
<trkpt lat="47.432163" lon="-121.619619"><ele>700.6</ele></trkpt>
<trkpt lat="47.432227" lon="-121.619981"><ele>699.0</ele></trkpt>
<trkpt lat="47.432299" lon="-121.620108"><ele>697.3</ele></trkpt>
<trkpt lat="47.432485" lon="-121.620220"><ele>696.2</ele></trkpt>
<trkpt lat="47.432706" lon="-121.620466"><ele>693.1</ele></trkpt>
<trkpt lat="47.432911" lon="-121.620922"><ele>688.4</ele></trkpt>
<trkpt lat="47.432906" lon="-121.620981"><ele>687.2</ele></trkpt>
<trkpt lat="47.432832" lon="-121.620966"><ele>685.9</ele></trkpt>
<trkpt lat="47.433027" lon="-121.621281"><ele>679.1</ele></trkpt>
<trkpt lat="47.432817" lon="-121.621371"><ele>671.7</ele></trkpt>
<trkpt lat="47.432660" lon="-121.621134"><ele>670.0</ele></trkpt>
<trkpt lat="47.432458" lon="-121.620974"><ele>665.8</ele></trkpt>
<trkpt lat="47.432680" lon="-121.621458"><ele>660.7</ele></trkpt>
<trkpt lat="47.432698" lon="-121.621950"><ele>651.9</ele></trkpt>
<trkpt lat="47.432532" lon="-121.621922"><ele>649.0</ele></trkpt>
<trkpt lat="47.432452" lon="-121.621749"><ele>644.2</ele></trkpt>
<trkpt lat="47.432461" lon="-121.622107"><ele>642.0</ele></trkpt>
<trkpt lat="47.432061" lon="-121.621987"><ele>633.4</ele></trkpt>
<trkpt lat="47.431570" lon="-121.621552"><ele>629.4</ele></trkpt>
<trkpt lat="47.431640" lon="-121.621626"><ele>628.5</ele></trkpt>
<trkpt lat="47.431634" lon="-121.621898"><ele>622.1</ele></trkpt>
<trkpt lat="47.431556" lon="-121.621905"><ele>618.8</ele></trkpt>
<trkpt lat="47.431572" lon="-121.622054"><ele>615.4</ele></trkpt>
<trkpt lat="47.431858" lon="-121.622431"><ele>611.3</ele></trkpt>
<trkpt lat="47.431870" lon="-121.622677"><ele>610.0</ele></trkpt>
<trkpt lat="47.431822" lon="-121.622692"><ele>607.7</ele></trkpt>
<trkpt lat="47.431569" lon="-121.622453"><ele>601.7</ele></trkpt>
<trkpt lat="47.431446" lon="-121.622490"><ele>596.9</ele></trkpt>
<trkpt lat="47.430978" lon="-121.622144"><ele>583.3</ele></trkpt>
<trkpt lat="47.430949" lon="-121.622166"><ele>581.1</ele></trkpt>
<trkpt lat="47.431201" lon="-121.622576"><ele>576.2</ele></trkpt>
<trkpt lat="47.431229" lon="-121.622774"><ele>574.6</ele></trkpt>
<trkpt lat="47.430918" lon="-121.622593"><ele>564.8</ele></trkpt>
<trkpt lat="47.430992" lon="-121.622848"><ele>560.7</ele></trkpt>
<trkpt lat="47.430742" lon="-121.622733"><ele>553.9</ele></trkpt>
<trkpt lat="47.430646" lon="-121.622837"><ele>551.3</ele></trkpt>
<trkpt lat="47.430619" lon="-121.622810"><ele>550.9</ele></trkpt>
<trkpt lat="47.430645" lon="-121.623001"><ele>547.5</ele></trkpt>
<trkpt lat="47.430599" lon="-121.622990"><ele>543.9</ele></trkpt>
<trkpt lat="47.431056" lon="-121.624167"><ele>526.5</ele></trkpt>
<trkpt lat="47.431067" lon="-121.624351"><ele>525.3</ele></trkpt>
<trkpt lat="47.430990" lon="-121.624819"><ele>520.3</ele></trkpt>
<trkpt lat="47.431099" lon="-121.624940"><ele>516.7</ele></trkpt>
<trkpt lat="47.431213" lon="-121.624914"><ele>514.4</ele></trkpt>
<trkpt lat="47.431329" lon="-121.624980"><ele>512.1</ele></trkpt>
<trkpt lat="47.431217" lon="-121.625245"><ele>507.0</ele></trkpt>
<trkpt lat="47.431376" lon="-121.625535"><ele>501.8</ele></trkpt>
<trkpt lat="47.431353" lon="-121.625934"><ele>497.9</ele></trkpt>
<trkpt lat="47.431410" lon="-121.626209"><ele>494.8</ele></trkpt>
<trkpt lat="47.431154" lon="-121.626661"><ele>489.7</ele></trkpt>
<trkpt lat="47.431556" lon="-121.626536"><ele>481.4</ele></trkpt>
<trkpt lat="47.431737" lon="-121.626570"><ele>479.1</ele></trkpt>
<trkpt lat="47.431979" lon="-121.626900"><ele>475.6</ele></trkpt>
<trkpt lat="47.432164" lon="-121.627040"><ele>472.1</ele></trkpt>
<trkpt lat="47.432358" lon="-121.627515"><ele>464.9</ele></trkpt>
<trkpt lat="47.432371" lon="-121.627658"><ele>463.1</ele></trkpt>
<trkpt lat="47.432054" lon="-121.627482"><ele>455.9</ele></trkpt>
<trkpt lat="47.432485" lon="-121.628518"><ele>440.0</ele></trkpt>
<trkpt lat="47.432589" lon="-121.628898"><ele>434.5</ele></trkpt>
<trkpt lat="47.432722" lon="-121.630195"><ele>416.7</ele></trkpt>
<trkpt lat="47.432975" lon="-121.631332"><ele>412.7</ele></trkpt>
<trkpt lat="47.432983" lon="-121.631579"><ele>412.5</ele></trkpt>
<trkpt lat="47.432903" lon="-121.631856"><ele>409.4</ele></trkpt>
<trkpt lat="47.432980" lon="-121.631975"><ele>408.7</ele></trkpt>
<trkpt lat="47.432656" lon="-121.631832"><ele>407.0</ele></trkpt>
<trkpt lat="47.432424" lon="-121.631634"><ele>405.4</ele></trkpt>
<trkpt lat="47.432259" lon="-121.631648"><ele>401.8</ele></trkpt>
<trkpt lat="47.432077" lon="-121.631458"><ele>400.8</ele></trkpt>
<trkpt lat="47.431885" lon="-121.631446"><ele>402.1</ele></trkpt>
<trkpt lat="47.431628" lon="-121.631310"><ele>402.3</ele></trkpt>
<trkpt lat="47.431496" lon="-121.631430"><ele>402.4</ele></trkpt>
<trkpt lat="47.431387" lon="-121.631655"><ele>403.3</ele></trkpt>
<trkpt lat="47.431349" lon="-121.632104"><ele>405.0</ele></trkpt>
<trkpt lat="47.431285" lon="-121.632352"><ele>405.6</ele></trkpt>
<trkpt lat="47.431312" lon="-121.632392"><ele>405.3</ele></trkpt>
<trkpt lat="47.430984" lon="-121.632334"><ele>404.7</ele></trkpt>
</trkseg></trk>
</gpx>
