<?xml version="1.0" encoding="UTF-8"?>
<gpx version="1.1" creator="The Lost Trailhead" xmlns="http://www.topografix.com/GPX/1/1" xmlns:xsi="http://www.w3.org/2001/XMLSchema-instance" xsi:schemaLocation="http://www.topografix.com/GPX/1/1 http://www.topografix.com/GPX/1/1/gpx.xsd">
<metadata><name>Colchuck Lake</name><desc>The Lost Trailhead, thelosttrailhead.com/hikes/colchuck-lake. Conditions change. Use at your own risk.</desc><link href="https://thelosttrailhead.com/hikes/colchuck-lake"><text>Colchuck Lake on The Lost Trailhead</text></link></metadata>
<trk><name>Colchuck Lake</name><link href="https://thelosttrailhead.com/hikes/colchuck-lake"><text>Colchuck Lake on The Lost Trailhead</text></link><trkseg>
<trkpt lat="47.527907" lon="-120.820666"><ele>1037.0</ele></trkpt>
<trkpt lat="47.527697" lon="-120.820891"><ele>1036.5</ele></trkpt>
<trkpt lat="47.527758" lon="-120.820873"><ele>1037.2</ele></trkpt>
<trkpt lat="47.527769" lon="-120.820811"><ele>1036.2</ele></trkpt>
<trkpt lat="47.527726" lon="-120.820842"><ele>1037.0</ele></trkpt>
<trkpt lat="47.527707" lon="-120.820976"><ele>1040.3</ele></trkpt>
<trkpt lat="47.527512" lon="-120.820819"><ele>1047.5</ele></trkpt>
<trkpt lat="47.527114" lon="-120.821021"><ele>1050.6</ele></trkpt>
<trkpt lat="47.526824" lon="-120.821448"><ele>1056.0</ele></trkpt>
<trkpt lat="47.526583" lon="-120.821527"><ele>1057.1</ele></trkpt>
<trkpt lat="47.526482" lon="-120.821640"><ele>1057.8</ele></trkpt>
<trkpt lat="47.525899" lon="-120.821706"><ele>1063.7</ele></trkpt>
<trkpt lat="47.525604" lon="-120.821911"><ele>1063.9</ele></trkpt>
<trkpt lat="47.525241" lon="-120.821998"><ele>1066.0</ele></trkpt>
<trkpt lat="47.525046" lon="-120.822173"><ele>1064.5</ele></trkpt>
<trkpt lat="47.524949" lon="-120.822420"><ele>1063.6</ele></trkpt>
<trkpt lat="47.524759" lon="-120.822379"><ele>1068.0</ele></trkpt>
<trkpt lat="47.524559" lon="-120.822597"><ele>1069.1</ele></trkpt>
<trkpt lat="47.524258" lon="-120.822546"><ele>1072.1</ele></trkpt>
<trkpt lat="47.524067" lon="-120.822596"><ele>1074.8</ele></trkpt>
<trkpt lat="47.523710" lon="-120.822405"><ele>1084.7</ele></trkpt>
<trkpt lat="47.523362" lon="-120.822696"><ele>1088.1</ele></trkpt>
<trkpt lat="47.523301" lon="-120.822822"><ele>1088.3</ele></trkpt>
<trkpt lat="47.523139" lon="-120.822907"><ele>1086.3</ele></trkpt>
<trkpt lat="47.522805" lon="-120.823312"><ele>1088.9</ele></trkpt>
<trkpt lat="47.522560" lon="-120.823301"><ele>1094.2</ele></trkpt>
<trkpt lat="47.522379" lon="-120.823078"><ele>1098.9</ele></trkpt>
<trkpt lat="47.522064" lon="-120.823062"><ele>1101.7</ele></trkpt>
<trkpt lat="47.521858" lon="-120.823128"><ele>1102.8</ele></trkpt>
<trkpt lat="47.521789" lon="-120.823261"><ele>1105.3</ele></trkpt>
<trkpt lat="47.521398" lon="-120.823259"><ele>1111.7</ele></trkpt>
<trkpt lat="47.520903" lon="-120.823459"><ele>1116.5</ele></trkpt>
<trkpt lat="47.520644" lon="-120.823199"><ele>1124.1</ele></trkpt>
<trkpt lat="47.520565" lon="-120.823192"><ele>1124.7</ele></trkpt>
<trkpt lat="47.520355" lon="-120.823391"><ele>1123.0</ele></trkpt>
<trkpt lat="47.519899" lon="-120.823501"><ele>1122.0</ele></trkpt>
<trkpt lat="47.519533" lon="-120.823693"><ele>1123.9</ele></trkpt>
<trkpt lat="47.519386" lon="-120.823893"><ele>1123.1</ele></trkpt>
<trkpt lat="47.519282" lon="-120.824193"><ele>1122.1</ele></trkpt>
<trkpt lat="47.518896" lon="-120.824807"><ele>1127.0</ele></trkpt>
<trkpt lat="47.518863" lon="-120.825283"><ele>1126.4</ele></trkpt>
<trkpt lat="47.518735" lon="-120.825300"><ele>1127.6</ele></trkpt>
<trkpt lat="47.518477" lon="-120.825114"><ele>1130.0</ele></trkpt>
<trkpt lat="47.518132" lon="-120.825200"><ele>1135.9</ele></trkpt>
<trkpt lat="47.517857" lon="-120.825180"><ele>1140.3</ele></trkpt>
<trkpt lat="47.517488" lon="-120.825482"><ele>1131.9</ele></trkpt>
<trkpt lat="47.517398" lon="-120.825481"><ele>1135.0</ele></trkpt>
<trkpt lat="47.517127" lon="-120.825651"><ele>1136.6</ele></trkpt>
<trkpt lat="47.516995" lon="-120.825629"><ele>1138.1</ele></trkpt>
<trkpt lat="47.516399" lon="-120.826263"><ele>1138.8</ele></trkpt>
<trkpt lat="47.515833" lon="-120.826287"><ele>1145.9</ele></trkpt>
<trkpt lat="47.515632" lon="-120.826458"><ele>1149.6</ele></trkpt>
<trkpt lat="47.515368" lon="-120.826552"><ele>1154.6</ele></trkpt>
<trkpt lat="47.515118" lon="-120.826960"><ele>1156.9</ele></trkpt>
<trkpt lat="47.514952" lon="-120.827105"><ele>1157.1</ele></trkpt>
<trkpt lat="47.514757" lon="-120.827159"><ele>1158.8</ele></trkpt>
<trkpt lat="47.514582" lon="-120.827332"><ele>1161.5</ele></trkpt>
<trkpt lat="47.514470" lon="-120.827347"><ele>1163.6</ele></trkpt>
<trkpt lat="47.514315" lon="-120.827503"><ele>1164.7</ele></trkpt>
<trkpt lat="47.514134" lon="-120.827528"><ele>1163.9</ele></trkpt>
<trkpt lat="47.513662" lon="-120.827821"><ele>1167.2</ele></trkpt>
<trkpt lat="47.512604" lon="-120.827845"><ele>1167.6</ele></trkpt>
<trkpt lat="47.512478" lon="-120.828063"><ele>1166.4</ele></trkpt>
<trkpt lat="47.512180" lon="-120.828163"><ele>1170.8</ele></trkpt>
<trkpt lat="47.512093" lon="-120.828378"><ele>1173.2</ele></trkpt>
<trkpt lat="47.512002" lon="-120.828371"><ele>1174.8</ele></trkpt>
<trkpt lat="47.511938" lon="-120.828701"><ele>1174.8</ele></trkpt>
<trkpt lat="47.511770" lon="-120.828848"><ele>1174.9</ele></trkpt>
<trkpt lat="47.511634" lon="-120.828838"><ele>1178.0</ele></trkpt>
<trkpt lat="47.511498" lon="-120.828926"><ele>1181.5</ele></trkpt>
<trkpt lat="47.511325" lon="-120.828895"><ele>1186.5</ele></trkpt>
<trkpt lat="47.510854" lon="-120.828560"><ele>1193.8</ele></trkpt>
<trkpt lat="47.510719" lon="-120.828568"><ele>1197.7</ele></trkpt>
<trkpt lat="47.510574" lon="-120.828676"><ele>1199.9</ele></trkpt>
<trkpt lat="47.510204" lon="-120.829157"><ele>1197.2</ele></trkpt>
<trkpt lat="47.509837" lon="-120.829454"><ele>1206.3</ele></trkpt>
<trkpt lat="47.509793" lon="-120.829348"><ele>1206.7</ele></trkpt>
<trkpt lat="47.509751" lon="-120.829352"><ele>1207.1</ele></trkpt>
<trkpt lat="47.509335" lon="-120.829910"><ele>1207.3</ele></trkpt>
<trkpt lat="47.509157" lon="-120.830458"><ele>1212.4</ele></trkpt>
<trkpt lat="47.509241" lon="-120.830595"><ele>1209.3</ele></trkpt>
<trkpt lat="47.509199" lon="-120.830704"><ele>1211.0</ele></trkpt>
<trkpt lat="47.509260" lon="-120.830854"><ele>1215.3</ele></trkpt>
<trkpt lat="47.509145" lon="-120.830992"><ele>1215.1</ele></trkpt>
<trkpt lat="47.509110" lon="-120.831426"><ele>1221.5</ele></trkpt>
<trkpt lat="47.509033" lon="-120.831528"><ele>1223.2</ele></trkpt>
<trkpt lat="47.509024" lon="-120.831656"><ele>1225.6</ele></trkpt>
<trkpt lat="47.509061" lon="-120.831889"><ele>1229.7</ele></trkpt>
<trkpt lat="47.509175" lon="-120.832141"><ele>1236.0</ele></trkpt>
<trkpt lat="47.509167" lon="-120.832330"><ele>1236.2</ele></trkpt>
<trkpt lat="47.509100" lon="-120.832430"><ele>1235.1</ele></trkpt>
<trkpt lat="47.508988" lon="-120.832465"><ele>1237.8</ele></trkpt>
<trkpt lat="47.508776" lon="-120.832399"><ele>1240.9</ele></trkpt>
<trkpt lat="47.508664" lon="-120.832304"><ele>1243.0</ele></trkpt>
<trkpt lat="47.508689" lon="-120.832186"><ele>1244.9</ele></trkpt>
<trkpt lat="47.508657" lon="-120.832065"><ele>1245.7</ele></trkpt>
<trkpt lat="47.508628" lon="-120.832144"><ele>1247.2</ele></trkpt>
<trkpt lat="47.508657" lon="-120.832447"><ele>1243.1</ele></trkpt>
<trkpt lat="47.508546" lon="-120.832651"><ele>1246.4</ele></trkpt>
<trkpt lat="47.508602" lon="-120.832720"><ele>1248.3</ele></trkpt>
<trkpt lat="47.508708" lon="-120.832691"><ele>1249.2</ele></trkpt>
<trkpt lat="47.508511" lon="-120.832950"><ele>1251.3</ele></trkpt>
<trkpt lat="47.508083" lon="-120.833242"><ele>1260.0</ele></trkpt>
<trkpt lat="47.508066" lon="-120.833338"><ele>1262.1</ele></trkpt>
<trkpt lat="47.508131" lon="-120.833382"><ele>1263.7</ele></trkpt>
<trkpt lat="47.507970" lon="-120.833628"><ele>1267.1</ele></trkpt>
<trkpt lat="47.507768" lon="-120.834267"><ele>1275.4</ele></trkpt>
<trkpt lat="47.507702" lon="-120.834336"><ele>1277.5</ele></trkpt>
<trkpt lat="47.507697" lon="-120.834622"><ele>1281.3</ele></trkpt>
<trkpt lat="47.507619" lon="-120.834754"><ele>1283.6</ele></trkpt>
<trkpt lat="47.507668" lon="-120.834895"><ele>1286.1</ele></trkpt>
<trkpt lat="47.507486" lon="-120.835226"><ele>1294.5</ele></trkpt>
<trkpt lat="47.507701" lon="-120.835516"><ele>1298.9</ele></trkpt>
<trkpt lat="47.507663" lon="-120.835687"><ele>1300.1</ele></trkpt>
<trkpt lat="47.507723" lon="-120.835960"><ele>1304.7</ele></trkpt>
<trkpt lat="47.507822" lon="-120.836157"><ele>1307.1</ele></trkpt>
<trkpt lat="47.507706" lon="-120.836207"><ele>1308.6</ele></trkpt>
<trkpt lat="47.507752" lon="-120.836405"><ele>1314.5</ele></trkpt>
<trkpt lat="47.507660" lon="-120.836386"><ele>1315.0</ele></trkpt>
<trkpt lat="47.507634" lon="-120.836446"><ele>1315.2</ele></trkpt>
<trkpt lat="47.507720" lon="-120.836628"><ele>1317.8</ele></trkpt>
<trkpt lat="47.507861" lon="-120.836694"><ele>1322.1</ele></trkpt>
<trkpt lat="47.507788" lon="-120.836809"><ele>1325.2</ele></trkpt>
<trkpt lat="47.507887" lon="-120.836964"><ele>1330.2</ele></trkpt>
<trkpt lat="47.507750" lon="-120.837174"><ele>1337.8</ele></trkpt>
<trkpt lat="47.507745" lon="-120.837400"><ele>1341.3</ele></trkpt>
<trkpt lat="47.507642" lon="-120.837569"><ele>1344.2</ele></trkpt>
<trkpt lat="47.507648" lon="-120.837788"><ele>1348.5</ele></trkpt>
<trkpt lat="47.507555" lon="-120.837899"><ele>1349.3</ele></trkpt>
<trkpt lat="47.507458" lon="-120.838207"><ele>1355.3</ele></trkpt>
<trkpt lat="47.507368" lon="-120.838304"><ele>1357.2</ele></trkpt>
<trkpt lat="47.507305" lon="-120.838533"><ele>1359.8</ele></trkpt>
<trkpt lat="47.506805" lon="-120.838966"><ele>1365.4</ele></trkpt>
<trkpt lat="47.506650" lon="-120.839036"><ele>1367.0</ele></trkpt>
<trkpt lat="47.506595" lon="-120.839034"><ele>1366.7</ele></trkpt>
<trkpt lat="47.506479" lon="-120.838860"><ele>1365.9</ele></trkpt>
<trkpt lat="47.506501" lon="-120.838918"><ele>1366.0</ele></trkpt>
<trkpt lat="47.506317" lon="-120.838835"><ele>1367.2</ele></trkpt>
<trkpt lat="47.506069" lon="-120.839059"><ele>1373.5</ele></trkpt>
<trkpt lat="47.506008" lon="-120.839192"><ele>1376.2</ele></trkpt>
<trkpt lat="47.505927" lon="-120.839185"><ele>1378.4</ele></trkpt>
<trkpt lat="47.505659" lon="-120.839519"><ele>1381.7</ele></trkpt>
<trkpt lat="47.505500" lon="-120.839907"><ele>1383.4</ele></trkpt>
<trkpt lat="47.505378" lon="-120.839914"><ele>1383.0</ele></trkpt>
<trkpt lat="47.505223" lon="-120.840207"><ele>1383.7</ele></trkpt>
<trkpt lat="47.505087" lon="-120.840349"><ele>1382.8</ele></trkpt>
<trkpt lat="47.505005" lon="-120.840251"><ele>1383.0</ele></trkpt>
<trkpt lat="47.504493" lon="-120.840237"><ele>1381.9</ele></trkpt>
<trkpt lat="47.504378" lon="-120.840351"><ele>1381.7</ele></trkpt>
<trkpt lat="47.504182" lon="-120.840196"><ele>1379.7</ele></trkpt>
<trkpt lat="47.504120" lon="-120.840253"><ele>1374.3</ele></trkpt>
<trkpt lat="47.504082" lon="-120.840092"><ele>1375.1</ele></trkpt>
<trkpt lat="47.504013" lon="-120.840120"><ele>1376.0</ele></trkpt>
<trkpt lat="47.503806" lon="-120.840503"><ele>1375.5</ele></trkpt>
<trkpt lat="47.503687" lon="-120.840581"><ele>1375.3</ele></trkpt>
<trkpt lat="47.503674" lon="-120.840760"><ele>1374.9</ele></trkpt>
<trkpt lat="47.503630" lon="-120.840682"><ele>1373.4</ele></trkpt>
<trkpt lat="47.503555" lon="-120.840823"><ele>1375.9</ele></trkpt>
<trkpt lat="47.503382" lon="-120.840780"><ele>1377.6</ele></trkpt>
<trkpt lat="47.503008" lon="-120.841081"><ele>1382.7</ele></trkpt>
<trkpt lat="47.502777" lon="-120.841659"><ele>1383.0</ele></trkpt>
<trkpt lat="47.502568" lon="-120.841935"><ele>1383.5</ele></trkpt>
<trkpt lat="47.502443" lon="-120.841962"><ele>1387.5</ele></trkpt>
<trkpt lat="47.502319" lon="-120.841784"><ele>1390.5</ele></trkpt>
<trkpt lat="47.502360" lon="-120.841333"><ele>1394.4</ele></trkpt>
<trkpt lat="47.502291" lon="-120.841194"><ele>1398.1</ele></trkpt>
<trkpt lat="47.502199" lon="-120.841167"><ele>1402.1</ele></trkpt>
<trkpt lat="47.501820" lon="-120.841448"><ele>1410.0</ele></trkpt>
<trkpt lat="47.501680" lon="-120.841617"><ele>1411.0</ele></trkpt>
<trkpt lat="47.501629" lon="-120.841822"><ele>1409.3</ele></trkpt>
<trkpt lat="47.501521" lon="-120.842006"><ele>1412.6</ele></trkpt>
<trkpt lat="47.501575" lon="-120.842243"><ele>1411.5</ele></trkpt>
<trkpt lat="47.501522" lon="-120.842365"><ele>1414.4</ele></trkpt>
<trkpt lat="47.501506" lon="-120.842666"><ele>1413.4</ele></trkpt>
<trkpt lat="47.501484" lon="-120.842489"><ele>1417.4</ele></trkpt>
<trkpt lat="47.501403" lon="-120.842410"><ele>1418.7</ele></trkpt>
<trkpt lat="47.501358" lon="-120.842483"><ele>1420.4</ele></trkpt>
<trkpt lat="47.501242" lon="-120.842506"><ele>1425.5</ele></trkpt>
<trkpt lat="47.501013" lon="-120.842776"><ele>1432.6</ele></trkpt>
<trkpt lat="47.500941" lon="-120.842912"><ele>1433.0</ele></trkpt>
<trkpt lat="47.500938" lon="-120.843077"><ele>1433.8</ele></trkpt>
<trkpt lat="47.500854" lon="-120.843072"><ele>1434.4</ele></trkpt>
<trkpt lat="47.500755" lon="-120.843175"><ele>1436.0</ele></trkpt>
<trkpt lat="47.500528" lon="-120.843727"><ele>1445.5</ele></trkpt>
<trkpt lat="47.500508" lon="-120.843950"><ele>1447.3</ele></trkpt>
<trkpt lat="47.500392" lon="-120.844011"><ele>1447.8</ele></trkpt>
<trkpt lat="47.500147" lon="-120.843925"><ele>1457.7</ele></trkpt>
<trkpt lat="47.499976" lon="-120.843973"><ele>1462.7</ele></trkpt>
<trkpt lat="47.500015" lon="-120.843676"><ele>1462.1</ele></trkpt>
<trkpt lat="47.500161" lon="-120.843297"><ele>1462.4</ele></trkpt>
<trkpt lat="47.500144" lon="-120.843216"><ele>1462.8</ele></trkpt>
<trkpt lat="47.500266" lon="-120.842653"><ele>1473.2</ele></trkpt>
<trkpt lat="47.500157" lon="-120.842552"><ele>1475.9</ele></trkpt>
<trkpt lat="47.500057" lon="-120.842577"><ele>1479.2</ele></trkpt>
<trkpt lat="47.500023" lon="-120.842147"><ele>1486.4</ele></trkpt>
<trkpt lat="47.499902" lon="-120.842080"><ele>1487.8</ele></trkpt>
<trkpt lat="47.499902" lon="-120.842013"><ele>1487.3</ele></trkpt>
<trkpt lat="47.499884" lon="-120.842117"><ele>1487.2</ele></trkpt>
<trkpt lat="47.499775" lon="-120.842196"><ele>1491.5</ele></trkpt>
<trkpt lat="47.499608" lon="-120.842544"><ele>1495.6</ele></trkpt>
<trkpt lat="47.499519" lon="-120.842420"><ele>1498.8</ele></trkpt>
<trkpt lat="47.499519" lon="-120.842061"><ele>1498.5</ele></trkpt>
<trkpt lat="47.499458" lon="-120.841880"><ele>1499.4</ele></trkpt>
<trkpt lat="47.499516" lon="-120.841304"><ele>1503.1</ele></trkpt>
<trkpt lat="47.499610" lon="-120.840912"><ele>1506.5</ele></trkpt>
<trkpt lat="47.499678" lon="-120.840774"><ele>1507.7</ele></trkpt>
<trkpt lat="47.499704" lon="-120.840878"><ele>1508.5</ele></trkpt>
<trkpt lat="47.499838" lon="-120.841033"><ele>1511.2</ele></trkpt>
<trkpt lat="47.499942" lon="-120.841046"><ele>1512.1</ele></trkpt>
<trkpt lat="47.499890" lon="-120.840985"><ele>1511.5</ele></trkpt>
<trkpt lat="47.499868" lon="-120.841055"><ele>1511.3</ele></trkpt>
<trkpt lat="47.499894" lon="-120.841014"><ele>1512.5</ele></trkpt>
<trkpt lat="47.499873" lon="-120.841049"><ele>1512.2</ele></trkpt>
<trkpt lat="47.499746" lon="-120.840858"><ele>1511.0</ele></trkpt>
<trkpt lat="47.499904" lon="-120.840210"><ele>1511.7</ele></trkpt>
<trkpt lat="47.499706" lon="-120.839491"><ele>1515.1</ele></trkpt>
<trkpt lat="47.499496" lon="-120.839335"><ele>1520.4</ele></trkpt>
<trkpt lat="47.499224" lon="-120.839325"><ele>1524.8</ele></trkpt>
<trkpt lat="47.499195" lon="-120.839245"><ele>1526.1</ele></trkpt>
<trkpt lat="47.498907" lon="-120.839068"><ele>1536.1</ele></trkpt>
<trkpt lat="47.498991" lon="-120.839060"><ele>1540.6</ele></trkpt>
<trkpt lat="47.498957" lon="-120.838979"><ele>1540.7</ele></trkpt>
<trkpt lat="47.498780" lon="-120.838880"><ele>1545.1</ele></trkpt>
<trkpt lat="47.498648" lon="-120.838882"><ele>1547.9</ele></trkpt>
<trkpt lat="47.498651" lon="-120.838811"><ele>1548.9</ele></trkpt>
<trkpt lat="47.498559" lon="-120.838874"><ele>1550.0</ele></trkpt>
<trkpt lat="47.498538" lon="-120.838752"><ele>1553.1</ele></trkpt>
<trkpt lat="47.498418" lon="-120.838673"><ele>1558.7</ele></trkpt>
<trkpt lat="47.498551" lon="-120.838553"><ele>1561.9</ele></trkpt>
<trkpt lat="47.498536" lon="-120.838438"><ele>1564.0</ele></trkpt>
<trkpt lat="47.498644" lon="-120.838392"><ele>1570.8</ele></trkpt>
<trkpt lat="47.498684" lon="-120.838227"><ele>1572.0</ele></trkpt>
<trkpt lat="47.498835" lon="-120.838110"><ele>1576.2</ele></trkpt>
<trkpt lat="47.499260" lon="-120.837521"><ele>1571.6</ele></trkpt>
<trkpt lat="47.499344" lon="-120.837527"><ele>1570.8</ele></trkpt>
<trkpt lat="47.499471" lon="-120.837399"><ele>1569.2</ele></trkpt>
<trkpt lat="47.499760" lon="-120.836774"><ele>1568.7</ele></trkpt>
<trkpt lat="47.499838" lon="-120.836777"><ele>1568.6</ele></trkpt>
<trkpt lat="47.499929" lon="-120.836674"><ele>1567.2</ele></trkpt>
<trkpt lat="47.499951" lon="-120.836497"><ele>1569.4</ele></trkpt>
<trkpt lat="47.500034" lon="-120.836465"><ele>1571.4</ele></trkpt>
<trkpt lat="47.500139" lon="-120.836234"><ele>1572.8</ele></trkpt>
<trkpt lat="47.500067" lon="-120.836131"><ele>1574.7</ele></trkpt>
<trkpt lat="47.500092" lon="-120.835943"><ele>1578.8</ele></trkpt>
<trkpt lat="47.500059" lon="-120.835820"><ele>1579.2</ele></trkpt>
<trkpt lat="47.499932" lon="-120.835848"><ele>1585.2</ele></trkpt>
<trkpt lat="47.499751" lon="-120.836156"><ele>1588.2</ele></trkpt>
<trkpt lat="47.499614" lon="-120.836234"><ele>1588.5</ele></trkpt>
<trkpt lat="47.499364" lon="-120.836575"><ele>1589.5</ele></trkpt>
<trkpt lat="47.499118" lon="-120.836733"><ele>1594.8</ele></trkpt>
<trkpt lat="47.499072" lon="-120.836922"><ele>1595.5</ele></trkpt>
<trkpt lat="47.498829" lon="-120.837007"><ele>1602.3</ele></trkpt>
<trkpt lat="47.498631" lon="-120.837439"><ele>1608.0</ele></trkpt>
<trkpt lat="47.498696" lon="-120.837442"><ele>1606.7</ele></trkpt>
<trkpt lat="47.498703" lon="-120.837373"><ele>1605.7</ele></trkpt>
<trkpt lat="47.498636" lon="-120.837334"><ele>1605.5</ele></trkpt>
<trkpt lat="47.498373" lon="-120.837491"><ele>1604.1</ele></trkpt>
<trkpt lat="47.498233" lon="-120.837449"><ele>1605.8</ele></trkpt>
<trkpt lat="47.498121" lon="-120.837523"><ele>1606.6</ele></trkpt>
<trkpt lat="47.497953" lon="-120.837294"><ele>1612.8</ele></trkpt>
<trkpt lat="47.497401" lon="-120.836977"><ele>1620.6</ele></trkpt>
<trkpt lat="47.497338" lon="-120.836838"><ele>1623.9</ele></trkpt>
<trkpt lat="47.497268" lon="-120.836826"><ele>1624.0</ele></trkpt>
<trkpt lat="47.497154" lon="-120.836686"><ele>1626.8</ele></trkpt>
<trkpt lat="47.497150" lon="-120.836448"><ele>1634.3</ele></trkpt>
<trkpt lat="47.497210" lon="-120.836457"><ele>1639.7</ele></trkpt>
<trkpt lat="47.497297" lon="-120.836356"><ele>1642.2</ele></trkpt>
<trkpt lat="47.497183" lon="-120.836145"><ele>1644.1</ele></trkpt>
<trkpt lat="47.497228" lon="-120.836201"><ele>1646.1</ele></trkpt>
<trkpt lat="47.497482" lon="-120.836245"><ele>1646.8</ele></trkpt>
<trkpt lat="47.497526" lon="-120.836159"><ele>1646.6</ele></trkpt>
<trkpt lat="47.497467" lon="-120.836055"><ele>1650.1</ele></trkpt>
<trkpt lat="47.497553" lon="-120.836050"><ele>1651.5</ele></trkpt>
<trkpt lat="47.497528" lon="-120.835954"><ele>1654.5</ele></trkpt>
<trkpt lat="47.497675" lon="-120.835895"><ele>1657.5</ele></trkpt>
<trkpt lat="47.497582" lon="-120.835745"><ele>1662.7</ele></trkpt>
<trkpt lat="47.497646" lon="-120.835609"><ele>1666.5</ele></trkpt>
<trkpt lat="47.497518" lon="-120.835524"><ele>1674.4</ele></trkpt>
<trkpt lat="47.497778" lon="-120.835080"><ele>1688.0</ele></trkpt>
<trkpt lat="47.497852" lon="-120.834826"><ele>1692.0</ele></trkpt>
<trkpt lat="47.497833" lon="-120.834523"><ele>1697.6</ele></trkpt>
<trkpt lat="47.497666" lon="-120.834382"><ele>1700.2</ele></trkpt>
<trkpt lat="47.497533" lon="-120.834429"><ele>1702.0</ele></trkpt>
<trkpt lat="47.497424" lon="-120.834610"><ele>1704.5</ele></trkpt>
<trkpt lat="47.497329" lon="-120.834562"><ele>1707.5</ele></trkpt>
<trkpt lat="47.497207" lon="-120.834388"><ele>1710.0</ele></trkpt>
<trkpt lat="47.497046" lon="-120.834358"><ele>1711.0</ele></trkpt>
<trkpt lat="47.496943" lon="-120.834664"><ele>1711.5</ele></trkpt>
<trkpt lat="47.496782" lon="-120.834657"><ele>1711.9</ele></trkpt>
<trkpt lat="47.496659" lon="-120.834740"><ele>1708.8</ele></trkpt>
<trkpt lat="47.496514" lon="-120.834637"><ele>1711.4</ele></trkpt>
<trkpt lat="47.496369" lon="-120.834770"><ele>1712.0</ele></trkpt>
<trkpt lat="47.496147" lon="-120.834751"><ele>1708.5</ele></trkpt>
<trkpt lat="47.496076" lon="-120.834904"><ele>1707.4</ele></trkpt>
<trkpt lat="47.496024" lon="-120.834766"><ele>1705.9</ele></trkpt>
<trkpt lat="47.496134" lon="-120.835062"><ele>1709.8</ele></trkpt>
<trkpt lat="47.495973" lon="-120.835069"><ele>1711.0</ele></trkpt>
<trkpt lat="47.495836" lon="-120.835228"><ele>1711.0</ele></trkpt>
<trkpt lat="47.495603" lon="-120.835395"><ele>1714.9</ele></trkpt>
<trkpt lat="47.495529" lon="-120.835374"><ele>1713.0</ele></trkpt>
<trkpt lat="47.495445" lon="-120.835471"><ele>1711.9</ele></trkpt>
<trkpt lat="47.495382" lon="-120.835469"><ele>1710.1</ele></trkpt>
<trkpt lat="47.495387" lon="-120.835389"><ele>1707.0</ele></trkpt>
<trkpt lat="47.495325" lon="-120.835593"><ele>1704.8</ele></trkpt>
<trkpt lat="47.495278" lon="-120.835380"><ele>1701.4</ele></trkpt>
<trkpt lat="47.495300" lon="-120.835227"><ele>1698.7</ele></trkpt>
<trkpt lat="47.495220" lon="-120.835099"><ele>1694.7</ele></trkpt>
<trkpt lat="47.495204" lon="-120.835158"><ele>1696.0</ele></trkpt>
<trkpt lat="47.495275" lon="-120.835237"><ele>1698.5</ele></trkpt>
<trkpt lat="47.495264" lon="-120.835358"><ele>1699.6</ele></trkpt>
<trkpt lat="47.495137" lon="-120.835527"><ele>1696.9</ele></trkpt>
<trkpt lat="47.495197" lon="-120.835974"><ele>1700.3</ele></trkpt>
<trkpt lat="47.495004" lon="-120.836072"><ele>1698.5</ele></trkpt>
<trkpt lat="47.494989" lon="-120.836562"><ele>1698.5</ele></trkpt>
<trkpt lat="47.494827" lon="-120.836718"><ele>1693.2</ele></trkpt>
<trkpt lat="47.494812" lon="-120.836805"><ele>1693.5</ele></trkpt>
<trkpt lat="47.494700" lon="-120.836831"><ele>1692.5</ele></trkpt>
<trkpt lat="47.494681" lon="-120.836918"><ele>1690.2</ele></trkpt>
<trkpt lat="47.494533" lon="-120.836741"><ele>1697.7</ele></trkpt>
<trkpt lat="47.494531" lon="-120.836644"><ele>1700.4</ele></trkpt>
<trkpt lat="47.494579" lon="-120.836620"><ele>1701.5</ele></trkpt>
<trkpt lat="47.494563" lon="-120.836480"><ele>1701.5</ele></trkpt>
<trkpt lat="47.494486" lon="-120.836486"><ele>1702.1</ele></trkpt>
<trkpt lat="47.494458" lon="-120.836559"><ele>1702.0</ele></trkpt>
<trkpt lat="47.494402" lon="-120.836442"><ele>1707.0</ele></trkpt>
<trkpt lat="47.494120" lon="-120.836402"><ele>1715.7</ele></trkpt>
<trkpt lat="47.494150" lon="-120.836409"><ele>1715.2</ele></trkpt>
<trkpt lat="47.494098" lon="-120.836311"><ele>1717.4</ele></trkpt>
<trkpt lat="47.494084" lon="-120.836074"><ele>1719.0</ele></trkpt>
<trkpt lat="47.493946" lon="-120.835924"><ele>1713.1</ele></trkpt>
<trkpt lat="47.494084" lon="-120.836074"><ele>1719.0</ele></trkpt>
<trkpt lat="47.494098" lon="-120.836311"><ele>1717.4</ele></trkpt>
<trkpt lat="47.494150" lon="-120.836409"><ele>1715.2</ele></trkpt>
<trkpt lat="47.494120" lon="-120.836402"><ele>1715.7</ele></trkpt>
<trkpt lat="47.494402" lon="-120.836442"><ele>1707.0</ele></trkpt>
<trkpt lat="47.494458" lon="-120.836559"><ele>1702.0</ele></trkpt>
<trkpt lat="47.494486" lon="-120.836486"><ele>1702.1</ele></trkpt>
<trkpt lat="47.494563" lon="-120.836480"><ele>1701.5</ele></trkpt>
<trkpt lat="47.494579" lon="-120.836620"><ele>1701.5</ele></trkpt>
<trkpt lat="47.494531" lon="-120.836644"><ele>1700.4</ele></trkpt>
<trkpt lat="47.494533" lon="-120.836741"><ele>1697.7</ele></trkpt>
<trkpt lat="47.494681" lon="-120.836918"><ele>1690.2</ele></trkpt>
<trkpt lat="47.494700" lon="-120.836831"><ele>1692.5</ele></trkpt>
<trkpt lat="47.494812" lon="-120.836805"><ele>1693.5</ele></trkpt>
<trkpt lat="47.494827" lon="-120.836718"><ele>1693.2</ele></trkpt>
<trkpt lat="47.494989" lon="-120.836562"><ele>1698.5</ele></trkpt>
<trkpt lat="47.495004" lon="-120.836072"><ele>1698.5</ele></trkpt>
<trkpt lat="47.495197" lon="-120.835974"><ele>1700.3</ele></trkpt>
<trkpt lat="47.495137" lon="-120.835527"><ele>1696.9</ele></trkpt>
<trkpt lat="47.495264" lon="-120.835358"><ele>1699.6</ele></trkpt>
<trkpt lat="47.495275" lon="-120.835237"><ele>1698.5</ele></trkpt>
<trkpt lat="47.495204" lon="-120.835158"><ele>1696.0</ele></trkpt>
<trkpt lat="47.495220" lon="-120.835099"><ele>1694.7</ele></trkpt>
<trkpt lat="47.495300" lon="-120.835227"><ele>1698.7</ele></trkpt>
<trkpt lat="47.495278" lon="-120.835380"><ele>1701.4</ele></trkpt>
<trkpt lat="47.495325" lon="-120.835593"><ele>1704.8</ele></trkpt>
<trkpt lat="47.495387" lon="-120.835389"><ele>1707.0</ele></trkpt>
<trkpt lat="47.495382" lon="-120.835469"><ele>1710.1</ele></trkpt>
<trkpt lat="47.495445" lon="-120.835471"><ele>1711.9</ele></trkpt>
<trkpt lat="47.495529" lon="-120.835374"><ele>1713.0</ele></trkpt>
<trkpt lat="47.495603" lon="-120.835395"><ele>1714.9</ele></trkpt>
<trkpt lat="47.495836" lon="-120.835228"><ele>1711.0</ele></trkpt>
<trkpt lat="47.495973" lon="-120.835069"><ele>1711.0</ele></trkpt>
<trkpt lat="47.496134" lon="-120.835062"><ele>1709.8</ele></trkpt>
<trkpt lat="47.496024" lon="-120.834766"><ele>1705.9</ele></trkpt>
<trkpt lat="47.496076" lon="-120.834904"><ele>1707.4</ele></trkpt>
<trkpt lat="47.496147" lon="-120.834751"><ele>1708.5</ele></trkpt>
<trkpt lat="47.496369" lon="-120.834770"><ele>1712.0</ele></trkpt>
<trkpt lat="47.496514" lon="-120.834637"><ele>1711.4</ele></trkpt>
<trkpt lat="47.496659" lon="-120.834740"><ele>1708.8</ele></trkpt>
<trkpt lat="47.496782" lon="-120.834657"><ele>1711.9</ele></trkpt>
<trkpt lat="47.496943" lon="-120.834664"><ele>1711.5</ele></trkpt>
<trkpt lat="47.497046" lon="-120.834358"><ele>1711.0</ele></trkpt>
<trkpt lat="47.497207" lon="-120.834388"><ele>1710.0</ele></trkpt>
<trkpt lat="47.497329" lon="-120.834562"><ele>1707.5</ele></trkpt>
<trkpt lat="47.497424" lon="-120.834610"><ele>1704.5</ele></trkpt>
<trkpt lat="47.497533" lon="-120.834429"><ele>1702.0</ele></trkpt>
<trkpt lat="47.497666" lon="-120.834382"><ele>1700.2</ele></trkpt>
<trkpt lat="47.497833" lon="-120.834523"><ele>1697.6</ele></trkpt>
<trkpt lat="47.497852" lon="-120.834826"><ele>1692.0</ele></trkpt>
<trkpt lat="47.497778" lon="-120.835080"><ele>1688.0</ele></trkpt>
<trkpt lat="47.497518" lon="-120.835524"><ele>1674.4</ele></trkpt>
<trkpt lat="47.497646" lon="-120.835609"><ele>1666.5</ele></trkpt>
<trkpt lat="47.497582" lon="-120.835745"><ele>1662.7</ele></trkpt>
<trkpt lat="47.497675" lon="-120.835895"><ele>1657.5</ele></trkpt>
<trkpt lat="47.497528" lon="-120.835954"><ele>1654.5</ele></trkpt>
<trkpt lat="47.497553" lon="-120.836050"><ele>1651.5</ele></trkpt>
<trkpt lat="47.497467" lon="-120.836055"><ele>1650.1</ele></trkpt>
<trkpt lat="47.497526" lon="-120.836159"><ele>1646.6</ele></trkpt>
<trkpt lat="47.497482" lon="-120.836245"><ele>1646.8</ele></trkpt>
<trkpt lat="47.497228" lon="-120.836201"><ele>1646.1</ele></trkpt>
<trkpt lat="47.497183" lon="-120.836145"><ele>1644.1</ele></trkpt>
<trkpt lat="47.497297" lon="-120.836356"><ele>1642.2</ele></trkpt>
<trkpt lat="47.497210" lon="-120.836457"><ele>1639.7</ele></trkpt>
<trkpt lat="47.497150" lon="-120.836448"><ele>1634.3</ele></trkpt>
<trkpt lat="47.497154" lon="-120.836686"><ele>1626.8</ele></trkpt>
<trkpt lat="47.497268" lon="-120.836826"><ele>1624.0</ele></trkpt>
<trkpt lat="47.497338" lon="-120.836838"><ele>1623.9</ele></trkpt>
<trkpt lat="47.497401" lon="-120.836977"><ele>1620.6</ele></trkpt>
<trkpt lat="47.497953" lon="-120.837294"><ele>1612.8</ele></trkpt>
<trkpt lat="47.498121" lon="-120.837523"><ele>1606.6</ele></trkpt>
<trkpt lat="47.498233" lon="-120.837449"><ele>1605.8</ele></trkpt>
<trkpt lat="47.498373" lon="-120.837491"><ele>1604.1</ele></trkpt>
<trkpt lat="47.498636" lon="-120.837334"><ele>1605.5</ele></trkpt>
<trkpt lat="47.498703" lon="-120.837373"><ele>1605.7</ele></trkpt>
<trkpt lat="47.498696" lon="-120.837442"><ele>1606.7</ele></trkpt>
<trkpt lat="47.498631" lon="-120.837439"><ele>1608.0</ele></trkpt>
<trkpt lat="47.498829" lon="-120.837007"><ele>1602.3</ele></trkpt>
<trkpt lat="47.499072" lon="-120.836922"><ele>1595.5</ele></trkpt>
<trkpt lat="47.499118" lon="-120.836733"><ele>1594.8</ele></trkpt>
<trkpt lat="47.499364" lon="-120.836575"><ele>1589.5</ele></trkpt>
<trkpt lat="47.499614" lon="-120.836234"><ele>1588.5</ele></trkpt>
<trkpt lat="47.499751" lon="-120.836156"><ele>1588.2</ele></trkpt>
<trkpt lat="47.499932" lon="-120.835848"><ele>1585.2</ele></trkpt>
<trkpt lat="47.500059" lon="-120.835820"><ele>1579.2</ele></trkpt>
<trkpt lat="47.500092" lon="-120.835943"><ele>1578.8</ele></trkpt>
<trkpt lat="47.500067" lon="-120.836131"><ele>1574.7</ele></trkpt>
<trkpt lat="47.500139" lon="-120.836234"><ele>1572.8</ele></trkpt>
<trkpt lat="47.500034" lon="-120.836465"><ele>1571.4</ele></trkpt>
<trkpt lat="47.499951" lon="-120.836497"><ele>1569.4</ele></trkpt>
<trkpt lat="47.499929" lon="-120.836674"><ele>1567.2</ele></trkpt>
<trkpt lat="47.499838" lon="-120.836777"><ele>1568.6</ele></trkpt>
<trkpt lat="47.499760" lon="-120.836774"><ele>1568.7</ele></trkpt>
<trkpt lat="47.499471" lon="-120.837399"><ele>1569.2</ele></trkpt>
<trkpt lat="47.499344" lon="-120.837527"><ele>1570.8</ele></trkpt>
<trkpt lat="47.499260" lon="-120.837521"><ele>1571.6</ele></trkpt>
<trkpt lat="47.498835" lon="-120.838110"><ele>1576.2</ele></trkpt>
<trkpt lat="47.498684" lon="-120.838227"><ele>1572.0</ele></trkpt>
<trkpt lat="47.498644" lon="-120.838392"><ele>1570.8</ele></trkpt>
<trkpt lat="47.498536" lon="-120.838438"><ele>1564.0</ele></trkpt>
<trkpt lat="47.498551" lon="-120.838553"><ele>1561.9</ele></trkpt>
<trkpt lat="47.498418" lon="-120.838673"><ele>1558.7</ele></trkpt>
<trkpt lat="47.498538" lon="-120.838752"><ele>1553.1</ele></trkpt>
<trkpt lat="47.498559" lon="-120.838874"><ele>1550.0</ele></trkpt>
<trkpt lat="47.498651" lon="-120.838811"><ele>1548.9</ele></trkpt>
<trkpt lat="47.498648" lon="-120.838882"><ele>1547.9</ele></trkpt>
<trkpt lat="47.498780" lon="-120.838880"><ele>1545.1</ele></trkpt>
<trkpt lat="47.498957" lon="-120.838979"><ele>1540.7</ele></trkpt>
<trkpt lat="47.498991" lon="-120.839060"><ele>1540.6</ele></trkpt>
<trkpt lat="47.498907" lon="-120.839068"><ele>1536.1</ele></trkpt>
<trkpt lat="47.499195" lon="-120.839245"><ele>1526.1</ele></trkpt>
<trkpt lat="47.499224" lon="-120.839325"><ele>1524.8</ele></trkpt>
<trkpt lat="47.499496" lon="-120.839335"><ele>1520.4</ele></trkpt>
<trkpt lat="47.499706" lon="-120.839491"><ele>1515.1</ele></trkpt>
<trkpt lat="47.499904" lon="-120.840210"><ele>1511.7</ele></trkpt>
<trkpt lat="47.499746" lon="-120.840858"><ele>1511.0</ele></trkpt>
<trkpt lat="47.499873" lon="-120.841049"><ele>1512.2</ele></trkpt>
<trkpt lat="47.499894" lon="-120.841014"><ele>1512.5</ele></trkpt>
<trkpt lat="47.499868" lon="-120.841055"><ele>1511.3</ele></trkpt>
<trkpt lat="47.499890" lon="-120.840985"><ele>1511.5</ele></trkpt>
<trkpt lat="47.499942" lon="-120.841046"><ele>1512.1</ele></trkpt>
<trkpt lat="47.499838" lon="-120.841033"><ele>1511.2</ele></trkpt>
<trkpt lat="47.499704" lon="-120.840878"><ele>1508.5</ele></trkpt>
<trkpt lat="47.499678" lon="-120.840774"><ele>1507.7</ele></trkpt>
<trkpt lat="47.499610" lon="-120.840912"><ele>1506.5</ele></trkpt>
<trkpt lat="47.499516" lon="-120.841304"><ele>1503.1</ele></trkpt>
<trkpt lat="47.499458" lon="-120.841880"><ele>1499.4</ele></trkpt>
<trkpt lat="47.499519" lon="-120.842061"><ele>1498.5</ele></trkpt>
<trkpt lat="47.499519" lon="-120.842420"><ele>1498.8</ele></trkpt>
<trkpt lat="47.499608" lon="-120.842544"><ele>1495.6</ele></trkpt>
<trkpt lat="47.499775" lon="-120.842196"><ele>1491.5</ele></trkpt>
<trkpt lat="47.499884" lon="-120.842117"><ele>1487.2</ele></trkpt>
<trkpt lat="47.499902" lon="-120.842013"><ele>1487.3</ele></trkpt>
<trkpt lat="47.499902" lon="-120.842080"><ele>1487.8</ele></trkpt>
<trkpt lat="47.500023" lon="-120.842147"><ele>1486.4</ele></trkpt>
<trkpt lat="47.500057" lon="-120.842577"><ele>1479.2</ele></trkpt>
<trkpt lat="47.500157" lon="-120.842552"><ele>1475.9</ele></trkpt>
<trkpt lat="47.500266" lon="-120.842653"><ele>1473.2</ele></trkpt>
<trkpt lat="47.500144" lon="-120.843216"><ele>1462.8</ele></trkpt>
<trkpt lat="47.500161" lon="-120.843297"><ele>1462.4</ele></trkpt>
<trkpt lat="47.500015" lon="-120.843676"><ele>1462.1</ele></trkpt>
<trkpt lat="47.499976" lon="-120.843973"><ele>1462.7</ele></trkpt>
<trkpt lat="47.500147" lon="-120.843925"><ele>1457.7</ele></trkpt>
<trkpt lat="47.500392" lon="-120.844011"><ele>1447.8</ele></trkpt>
<trkpt lat="47.500508" lon="-120.843950"><ele>1447.3</ele></trkpt>
<trkpt lat="47.500528" lon="-120.843727"><ele>1445.5</ele></trkpt>
<trkpt lat="47.500755" lon="-120.843175"><ele>1436.0</ele></trkpt>
<trkpt lat="47.500854" lon="-120.843072"><ele>1434.4</ele></trkpt>
<trkpt lat="47.500938" lon="-120.843077"><ele>1433.8</ele></trkpt>
<trkpt lat="47.500941" lon="-120.842912"><ele>1433.0</ele></trkpt>
<trkpt lat="47.501013" lon="-120.842776"><ele>1432.6</ele></trkpt>
<trkpt lat="47.501242" lon="-120.842506"><ele>1425.5</ele></trkpt>
<trkpt lat="47.501358" lon="-120.842483"><ele>1420.4</ele></trkpt>
<trkpt lat="47.501403" lon="-120.842410"><ele>1418.7</ele></trkpt>
<trkpt lat="47.501484" lon="-120.842489"><ele>1417.4</ele></trkpt>
<trkpt lat="47.501506" lon="-120.842666"><ele>1413.4</ele></trkpt>
<trkpt lat="47.501522" lon="-120.842365"><ele>1414.4</ele></trkpt>
<trkpt lat="47.501575" lon="-120.842243"><ele>1411.5</ele></trkpt>
<trkpt lat="47.501521" lon="-120.842006"><ele>1412.6</ele></trkpt>
<trkpt lat="47.501629" lon="-120.841822"><ele>1409.3</ele></trkpt>
<trkpt lat="47.501680" lon="-120.841617"><ele>1411.0</ele></trkpt>
<trkpt lat="47.501820" lon="-120.841448"><ele>1410.0</ele></trkpt>
<trkpt lat="47.502199" lon="-120.841167"><ele>1402.1</ele></trkpt>
<trkpt lat="47.502291" lon="-120.841194"><ele>1398.1</ele></trkpt>
<trkpt lat="47.502360" lon="-120.841333"><ele>1394.4</ele></trkpt>
<trkpt lat="47.502319" lon="-120.841784"><ele>1390.5</ele></trkpt>
<trkpt lat="47.502443" lon="-120.841962"><ele>1387.5</ele></trkpt>
<trkpt lat="47.502568" lon="-120.841935"><ele>1383.5</ele></trkpt>
<trkpt lat="47.502777" lon="-120.841659"><ele>1383.0</ele></trkpt>
<trkpt lat="47.503008" lon="-120.841081"><ele>1382.7</ele></trkpt>
<trkpt lat="47.503382" lon="-120.840780"><ele>1377.6</ele></trkpt>
<trkpt lat="47.503555" lon="-120.840823"><ele>1375.9</ele></trkpt>
<trkpt lat="47.503630" lon="-120.840682"><ele>1373.4</ele></trkpt>
<trkpt lat="47.503674" lon="-120.840760"><ele>1374.9</ele></trkpt>
<trkpt lat="47.503687" lon="-120.840581"><ele>1375.3</ele></trkpt>
<trkpt lat="47.503806" lon="-120.840503"><ele>1375.5</ele></trkpt>
<trkpt lat="47.504013" lon="-120.840120"><ele>1376.0</ele></trkpt>
<trkpt lat="47.504082" lon="-120.840092"><ele>1375.1</ele></trkpt>
<trkpt lat="47.504120" lon="-120.840253"><ele>1374.3</ele></trkpt>
<trkpt lat="47.504182" lon="-120.840196"><ele>1379.7</ele></trkpt>
<trkpt lat="47.504378" lon="-120.840351"><ele>1381.7</ele></trkpt>
<trkpt lat="47.504493" lon="-120.840237"><ele>1381.9</ele></trkpt>
<trkpt lat="47.505005" lon="-120.840251"><ele>1383.0</ele></trkpt>
<trkpt lat="47.505087" lon="-120.840349"><ele>1382.8</ele></trkpt>
<trkpt lat="47.505223" lon="-120.840207"><ele>1383.7</ele></trkpt>
<trkpt lat="47.505378" lon="-120.839914"><ele>1383.0</ele></trkpt>
<trkpt lat="47.505500" lon="-120.839907"><ele>1383.4</ele></trkpt>
<trkpt lat="47.505659" lon="-120.839519"><ele>1381.7</ele></trkpt>
<trkpt lat="47.505927" lon="-120.839185"><ele>1378.4</ele></trkpt>
<trkpt lat="47.506008" lon="-120.839192"><ele>1376.2</ele></trkpt>
<trkpt lat="47.506069" lon="-120.839059"><ele>1373.5</ele></trkpt>
<trkpt lat="47.506317" lon="-120.838835"><ele>1367.2</ele></trkpt>
<trkpt lat="47.506501" lon="-120.838918"><ele>1366.0</ele></trkpt>
<trkpt lat="47.506479" lon="-120.838860"><ele>1365.9</ele></trkpt>
<trkpt lat="47.506595" lon="-120.839034"><ele>1366.7</ele></trkpt>
<trkpt lat="47.506650" lon="-120.839036"><ele>1367.0</ele></trkpt>
<trkpt lat="47.506805" lon="-120.838966"><ele>1365.4</ele></trkpt>
<trkpt lat="47.507305" lon="-120.838533"><ele>1359.8</ele></trkpt>
<trkpt lat="47.507368" lon="-120.838304"><ele>1357.2</ele></trkpt>
<trkpt lat="47.507458" lon="-120.838207"><ele>1355.3</ele></trkpt>
<trkpt lat="47.507555" lon="-120.837899"><ele>1349.3</ele></trkpt>
<trkpt lat="47.507648" lon="-120.837788"><ele>1348.5</ele></trkpt>
<trkpt lat="47.507642" lon="-120.837569"><ele>1344.2</ele></trkpt>
<trkpt lat="47.507745" lon="-120.837400"><ele>1341.3</ele></trkpt>
<trkpt lat="47.507750" lon="-120.837174"><ele>1337.8</ele></trkpt>
<trkpt lat="47.507887" lon="-120.836964"><ele>1330.2</ele></trkpt>
<trkpt lat="47.507788" lon="-120.836809"><ele>1325.2</ele></trkpt>
<trkpt lat="47.507861" lon="-120.836694"><ele>1322.1</ele></trkpt>
<trkpt lat="47.507720" lon="-120.836628"><ele>1317.8</ele></trkpt>
<trkpt lat="47.507634" lon="-120.836446"><ele>1315.2</ele></trkpt>
<trkpt lat="47.507660" lon="-120.836386"><ele>1315.0</ele></trkpt>
<trkpt lat="47.507752" lon="-120.836405"><ele>1314.5</ele></trkpt>
<trkpt lat="47.507706" lon="-120.836207"><ele>1308.6</ele></trkpt>
<trkpt lat="47.507822" lon="-120.836157"><ele>1307.1</ele></trkpt>
<trkpt lat="47.507723" lon="-120.835960"><ele>1304.7</ele></trkpt>
<trkpt lat="47.507663" lon="-120.835687"><ele>1300.1</ele></trkpt>
<trkpt lat="47.507701" lon="-120.835516"><ele>1298.9</ele></trkpt>
<trkpt lat="47.507486" lon="-120.835226"><ele>1294.5</ele></trkpt>
<trkpt lat="47.507668" lon="-120.834895"><ele>1286.1</ele></trkpt>
<trkpt lat="47.507619" lon="-120.834754"><ele>1283.6</ele></trkpt>
<trkpt lat="47.507697" lon="-120.834622"><ele>1281.3</ele></trkpt>
<trkpt lat="47.507702" lon="-120.834336"><ele>1277.5</ele></trkpt>
<trkpt lat="47.507768" lon="-120.834267"><ele>1275.4</ele></trkpt>
<trkpt lat="47.507970" lon="-120.833628"><ele>1267.1</ele></trkpt>
<trkpt lat="47.508131" lon="-120.833382"><ele>1263.7</ele></trkpt>
<trkpt lat="47.508066" lon="-120.833338"><ele>1262.1</ele></trkpt>
<trkpt lat="47.508083" lon="-120.833242"><ele>1260.0</ele></trkpt>
<trkpt lat="47.508511" lon="-120.832950"><ele>1251.3</ele></trkpt>
<trkpt lat="47.508708" lon="-120.832691"><ele>1249.2</ele></trkpt>
<trkpt lat="47.508602" lon="-120.832720"><ele>1248.3</ele></trkpt>
<trkpt lat="47.508546" lon="-120.832651"><ele>1246.4</ele></trkpt>
<trkpt lat="47.508657" lon="-120.832447"><ele>1243.1</ele></trkpt>
<trkpt lat="47.508628" lon="-120.832144"><ele>1247.2</ele></trkpt>
<trkpt lat="47.508657" lon="-120.832065"><ele>1245.7</ele></trkpt>
<trkpt lat="47.508689" lon="-120.832186"><ele>1244.9</ele></trkpt>
<trkpt lat="47.508664" lon="-120.832304"><ele>1243.0</ele></trkpt>
<trkpt lat="47.508776" lon="-120.832399"><ele>1240.9</ele></trkpt>
<trkpt lat="47.508988" lon="-120.832465"><ele>1237.8</ele></trkpt>
<trkpt lat="47.509100" lon="-120.832430"><ele>1235.1</ele></trkpt>
<trkpt lat="47.509167" lon="-120.832330"><ele>1236.2</ele></trkpt>
<trkpt lat="47.509175" lon="-120.832141"><ele>1236.0</ele></trkpt>
<trkpt lat="47.509061" lon="-120.831889"><ele>1229.7</ele></trkpt>
<trkpt lat="47.509024" lon="-120.831656"><ele>1225.6</ele></trkpt>
<trkpt lat="47.509033" lon="-120.831528"><ele>1223.2</ele></trkpt>
<trkpt lat="47.509110" lon="-120.831426"><ele>1221.5</ele></trkpt>
<trkpt lat="47.509145" lon="-120.830992"><ele>1215.1</ele></trkpt>
<trkpt lat="47.509260" lon="-120.830854"><ele>1215.3</ele></trkpt>
<trkpt lat="47.509199" lon="-120.830704"><ele>1211.0</ele></trkpt>
<trkpt lat="47.509241" lon="-120.830595"><ele>1209.3</ele></trkpt>
<trkpt lat="47.509157" lon="-120.830458"><ele>1212.4</ele></trkpt>
<trkpt lat="47.509335" lon="-120.829910"><ele>1207.3</ele></trkpt>
<trkpt lat="47.509751" lon="-120.829352"><ele>1207.1</ele></trkpt>
<trkpt lat="47.509793" lon="-120.829348"><ele>1206.7</ele></trkpt>
<trkpt lat="47.509837" lon="-120.829454"><ele>1206.3</ele></trkpt>
<trkpt lat="47.510204" lon="-120.829157"><ele>1197.2</ele></trkpt>
<trkpt lat="47.510574" lon="-120.828676"><ele>1199.9</ele></trkpt>
<trkpt lat="47.510719" lon="-120.828568"><ele>1197.7</ele></trkpt>
<trkpt lat="47.510854" lon="-120.828560"><ele>1193.8</ele></trkpt>
<trkpt lat="47.511325" lon="-120.828895"><ele>1186.5</ele></trkpt>
<trkpt lat="47.511498" lon="-120.828926"><ele>1181.5</ele></trkpt>
<trkpt lat="47.511634" lon="-120.828838"><ele>1178.0</ele></trkpt>
<trkpt lat="47.511770" lon="-120.828848"><ele>1174.9</ele></trkpt>
<trkpt lat="47.511938" lon="-120.828701"><ele>1174.8</ele></trkpt>
<trkpt lat="47.512002" lon="-120.828371"><ele>1174.8</ele></trkpt>
<trkpt lat="47.512093" lon="-120.828378"><ele>1173.2</ele></trkpt>
<trkpt lat="47.512180" lon="-120.828163"><ele>1170.8</ele></trkpt>
<trkpt lat="47.512478" lon="-120.828063"><ele>1166.4</ele></trkpt>
<trkpt lat="47.512604" lon="-120.827845"><ele>1167.6</ele></trkpt>
<trkpt lat="47.513662" lon="-120.827821"><ele>1167.2</ele></trkpt>
<trkpt lat="47.514134" lon="-120.827528"><ele>1163.9</ele></trkpt>
<trkpt lat="47.514315" lon="-120.827503"><ele>1164.7</ele></trkpt>
<trkpt lat="47.514470" lon="-120.827347"><ele>1163.6</ele></trkpt>
<trkpt lat="47.514582" lon="-120.827332"><ele>1161.5</ele></trkpt>
<trkpt lat="47.514757" lon="-120.827159"><ele>1158.8</ele></trkpt>
<trkpt lat="47.514952" lon="-120.827105"><ele>1157.1</ele></trkpt>
<trkpt lat="47.515118" lon="-120.826960"><ele>1156.9</ele></trkpt>
<trkpt lat="47.515368" lon="-120.826552"><ele>1154.6</ele></trkpt>
<trkpt lat="47.515632" lon="-120.826458"><ele>1149.6</ele></trkpt>
<trkpt lat="47.515833" lon="-120.826287"><ele>1145.9</ele></trkpt>
<trkpt lat="47.516399" lon="-120.826263"><ele>1138.8</ele></trkpt>
<trkpt lat="47.516995" lon="-120.825629"><ele>1138.1</ele></trkpt>
<trkpt lat="47.517127" lon="-120.825651"><ele>1136.6</ele></trkpt>
<trkpt lat="47.517398" lon="-120.825481"><ele>1135.0</ele></trkpt>
<trkpt lat="47.517488" lon="-120.825482"><ele>1131.9</ele></trkpt>
<trkpt lat="47.517857" lon="-120.825180"><ele>1140.3</ele></trkpt>
<trkpt lat="47.518132" lon="-120.825200"><ele>1135.9</ele></trkpt>
<trkpt lat="47.518477" lon="-120.825114"><ele>1130.0</ele></trkpt>
<trkpt lat="47.518735" lon="-120.825300"><ele>1127.6</ele></trkpt>
<trkpt lat="47.518863" lon="-120.825283"><ele>1126.4</ele></trkpt>
<trkpt lat="47.518896" lon="-120.824807"><ele>1127.0</ele></trkpt>
<trkpt lat="47.519282" lon="-120.824193"><ele>1122.1</ele></trkpt>
<trkpt lat="47.519386" lon="-120.823893"><ele>1123.1</ele></trkpt>
<trkpt lat="47.519533" lon="-120.823693"><ele>1123.9</ele></trkpt>
<trkpt lat="47.519899" lon="-120.823501"><ele>1122.0</ele></trkpt>
<trkpt lat="47.520355" lon="-120.823391"><ele>1123.0</ele></trkpt>
<trkpt lat="47.520565" lon="-120.823192"><ele>1124.7</ele></trkpt>
<trkpt lat="47.520644" lon="-120.823199"><ele>1124.1</ele></trkpt>
<trkpt lat="47.520903" lon="-120.823459"><ele>1116.5</ele></trkpt>
<trkpt lat="47.521398" lon="-120.823259"><ele>1111.7</ele></trkpt>
<trkpt lat="47.521789" lon="-120.823261"><ele>1105.3</ele></trkpt>
<trkpt lat="47.521858" lon="-120.823128"><ele>1102.8</ele></trkpt>
<trkpt lat="47.522064" lon="-120.823062"><ele>1101.7</ele></trkpt>
<trkpt lat="47.522379" lon="-120.823078"><ele>1098.9</ele></trkpt>
<trkpt lat="47.522560" lon="-120.823301"><ele>1094.2</ele></trkpt>
<trkpt lat="47.522805" lon="-120.823312"><ele>1088.9</ele></trkpt>
<trkpt lat="47.523139" lon="-120.822907"><ele>1086.3</ele></trkpt>
<trkpt lat="47.523301" lon="-120.822822"><ele>1088.3</ele></trkpt>
<trkpt lat="47.523362" lon="-120.822696"><ele>1088.1</ele></trkpt>
<trkpt lat="47.523710" lon="-120.822405"><ele>1084.7</ele></trkpt>
<trkpt lat="47.524067" lon="-120.822596"><ele>1074.8</ele></trkpt>
<trkpt lat="47.524258" lon="-120.822546"><ele>1072.1</ele></trkpt>
<trkpt lat="47.524559" lon="-120.822597"><ele>1069.1</ele></trkpt>
<trkpt lat="47.524759" lon="-120.822379"><ele>1068.0</ele></trkpt>
<trkpt lat="47.524949" lon="-120.822420"><ele>1063.6</ele></trkpt>
<trkpt lat="47.525046" lon="-120.822173"><ele>1064.5</ele></trkpt>
<trkpt lat="47.525241" lon="-120.821998"><ele>1066.0</ele></trkpt>
<trkpt lat="47.525604" lon="-120.821911"><ele>1063.9</ele></trkpt>
<trkpt lat="47.525899" lon="-120.821706"><ele>1063.7</ele></trkpt>
<trkpt lat="47.526482" lon="-120.821640"><ele>1057.8</ele></trkpt>
<trkpt lat="47.526583" lon="-120.821527"><ele>1057.1</ele></trkpt>
<trkpt lat="47.526824" lon="-120.821448"><ele>1056.0</ele></trkpt>
<trkpt lat="47.527114" lon="-120.821021"><ele>1050.6</ele></trkpt>
<trkpt lat="47.527512" lon="-120.820819"><ele>1047.5</ele></trkpt>
<trkpt lat="47.527707" lon="-120.820976"><ele>1040.3</ele></trkpt>
<trkpt lat="47.527726" lon="-120.820842"><ele>1037.0</ele></trkpt>
<trkpt lat="47.527769" lon="-120.820811"><ele>1036.2</ele></trkpt>
<trkpt lat="47.527758" lon="-120.820873"><ele>1037.2</ele></trkpt>
<trkpt lat="47.527697" lon="-120.820891"><ele>1036.5</ele></trkpt>
<trkpt lat="47.527907" lon="-120.820666"><ele>1037.0</ele></trkpt>
</trkseg></trk>
</gpx>
