<?xml version="1.0" encoding="UTF-8"?>
<gpx version="1.1" creator="The Lost Trailhead" xmlns="http://www.topografix.com/GPX/1/1" xmlns:xsi="http://www.w3.org/2001/XMLSchema-instance" xsi:schemaLocation="http://www.topografix.com/GPX/1/1 http://www.topografix.com/GPX/1/1/gpx.xsd">
<metadata><name>Lake Twenty-Two</name><desc>The Lost Trailhead, thelosttrailhead.com/hikes/lake-22. Conditions change. Use at your own risk.</desc><link href="https://thelosttrailhead.com/hikes/lake-22"><text>Lake Twenty-Two on The Lost Trailhead</text></link></metadata>
<trk><name>Lake Twenty-Two</name><link href="https://thelosttrailhead.com/hikes/lake-22"><text>Lake Twenty-Two on The Lost Trailhead</text></link><trkseg>
<trkpt lat="48.076747" lon="-121.745908"><ele>338.0</ele></trkpt>
<trkpt lat="48.076461" lon="-121.746267"><ele>333.0</ele></trkpt>
<trkpt lat="48.076375" lon="-121.746521"><ele>332.0</ele></trkpt>
<trkpt lat="48.076411" lon="-121.746641"><ele>331.8</ele></trkpt>
<trkpt lat="48.076632" lon="-121.746862"><ele>331.1</ele></trkpt>
<trkpt lat="48.076701" lon="-121.747089"><ele>330.1</ele></trkpt>
<trkpt lat="48.076727" lon="-121.747640"><ele>329.2</ele></trkpt>
<trkpt lat="48.076644" lon="-121.747986"><ele>330.7</ele></trkpt>
<trkpt lat="48.076724" lon="-121.748949"><ele>338.4</ele></trkpt>
<trkpt lat="48.076932" lon="-121.749254"><ele>341.2</ele></trkpt>
<trkpt lat="48.076967" lon="-121.749686"><ele>345.6</ele></trkpt>
<trkpt lat="48.077247" lon="-121.750108"><ele>350.4</ele></trkpt>
<trkpt lat="48.077394" lon="-121.750670"><ele>356.0</ele></trkpt>
<trkpt lat="48.077624" lon="-121.750960"><ele>355.5</ele></trkpt>
<trkpt lat="48.077669" lon="-121.751112"><ele>356.2</ele></trkpt>
<trkpt lat="48.077792" lon="-121.751122"><ele>356.2</ele></trkpt>
<trkpt lat="48.078029" lon="-121.751546"><ele>357.2</ele></trkpt>
<trkpt lat="48.078409" lon="-121.751936"><ele>362.5</ele></trkpt>
<trkpt lat="48.078425" lon="-121.752089"><ele>363.8</ele></trkpt>
<trkpt lat="48.078611" lon="-121.752264"><ele>366.6</ele></trkpt>
<trkpt lat="48.078754" lon="-121.752574"><ele>368.3</ele></trkpt>
<trkpt lat="48.078820" lon="-121.752913"><ele>370.2</ele></trkpt>
<trkpt lat="48.078715" lon="-121.753238"><ele>371.8</ele></trkpt>
<trkpt lat="48.078704" lon="-121.753605"><ele>375.4</ele></trkpt>
<trkpt lat="48.078785" lon="-121.753900"><ele>379.0</ele></trkpt>
<trkpt lat="48.078706" lon="-121.754382"><ele>385.8</ele></trkpt>
<trkpt lat="48.078796" lon="-121.754767"><ele>389.0</ele></trkpt>
<trkpt lat="48.078887" lon="-121.754924"><ele>392.4</ele></trkpt>
<trkpt lat="48.078876" lon="-121.755050"><ele>393.0</ele></trkpt>
<trkpt lat="48.078703" lon="-121.755348"><ele>399.0</ele></trkpt>
<trkpt lat="48.078484" lon="-121.755510"><ele>401.3</ele></trkpt>
<trkpt lat="48.078443" lon="-121.755652"><ele>404.2</ele></trkpt>
<trkpt lat="48.078258" lon="-121.755368"><ele>409.2</ele></trkpt>
<trkpt lat="48.078161" lon="-121.755526"><ele>412.0</ele></trkpt>
<trkpt lat="48.078169" lon="-121.756031"><ele>415.3</ele></trkpt>
<trkpt lat="48.078300" lon="-121.756481"><ele>417.2</ele></trkpt>
<trkpt lat="48.078506" lon="-121.756590"><ele>420.6</ele></trkpt>
<trkpt lat="48.078323" lon="-121.756605"><ele>425.5</ele></trkpt>
<trkpt lat="48.078100" lon="-121.756892"><ele>429.9</ele></trkpt>
<trkpt lat="48.077617" lon="-121.756964"><ele>436.5</ele></trkpt>
<trkpt lat="48.077598" lon="-121.757052"><ele>438.9</ele></trkpt>
<trkpt lat="48.077679" lon="-121.757088"><ele>440.3</ele></trkpt>
<trkpt lat="48.077544" lon="-121.757129"><ele>442.7</ele></trkpt>
<trkpt lat="48.077174" lon="-121.757406"><ele>446.8</ele></trkpt>
<trkpt lat="48.077116" lon="-121.757556"><ele>448.3</ele></trkpt>
<trkpt lat="48.077269" lon="-121.757774"><ele>451.8</ele></trkpt>
<trkpt lat="48.076510" lon="-121.758453"><ele>464.4</ele></trkpt>
<trkpt lat="48.076282" lon="-121.759314"><ele>473.9</ele></trkpt>
<trkpt lat="48.076340" lon="-121.759448"><ele>477.2</ele></trkpt>
<trkpt lat="48.076383" lon="-121.759396"><ele>477.2</ele></trkpt>
<trkpt lat="48.076369" lon="-121.759511"><ele>477.9</ele></trkpt>
<trkpt lat="48.076281" lon="-121.759487"><ele>479.4</ele></trkpt>
<trkpt lat="48.075894" lon="-121.759773"><ele>485.1</ele></trkpt>
<trkpt lat="48.075891" lon="-121.759840"><ele>486.4</ele></trkpt>
<trkpt lat="48.075963" lon="-121.759870"><ele>488.8</ele></trkpt>
<trkpt lat="48.076040" lon="-121.760026"><ele>492.4</ele></trkpt>
<trkpt lat="48.075995" lon="-121.760060"><ele>494.8</ele></trkpt>
<trkpt lat="48.075994" lon="-121.760142"><ele>497.2</ele></trkpt>
<trkpt lat="48.075904" lon="-121.760073"><ele>496.5</ele></trkpt>
<trkpt lat="48.075762" lon="-121.760172"><ele>498.6</ele></trkpt>
<trkpt lat="48.075775" lon="-121.760240"><ele>500.1</ele></trkpt>
<trkpt lat="48.075879" lon="-121.760219"><ele>501.5</ele></trkpt>
<trkpt lat="48.076118" lon="-121.760382"><ele>507.3</ele></trkpt>
<trkpt lat="48.075945" lon="-121.760316"><ele>510.0</ele></trkpt>
<trkpt lat="48.075720" lon="-121.760453"><ele>513.1</ele></trkpt>
<trkpt lat="48.075714" lon="-121.760528"><ele>514.8</ele></trkpt>
<trkpt lat="48.075787" lon="-121.760537"><ele>515.9</ele></trkpt>
<trkpt lat="48.075673" lon="-121.760703"><ele>519.2</ele></trkpt>
<trkpt lat="48.075702" lon="-121.760985"><ele>521.7</ele></trkpt>
<trkpt lat="48.075752" lon="-121.761176"><ele>521.2</ele></trkpt>
<trkpt lat="48.075889" lon="-121.761330"><ele>521.3</ele></trkpt>
<trkpt lat="48.075913" lon="-121.761533"><ele>522.0</ele></trkpt>
<trkpt lat="48.076099" lon="-121.761712"><ele>522.4</ele></trkpt>
<trkpt lat="48.076094" lon="-121.761913"><ele>522.5</ele></trkpt>
<trkpt lat="48.076232" lon="-121.762181"><ele>524.0</ele></trkpt>
<trkpt lat="48.076245" lon="-121.762366"><ele>525.0</ele></trkpt>
<trkpt lat="48.076438" lon="-121.762659"><ele>528.0</ele></trkpt>
<trkpt lat="48.076242" lon="-121.762578"><ele>532.4</ele></trkpt>
<trkpt lat="48.076086" lon="-121.762588"><ele>534.8</ele></trkpt>
<trkpt lat="48.076038" lon="-121.762544"><ele>535.5</ele></trkpt>
<trkpt lat="48.075999" lon="-121.762327"><ele>536.3</ele></trkpt>
<trkpt lat="48.075902" lon="-121.762233"><ele>537.3</ele></trkpt>
<trkpt lat="48.075580" lon="-121.762276"><ele>542.2</ele></trkpt>
<trkpt lat="48.075419" lon="-121.761962"><ele>545.0</ele></trkpt>
<trkpt lat="48.075204" lon="-121.761777"><ele>547.7</ele></trkpt>
<trkpt lat="48.075233" lon="-121.761564"><ele>549.8</ele></trkpt>
<trkpt lat="48.075092" lon="-121.761424"><ele>553.0</ele></trkpt>
<trkpt lat="48.074903" lon="-121.761471"><ele>556.3</ele></trkpt>
<trkpt lat="48.074633" lon="-121.761304"><ele>560.1</ele></trkpt>
<trkpt lat="48.074335" lon="-121.761463"><ele>563.3</ele></trkpt>
<trkpt lat="48.073904" lon="-121.761362"><ele>566.4</ele></trkpt>
<trkpt lat="48.073884" lon="-121.761438"><ele>567.4</ele></trkpt>
<trkpt lat="48.073935" lon="-121.761509"><ele>568.2</ele></trkpt>
<trkpt lat="48.074112" lon="-121.761559"><ele>569.0</ele></trkpt>
<trkpt lat="48.074404" lon="-121.761766"><ele>572.3</ele></trkpt>
<trkpt lat="48.074361" lon="-121.762145"><ele>575.0</ele></trkpt>
<trkpt lat="48.074558" lon="-121.762368"><ele>578.7</ele></trkpt>
<trkpt lat="48.074635" lon="-121.762770"><ele>581.6</ele></trkpt>
<trkpt lat="48.074706" lon="-121.762850"><ele>583.1</ele></trkpt>
<trkpt lat="48.074729" lon="-121.763120"><ele>585.1</ele></trkpt>
<trkpt lat="48.074983" lon="-121.763447"><ele>590.5</ele></trkpt>
<trkpt lat="48.075023" lon="-121.763643"><ele>592.9</ele></trkpt>
<trkpt lat="48.075188" lon="-121.763697"><ele>596.5</ele></trkpt>
<trkpt lat="48.075417" lon="-121.763919"><ele>601.7</ele></trkpt>
<trkpt lat="48.075169" lon="-121.763847"><ele>604.5</ele></trkpt>
<trkpt lat="48.074909" lon="-121.763864"><ele>609.8</ele></trkpt>
<trkpt lat="48.074738" lon="-121.763770"><ele>613.0</ele></trkpt>
<trkpt lat="48.074731" lon="-121.763835"><ele>613.5</ele></trkpt>
<trkpt lat="48.074738" lon="-121.763770"><ele>613.4</ele></trkpt>
<trkpt lat="48.074456" lon="-121.763759"><ele>618.5</ele></trkpt>
<trkpt lat="48.073661" lon="-121.763512"><ele>633.8</ele></trkpt>
<trkpt lat="48.073310" lon="-121.763499"><ele>641.3</ele></trkpt>
<trkpt lat="48.073173" lon="-121.763560"><ele>644.7</ele></trkpt>
<trkpt lat="48.072880" lon="-121.763298"><ele>651.7</ele></trkpt>
<trkpt lat="48.072787" lon="-121.763293"><ele>654.0</ele></trkpt>
<trkpt lat="48.072723" lon="-121.763343"><ele>656.8</ele></trkpt>
<trkpt lat="48.072812" lon="-121.763485"><ele>659.5</ele></trkpt>
<trkpt lat="48.072981" lon="-121.763994"><ele>666.3</ele></trkpt>
<trkpt lat="48.073518" lon="-121.764204"><ele>670.2</ele></trkpt>
<trkpt lat="48.073598" lon="-121.764302"><ele>670.9</ele></trkpt>
<trkpt lat="48.073631" lon="-121.764261"><ele>671.2</ele></trkpt>
<trkpt lat="48.073510" lon="-121.764182"><ele>670.8</ele></trkpt>
<trkpt lat="48.072914" lon="-121.764114"><ele>676.9</ele></trkpt>
<trkpt lat="48.072404" lon="-121.763628"><ele>683.7</ele></trkpt>
<trkpt lat="48.072191" lon="-121.763319"><ele>688.7</ele></trkpt>
<trkpt lat="48.071891" lon="-121.763328"><ele>693.4</ele></trkpt>
<trkpt lat="48.071895" lon="-121.763081"><ele>695.0</ele></trkpt>
<trkpt lat="48.071831" lon="-121.762989"><ele>695.6</ele></trkpt>
<trkpt lat="48.071702" lon="-121.762915"><ele>696.5</ele></trkpt>
<trkpt lat="48.071583" lon="-121.762981"><ele>698.0</ele></trkpt>
<trkpt lat="48.071509" lon="-121.762770"><ele>699.7</ele></trkpt>
<trkpt lat="48.071328" lon="-121.762677"><ele>701.3</ele></trkpt>
<trkpt lat="48.071298" lon="-121.762591"><ele>701.5</ele></trkpt>
<trkpt lat="48.071327" lon="-121.762453"><ele>702.5</ele></trkpt>
<trkpt lat="48.071281" lon="-121.762312"><ele>703.8</ele></trkpt>
<trkpt lat="48.071154" lon="-121.762046"><ele>707.0</ele></trkpt>
<trkpt lat="48.071068" lon="-121.761990"><ele>707.7</ele></trkpt>
<trkpt lat="48.071035" lon="-121.762272"><ele>710.1</ele></trkpt>
<trkpt lat="48.071074" lon="-121.762409"><ele>710.7</ele></trkpt>
<trkpt lat="48.070934" lon="-121.762807"><ele>713.4</ele></trkpt>
<trkpt lat="48.071073" lon="-121.763084"><ele>715.0</ele></trkpt>
<trkpt lat="48.071158" lon="-121.763115"><ele>715.8</ele></trkpt>
<trkpt lat="48.071127" lon="-121.763187"><ele>718.3</ele></trkpt>
<trkpt lat="48.070924" lon="-121.763242"><ele>724.2</ele></trkpt>
<trkpt lat="48.070785" lon="-121.763162"><ele>725.6</ele></trkpt>
<trkpt lat="48.070692" lon="-121.762968"><ele>727.4</ele></trkpt>
<trkpt lat="48.070631" lon="-121.762674"><ele>728.0</ele></trkpt>
<trkpt lat="48.070431" lon="-121.762361"><ele>731.0</ele></trkpt>
<trkpt lat="48.070079" lon="-121.762795"><ele>735.0</ele></trkpt>
<trkpt lat="48.069921" lon="-121.762836"><ele>734.8</ele></trkpt>
<trkpt lat="48.069161" lon="-121.762636"><ele>741.0</ele></trkpt>
<trkpt lat="48.069093" lon="-121.762480"><ele>741.5</ele></trkpt>
<trkpt lat="48.068894" lon="-121.762331"><ele>741.5</ele></trkpt>
<trkpt lat="48.068721" lon="-121.762101"><ele>743.4</ele></trkpt>
<trkpt lat="48.068240" lon="-121.761936"><ele>745.8</ele></trkpt>
<trkpt lat="48.067715" lon="-121.762094"><ele>746.4</ele></trkpt>
<trkpt lat="48.067030" lon="-121.762423"><ele>747.8</ele></trkpt>
<trkpt lat="48.066946" lon="-121.762325"><ele>746.9</ele></trkpt>
<trkpt lat="48.066904" lon="-121.762143"><ele>745.6</ele></trkpt>
<trkpt lat="48.066812" lon="-121.762053"><ele>744.6</ele></trkpt>
<trkpt lat="48.066217" lon="-121.761657"><ele>745.6</ele></trkpt>
<trkpt lat="48.065903" lon="-121.761649"><ele>746.0</ele></trkpt>
<trkpt lat="48.065701" lon="-121.761810"><ele>747.2</ele></trkpt>
<trkpt lat="48.065519" lon="-121.761806"><ele>746.8</ele></trkpt>
<trkpt lat="48.065144" lon="-121.761539"><ele>748.3</ele></trkpt>
<trkpt lat="48.064607" lon="-121.761365"><ele>746.9</ele></trkpt>
<trkpt lat="48.064160" lon="-121.761301"><ele>747.9</ele></trkpt>
<trkpt lat="48.063939" lon="-121.761343"><ele>748.2</ele></trkpt>
<trkpt lat="48.063740" lon="-121.761487"><ele>746.8</ele></trkpt>
<trkpt lat="48.063676" lon="-121.761441"><ele>747.6</ele></trkpt>
<trkpt lat="48.063059" lon="-121.761491"><ele>751.9</ele></trkpt>
<trkpt lat="48.062897" lon="-121.761409"><ele>753.2</ele></trkpt>
<trkpt lat="48.062559" lon="-121.761389"><ele>752.9</ele></trkpt>
<trkpt lat="48.062268" lon="-121.761619"><ele>753.4</ele></trkpt>
<trkpt lat="48.062086" lon="-121.761682"><ele>754.3</ele></trkpt>
<trkpt lat="48.061774" lon="-121.762048"><ele>751.1</ele></trkpt>
<trkpt lat="48.061571" lon="-121.762174"><ele>749.0</ele></trkpt>
<trkpt lat="48.061427" lon="-121.762511"><ele>745.7</ele></trkpt>
<trkpt lat="48.061185" lon="-121.762893"><ele>742.0</ele></trkpt>
<trkpt lat="48.061103" lon="-121.763128"><ele>742.2</ele></trkpt>
<trkpt lat="48.061083" lon="-121.763099"><ele>742.4</ele></trkpt>
<trkpt lat="48.061101" lon="-121.763280"><ele>741.9</ele></trkpt>
<trkpt lat="48.061036" lon="-121.763487"><ele>742.0</ele></trkpt>
<trkpt lat="48.061113" lon="-121.764661"><ele>744.1</ele></trkpt>
<trkpt lat="48.060943" lon="-121.764576"><ele>746.2</ele></trkpt>
<trkpt lat="48.061107" lon="-121.764711"><ele>743.8</ele></trkpt>
<trkpt lat="48.061249" lon="-121.764990"><ele>744.6</ele></trkpt>
<trkpt lat="48.061664" lon="-121.765356"><ele>744.5</ele></trkpt>
<trkpt lat="48.061769" lon="-121.765614"><ele>744.5</ele></trkpt>
<trkpt lat="48.061938" lon="-121.765806"><ele>744.3</ele></trkpt>
<trkpt lat="48.061932" lon="-121.766017"><ele>745.6</ele></trkpt>
<trkpt lat="48.062025" lon="-121.766163"><ele>748.8</ele></trkpt>
<trkpt lat="48.062004" lon="-121.766428"><ele>750.3</ele></trkpt>
<trkpt lat="48.062048" lon="-121.766546"><ele>750.6</ele></trkpt>
<trkpt lat="48.062288" lon="-121.766599"><ele>751.8</ele></trkpt>
<trkpt lat="48.062421" lon="-121.766552"><ele>752.2</ele></trkpt>
<trkpt lat="48.062514" lon="-121.766622"><ele>751.4</ele></trkpt>
<trkpt lat="48.062735" lon="-121.766643"><ele>748.8</ele></trkpt>
<trkpt lat="48.062951" lon="-121.766850"><ele>746.5</ele></trkpt>
<trkpt lat="48.063193" lon="-121.766732"><ele>742.9</ele></trkpt>
<trkpt lat="48.063263" lon="-121.767022"><ele>742.6</ele></trkpt>
<trkpt lat="48.063483" lon="-121.767270"><ele>743.3</ele></trkpt>
<trkpt lat="48.063717" lon="-121.767253"><ele>743.3</ele></trkpt>
<trkpt lat="48.064337" lon="-121.766967"><ele>742.1</ele></trkpt>
<trkpt lat="48.064434" lon="-121.766795"><ele>744.0</ele></trkpt>
<trkpt lat="48.064833" lon="-121.766591"><ele>750.6</ele></trkpt>
<trkpt lat="48.064989" lon="-121.766360"><ele>751.0</ele></trkpt>
<trkpt lat="48.065035" lon="-121.766177"><ele>750.2</ele></trkpt>
<trkpt lat="48.064946" lon="-121.765732"><ele>747.1</ele></trkpt>
<trkpt lat="48.065268" lon="-121.765842"><ele>746.4</ele></trkpt>
<trkpt lat="48.065926" lon="-121.764981"><ele>751.0</ele></trkpt>
<trkpt lat="48.066060" lon="-121.764901"><ele>752.0</ele></trkpt>
<trkpt lat="48.066121" lon="-121.764643"><ele>751.2</ele></trkpt>
<trkpt lat="48.066210" lon="-121.764505"><ele>751.3</ele></trkpt>
<trkpt lat="48.066374" lon="-121.764471"><ele>750.3</ele></trkpt>
<trkpt lat="48.066497" lon="-121.764368"><ele>750.0</ele></trkpt>
<trkpt lat="48.066879" lon="-121.763623"><ele>748.2</ele></trkpt>
<trkpt lat="48.066995" lon="-121.763000"><ele>744.7</ele></trkpt>
<trkpt lat="48.066999" lon="-121.762489"><ele>744.1</ele></trkpt>
<trkpt lat="48.066955" lon="-121.762313"><ele>744.1</ele></trkpt>
<trkpt lat="48.067040" lon="-121.762464"><ele>744.4</ele></trkpt>
<trkpt lat="48.068184" lon="-121.762006"><ele>744.0</ele></trkpt>
<trkpt lat="48.068364" lon="-121.762025"><ele>743.7</ele></trkpt>
<trkpt lat="48.068721" lon="-121.762208"><ele>741.2</ele></trkpt>
<trkpt lat="48.069080" lon="-121.762551"><ele>739.3</ele></trkpt>
<trkpt lat="48.069150" lon="-121.762694"><ele>739.2</ele></trkpt>
<trkpt lat="48.069938" lon="-121.762894"><ele>733.3</ele></trkpt>
<trkpt lat="48.070107" lon="-121.762837"><ele>733.4</ele></trkpt>
<trkpt lat="48.070425" lon="-121.762424"><ele>730.5</ele></trkpt>
<trkpt lat="48.070583" lon="-121.762668"><ele>727.3</ele></trkpt>
<trkpt lat="48.070730" lon="-121.763228"><ele>725.5</ele></trkpt>
<trkpt lat="48.070939" lon="-121.763308"><ele>722.8</ele></trkpt>
<trkpt lat="48.071021" lon="-121.763222"><ele>720.4</ele></trkpt>
<trkpt lat="48.071125" lon="-121.763263"><ele>718.9</ele></trkpt>
<trkpt lat="48.071180" lon="-121.763128"><ele>716.3</ele></trkpt>
<trkpt lat="48.070958" lon="-121.762811"><ele>712.9</ele></trkpt>
<trkpt lat="48.071111" lon="-121.762456"><ele>710.2</ele></trkpt>
<trkpt lat="48.071005" lon="-121.761937"><ele>706.6</ele></trkpt>
<trkpt lat="48.071269" lon="-121.762400"><ele>703.4</ele></trkpt>
<trkpt lat="48.071310" lon="-121.762717"><ele>700.4</ele></trkpt>
<trkpt lat="48.071467" lon="-121.762799"><ele>699.7</ele></trkpt>
<trkpt lat="48.071543" lon="-121.762995"><ele>697.9</ele></trkpt>
<trkpt lat="48.071695" lon="-121.762966"><ele>696.3</ele></trkpt>
<trkpt lat="48.071820" lon="-121.763062"><ele>694.6</ele></trkpt>
<trkpt lat="48.071871" lon="-121.763362"><ele>692.5</ele></trkpt>
<trkpt lat="48.072182" lon="-121.763415"><ele>687.5</ele></trkpt>
<trkpt lat="48.072609" lon="-121.763932"><ele>680.1</ele></trkpt>
<trkpt lat="48.072667" lon="-121.763923"><ele>679.3</ele></trkpt>
<trkpt lat="48.072904" lon="-121.764139"><ele>676.7</ele></trkpt>
<trkpt lat="48.073401" lon="-121.764214"><ele>671.4</ele></trkpt>
<trkpt lat="48.073443" lon="-121.764154"><ele>669.6</ele></trkpt>
<trkpt lat="48.073102" lon="-121.763994"><ele>666.9</ele></trkpt>
<trkpt lat="48.072962" lon="-121.763858"><ele>664.6</ele></trkpt>
<trkpt lat="48.072827" lon="-121.763437"><ele>658.7</ele></trkpt>
<trkpt lat="48.072711" lon="-121.763303"><ele>656.1</ele></trkpt>
<trkpt lat="48.072983" lon="-121.763405"><ele>649.1</ele></trkpt>
<trkpt lat="48.073178" lon="-121.763589"><ele>644.0</ele></trkpt>
<trkpt lat="48.073468" lon="-121.763525"><ele>636.5</ele></trkpt>
<trkpt lat="48.073680" lon="-121.763555"><ele>632.9</ele></trkpt>
<trkpt lat="48.074451" lon="-121.763796"><ele>617.7</ele></trkpt>
<trkpt lat="48.074714" lon="-121.763823"><ele>613.0</ele></trkpt>
<trkpt lat="48.074853" lon="-121.763928"><ele>610.3</ele></trkpt>
<trkpt lat="48.075418" lon="-121.763878"><ele>599.6</ele></trkpt>
<trkpt lat="48.075020" lon="-121.763588"><ele>591.9</ele></trkpt>
<trkpt lat="48.075000" lon="-121.763400"><ele>588.9</ele></trkpt>
<trkpt lat="48.074754" lon="-121.763141"><ele>583.7</ele></trkpt>
<trkpt lat="48.074725" lon="-121.762844"><ele>581.4</ele></trkpt>
<trkpt lat="48.074646" lon="-121.762721"><ele>579.8</ele></trkpt>
<trkpt lat="48.074598" lon="-121.762379"><ele>576.8</ele></trkpt>
<trkpt lat="48.074385" lon="-121.762117"><ele>572.9</ele></trkpt>
<trkpt lat="48.074457" lon="-121.761713"><ele>569.1</ele></trkpt>
<trkpt lat="48.074129" lon="-121.761507"><ele>567.0</ele></trkpt>
<trkpt lat="48.073987" lon="-121.761489"><ele>565.7</ele></trkpt>
<trkpt lat="48.073897" lon="-121.761362"><ele>564.2</ele></trkpt>
<trkpt lat="48.073979" lon="-121.761461"><ele>562.5</ele></trkpt>
<trkpt lat="48.074298" lon="-121.761549"><ele>560.5</ele></trkpt>
<trkpt lat="48.074589" lon="-121.761377"><ele>557.7</ele></trkpt>
<trkpt lat="48.074894" lon="-121.761532"><ele>553.8</ele></trkpt>
<trkpt lat="48.075050" lon="-121.761475"><ele>550.4</ele></trkpt>
<trkpt lat="48.075168" lon="-121.761620"><ele>547.3</ele></trkpt>
<trkpt lat="48.075113" lon="-121.761759"><ele>544.8</ele></trkpt>
<trkpt lat="48.075129" lon="-121.761841"><ele>544.4</ele></trkpt>
<trkpt lat="48.075305" lon="-121.761936"><ele>542.8</ele></trkpt>
<trkpt lat="48.075525" lon="-121.762333"><ele>539.1</ele></trkpt>
<trkpt lat="48.075835" lon="-121.762282"><ele>533.9</ele></trkpt>
<trkpt lat="48.075949" lon="-121.762385"><ele>532.8</ele></trkpt>
<trkpt lat="48.076061" lon="-121.762667"><ele>530.8</ele></trkpt>
<trkpt lat="48.076442" lon="-121.762689"><ele>524.6</ele></trkpt>
<trkpt lat="48.076268" lon="-121.762262"><ele>519.9</ele></trkpt>
<trkpt lat="48.076245" lon="-121.762089"><ele>518.9</ele></trkpt>
<trkpt lat="48.076132" lon="-121.761886"><ele>518.1</ele></trkpt>
<trkpt lat="48.076141" lon="-121.761706"><ele>517.4</ele></trkpt>
<trkpt lat="48.076009" lon="-121.761503"><ele>517.4</ele></trkpt>
<trkpt lat="48.075933" lon="-121.761478"><ele>517.3</ele></trkpt>
<trkpt lat="48.075914" lon="-121.761333"><ele>517.3</ele></trkpt>
<trkpt lat="48.075858" lon="-121.761288"><ele>517.1</ele></trkpt>
<trkpt lat="48.075894" lon="-121.761296"><ele>517.2</ele></trkpt>
<trkpt lat="48.075817" lon="-121.761364"><ele>516.3</ele></trkpt>
<trkpt lat="48.075862" lon="-121.761309"><ele>516.0</ele></trkpt>
<trkpt lat="48.075721" lon="-121.760939"><ele>515.8</ele></trkpt>
<trkpt lat="48.075711" lon="-121.760736"><ele>515.3</ele></trkpt>
<trkpt lat="48.075834" lon="-121.760529"><ele>511.9</ele></trkpt>
<trkpt lat="48.075700" lon="-121.760480"><ele>510.1</ele></trkpt>
<trkpt lat="48.076088" lon="-121.760378"><ele>504.4</ele></trkpt>
<trkpt lat="48.075890" lon="-121.760178"><ele>500.4</ele></trkpt>
<trkpt lat="48.075738" lon="-121.760175"><ele>497.8</ele></trkpt>
<trkpt lat="48.075844" lon="-121.760075"><ele>494.4</ele></trkpt>
<trkpt lat="48.075945" lon="-121.760108"><ele>493.1</ele></trkpt>
<trkpt lat="48.076028" lon="-121.760041"><ele>491.3</ele></trkpt>
<trkpt lat="48.076006" lon="-121.759899"><ele>488.5</ele></trkpt>
<trkpt lat="48.075841" lon="-121.759833"><ele>485.5</ele></trkpt>
<trkpt lat="48.075831" lon="-121.759753"><ele>484.3</ele></trkpt>
<trkpt lat="48.075878" lon="-121.759832"><ele>483.6</ele></trkpt>
<trkpt lat="48.076133" lon="-121.759609"><ele>479.9</ele></trkpt>
<trkpt lat="48.076354" lon="-121.759552"><ele>477.0</ele></trkpt>
<trkpt lat="48.076376" lon="-121.759409"><ele>475.9</ele></trkpt>
<trkpt lat="48.076301" lon="-121.759323"><ele>474.4</ele></trkpt>
<trkpt lat="48.076524" lon="-121.758526"><ele>465.3</ele></trkpt>
<trkpt lat="48.076604" lon="-121.758498"><ele>463.0</ele></trkpt>
<trkpt lat="48.077208" lon="-121.757874"><ele>451.9</ele></trkpt>
<trkpt lat="48.077240" lon="-121.757693"><ele>450.8</ele></trkpt>
<trkpt lat="48.077178" lon="-121.757570"><ele>449.8</ele></trkpt>
<trkpt lat="48.077129" lon="-121.757565"><ele>448.9</ele></trkpt>
<trkpt lat="48.077191" lon="-121.757470"><ele>446.9</ele></trkpt>
<trkpt lat="48.077623" lon="-121.757150"><ele>441.4</ele></trkpt>
<trkpt lat="48.077607" lon="-121.757015"><ele>437.9</ele></trkpt>
<trkpt lat="48.078038" lon="-121.756972"><ele>430.6</ele></trkpt>
<trkpt lat="48.078305" lon="-121.756674"><ele>426.8</ele></trkpt>
<trkpt lat="48.078404" lon="-121.756599"><ele>424.1</ele></trkpt>
<trkpt lat="48.078498" lon="-121.756611"><ele>422.6</ele></trkpt>
<trkpt lat="48.078446" lon="-121.756506"><ele>420.6</ele></trkpt>
<trkpt lat="48.078297" lon="-121.756433"><ele>418.1</ele></trkpt>
<trkpt lat="48.078270" lon="-121.756319"><ele>417.4</ele></trkpt>
<trkpt lat="48.078280" lon="-121.756401"><ele>417.4</ele></trkpt>
<trkpt lat="48.078157" lon="-121.755566"><ele>413.1</ele></trkpt>
<trkpt lat="48.078185" lon="-121.755397"><ele>410.7</ele></trkpt>
<trkpt lat="48.078413" lon="-121.755691"><ele>404.4</ele></trkpt>
<trkpt lat="48.078583" lon="-121.755459"><ele>399.2</ele></trkpt>
<trkpt lat="48.078657" lon="-121.755443"><ele>398.6</ele></trkpt>
<trkpt lat="48.078900" lon="-121.755011"><ele>392.7</ele></trkpt>
<trkpt lat="48.078793" lon="-121.754726"><ele>388.8</ele></trkpt>
<trkpt lat="48.078763" lon="-121.754370"><ele>386.1</ele></trkpt>
<trkpt lat="48.078797" lon="-121.753856"><ele>379.7</ele></trkpt>
<trkpt lat="48.078752" lon="-121.753617"><ele>376.6</ele></trkpt>
<trkpt lat="48.078767" lon="-121.753110"><ele>371.7</ele></trkpt>
<trkpt lat="48.078827" lon="-121.752774"><ele>370.4</ele></trkpt>
<trkpt lat="48.078787" lon="-121.752524"><ele>369.4</ele></trkpt>
<trkpt lat="48.078660" lon="-121.752231"><ele>367.9</ele></trkpt>
<trkpt lat="48.078485" lon="-121.752122"><ele>366.2</ele></trkpt>
<trkpt lat="48.078343" lon="-121.751770"><ele>362.5</ele></trkpt>
<trkpt lat="48.078044" lon="-121.751513"><ele>358.5</ele></trkpt>
<trkpt lat="48.077978" lon="-121.751284"><ele>357.9</ele></trkpt>
<trkpt lat="48.077899" lon="-121.751179"><ele>357.6</ele></trkpt>
<trkpt lat="48.077675" lon="-121.751079"><ele>357.9</ele></trkpt>
<trkpt lat="48.077659" lon="-121.750899"><ele>357.3</ele></trkpt>
<trkpt lat="48.077417" lon="-121.750642"><ele>357.8</ele></trkpt>
<trkpt lat="48.077429" lon="-121.750494"><ele>357.4</ele></trkpt>
<trkpt lat="48.077339" lon="-121.750212"><ele>354.9</ele></trkpt>
<trkpt lat="48.077030" lon="-121.749695"><ele>348.4</ele></trkpt>
<trkpt lat="48.077025" lon="-121.749462"><ele>346.6</ele></trkpt>
<trkpt lat="48.076790" lon="-121.749000"><ele>342.6</ele></trkpt>
<trkpt lat="48.076825" lon="-121.748750"><ele>339.9</ele></trkpt>
<trkpt lat="48.076719" lon="-121.748442"><ele>336.5</ele></trkpt>
<trkpt lat="48.076777" lon="-121.747984"><ele>335.0</ele></trkpt>
<trkpt lat="48.076744" lon="-121.747831"><ele>332.4</ele></trkpt>
<trkpt lat="48.076779" lon="-121.747481"><ele>332.0</ele></trkpt>
<trkpt lat="48.076743" lon="-121.747074"><ele>332.6</ele></trkpt>
<trkpt lat="48.076650" lon="-121.746849"><ele>333.8</ele></trkpt>
<trkpt lat="48.076504" lon="-121.746698"><ele>334.5</ele></trkpt>
<trkpt lat="48.076426" lon="-121.746528"><ele>334.8</ele></trkpt>
<trkpt lat="48.076499" lon="-121.746296"><ele>335.4</ele></trkpt>
<trkpt lat="48.076705" lon="-121.745959"><ele>337.3</ele></trkpt>
<trkpt lat="48.076829" lon="-121.745911"><ele>337.7</ele></trkpt>
<trkpt lat="48.076951" lon="-121.746070"><ele>337.3</ele></trkpt>
<trkpt lat="48.076994" lon="-121.746006"><ele>335.4</ele></trkpt>
</trkseg></trk>
</gpx>
