<?xml version="1.0" encoding="UTF-8"?>
<gpx version="1.1" creator="The Lost Trailhead" xmlns="http://www.topografix.com/GPX/1/1" xmlns:xsi="http://www.w3.org/2001/XMLSchema-instance" xsi:schemaLocation="http://www.topografix.com/GPX/1/1 http://www.topografix.com/GPX/1/1/gpx.xsd">
<metadata><name>Mailbox Peak — Old Trail</name><desc>The Lost Trailhead, thelosttrailhead.com/hikes/mailbox-old-trail. Conditions change. Use at your own risk.</desc><link href="https://thelosttrailhead.com/hikes/mailbox-old-trail"><text>Mailbox Peak — Old Trail on The Lost Trailhead</text></link></metadata>
<trk><name>Mailbox Peak — Old Trail</name><link href="https://thelosttrailhead.com/hikes/mailbox-old-trail"><text>Mailbox Peak — Old Trail on The Lost Trailhead</text></link><trkseg>
<trkpt lat="47.467368" lon="-121.673806"><ele>245.6</ele></trkpt>
<trkpt lat="47.467540" lon="-121.673874"><ele>246.9</ele></trkpt>
<trkpt lat="47.467460" lon="-121.673891"><ele>246.5</ele></trkpt>
<trkpt lat="47.467491" lon="-121.673953"><ele>245.4</ele></trkpt>
<trkpt lat="47.467546" lon="-121.673628"><ele>247.2</ele></trkpt>
<trkpt lat="47.467497" lon="-121.672960"><ele>255.1</ele></trkpt>
<trkpt lat="47.467398" lon="-121.672602"><ele>256.5</ele></trkpt>
<trkpt lat="47.467247" lon="-121.672482"><ele>258.8</ele></trkpt>
<trkpt lat="47.467054" lon="-121.672588"><ele>260.9</ele></trkpt>
<trkpt lat="47.466996" lon="-121.672534"><ele>261.0</ele></trkpt>
<trkpt lat="47.466989" lon="-121.672643"><ele>259.8</ele></trkpt>
<trkpt lat="47.466822" lon="-121.672497"><ele>259.7</ele></trkpt>
<trkpt lat="47.466036" lon="-121.672621"><ele>274.7</ele></trkpt>
<trkpt lat="47.465414" lon="-121.672897"><ele>278.7</ele></trkpt>
<trkpt lat="47.464846" lon="-121.673387"><ele>284.6</ele></trkpt>
<trkpt lat="47.464442" lon="-121.673577"><ele>286.6</ele></trkpt>
<trkpt lat="47.463205" lon="-121.673517"><ele>302.6</ele></trkpt>
<trkpt lat="47.462804" lon="-121.673650"><ele>308.0</ele></trkpt>
<trkpt lat="47.462669" lon="-121.673649"><ele>309.2</ele></trkpt>
<trkpt lat="47.462575" lon="-121.673576"><ele>309.8</ele></trkpt>
<trkpt lat="47.462555" lon="-121.673635"><ele>307.8</ele></trkpt>
<trkpt lat="47.462475" lon="-121.673259"><ele>311.9</ele></trkpt>
<trkpt lat="47.462276" lon="-121.673127"><ele>318.4</ele></trkpt>
<trkpt lat="47.462056" lon="-121.672394"><ele>330.2</ele></trkpt>
<trkpt lat="47.461890" lon="-121.672291"><ele>331.5</ele></trkpt>
<trkpt lat="47.461754" lon="-121.672044"><ele>334.2</ele></trkpt>
<trkpt lat="47.461621" lon="-121.671940"><ele>337.4</ele></trkpt>
<trkpt lat="47.461675" lon="-121.671618"><ele>341.0</ele></trkpt>
<trkpt lat="47.461757" lon="-121.671478"><ele>343.1</ele></trkpt>
<trkpt lat="47.461865" lon="-121.671467"><ele>343.4</ele></trkpt>
<trkpt lat="47.461908" lon="-121.671370"><ele>342.9</ele></trkpt>
<trkpt lat="47.461896" lon="-121.670970"><ele>344.0</ele></trkpt>
<trkpt lat="47.462015" lon="-121.670489"><ele>349.7</ele></trkpt>
<trkpt lat="47.461975" lon="-121.670374"><ele>351.0</ele></trkpt>
<trkpt lat="47.462068" lon="-121.670253"><ele>354.7</ele></trkpt>
<trkpt lat="47.461908" lon="-121.669795"><ele>364.0</ele></trkpt>
<trkpt lat="47.461958" lon="-121.669716"><ele>370.1</ele></trkpt>
<trkpt lat="47.461941" lon="-121.669516"><ele>373.7</ele></trkpt>
<trkpt lat="47.461996" lon="-121.669697"><ele>375.9</ele></trkpt>
<trkpt lat="47.462253" lon="-121.669979"><ele>374.6</ele></trkpt>
<trkpt lat="47.462335" lon="-121.669912"><ele>375.5</ele></trkpt>
<trkpt lat="47.462346" lon="-121.669738"><ele>379.9</ele></trkpt>
<trkpt lat="47.462428" lon="-121.669714"><ele>387.2</ele></trkpt>
<trkpt lat="47.462497" lon="-121.669502"><ele>399.0</ele></trkpt>
<trkpt lat="47.462642" lon="-121.669366"><ele>403.5</ele></trkpt>
<trkpt lat="47.462679" lon="-121.669246"><ele>405.6</ele></trkpt>
<trkpt lat="47.462679" lon="-121.669363"><ele>407.0</ele></trkpt>
<trkpt lat="47.462681" lon="-121.669244"><ele>404.7</ele></trkpt>
<trkpt lat="47.462750" lon="-121.669270"><ele>405.6</ele></trkpt>
<trkpt lat="47.462682" lon="-121.669285"><ele>407.5</ele></trkpt>
<trkpt lat="47.462723" lon="-121.669276"><ele>408.0</ele></trkpt>
<trkpt lat="47.462679" lon="-121.669230"><ele>406.4</ele></trkpt>
<trkpt lat="47.462674" lon="-121.669282"><ele>406.6</ele></trkpt>
<trkpt lat="47.462656" lon="-121.669198"><ele>405.6</ele></trkpt>
<trkpt lat="47.462637" lon="-121.669320"><ele>405.3</ele></trkpt>
<trkpt lat="47.462587" lon="-121.669131"><ele>409.0</ele></trkpt>
<trkpt lat="47.462678" lon="-121.668998"><ele>415.9</ele></trkpt>
<trkpt lat="47.462610" lon="-121.668881"><ele>419.8</ele></trkpt>
<trkpt lat="47.462627" lon="-121.668731"><ele>427.3</ele></trkpt>
<trkpt lat="47.462559" lon="-121.668656"><ele>430.2</ele></trkpt>
<trkpt lat="47.462559" lon="-121.668535"><ele>433.8</ele></trkpt>
<trkpt lat="47.462631" lon="-121.668459"><ele>437.9</ele></trkpt>
<trkpt lat="47.462535" lon="-121.668187"><ele>447.1</ele></trkpt>
<trkpt lat="47.462619" lon="-121.668052"><ele>454.1</ele></trkpt>
<trkpt lat="47.462459" lon="-121.667573"><ele>464.9</ele></trkpt>
<trkpt lat="47.462489" lon="-121.667515"><ele>468.4</ele></trkpt>
<trkpt lat="47.462417" lon="-121.667262"><ele>476.8</ele></trkpt>
<trkpt lat="47.462458" lon="-121.667241"><ele>478.9</ele></trkpt>
<trkpt lat="47.462487" lon="-121.667307"><ele>479.7</ele></trkpt>
<trkpt lat="47.462494" lon="-121.667240"><ele>481.2</ele></trkpt>
<trkpt lat="47.462378" lon="-121.667011"><ele>486.0</ele></trkpt>
<trkpt lat="47.462412" lon="-121.667016"><ele>487.8</ele></trkpt>
<trkpt lat="47.462452" lon="-121.666738"><ele>498.5</ele></trkpt>
<trkpt lat="47.462414" lon="-121.666766"><ele>498.0</ele></trkpt>
<trkpt lat="47.462377" lon="-121.666696"><ele>499.9</ele></trkpt>
<trkpt lat="47.462459" lon="-121.666699"><ele>502.7</ele></trkpt>
<trkpt lat="47.462428" lon="-121.666638"><ele>501.0</ele></trkpt>
<trkpt lat="47.462464" lon="-121.666706"><ele>502.2</ele></trkpt>
<trkpt lat="47.462439" lon="-121.666661"><ele>502.3</ele></trkpt>
<trkpt lat="47.462697" lon="-121.666570"><ele>511.1</ele></trkpt>
<trkpt lat="47.462705" lon="-121.666400"><ele>517.7</ele></trkpt>
<trkpt lat="47.462771" lon="-121.666277"><ele>516.0</ele></trkpt>
<trkpt lat="47.462629" lon="-121.666227"><ele>525.5</ele></trkpt>
<trkpt lat="47.462550" lon="-121.666126"><ele>525.0</ele></trkpt>
<trkpt lat="47.462608" lon="-121.666119"><ele>530.6</ele></trkpt>
<trkpt lat="47.462582" lon="-121.666047"><ele>534.0</ele></trkpt>
<trkpt lat="47.462225" lon="-121.665642"><ele>547.8</ele></trkpt>
<trkpt lat="47.462160" lon="-121.665486"><ele>547.8</ele></trkpt>
<trkpt lat="47.461851" lon="-121.665198"><ele>552.1</ele></trkpt>
<trkpt lat="47.461893" lon="-121.665225"><ele>551.1</ele></trkpt>
<trkpt lat="47.461889" lon="-121.665112"><ele>551.2</ele></trkpt>
<trkpt lat="47.462024" lon="-121.665258"><ele>556.0</ele></trkpt>
<trkpt lat="47.462095" lon="-121.665243"><ele>558.3</ele></trkpt>
<trkpt lat="47.461927" lon="-121.665097"><ele>560.9</ele></trkpt>
<trkpt lat="47.462005" lon="-121.665163"><ele>562.7</ele></trkpt>
<trkpt lat="47.462225" lon="-121.664995"><ele>572.1</ele></trkpt>
<trkpt lat="47.462236" lon="-121.664903"><ele>574.1</ele></trkpt>
<trkpt lat="47.462120" lon="-121.664750"><ele>581.5</ele></trkpt>
<trkpt lat="47.462189" lon="-121.664665"><ele>586.9</ele></trkpt>
<trkpt lat="47.462065" lon="-121.664476"><ele>595.5</ele></trkpt>
<trkpt lat="47.462052" lon="-121.664367"><ele>599.6</ele></trkpt>
<trkpt lat="47.462174" lon="-121.664449"><ele>604.0</ele></trkpt>
<trkpt lat="47.462308" lon="-121.664392"><ele>604.8</ele></trkpt>
<trkpt lat="47.462385" lon="-121.664265"><ele>607.1</ele></trkpt>
<trkpt lat="47.462364" lon="-121.664099"><ele>612.3</ele></trkpt>
<trkpt lat="47.462404" lon="-121.664155"><ele>613.2</ele></trkpt>
<trkpt lat="47.462342" lon="-121.664164"><ele>612.6</ele></trkpt>
<trkpt lat="47.462582" lon="-121.663780"><ele>633.3</ele></trkpt>
<trkpt lat="47.462474" lon="-121.663728"><ele>635.2</ele></trkpt>
<trkpt lat="47.462447" lon="-121.663643"><ele>639.6</ele></trkpt>
<trkpt lat="47.462246" lon="-121.663626"><ele>640.1</ele></trkpt>
<trkpt lat="47.462181" lon="-121.663498"><ele>645.7</ele></trkpt>
<trkpt lat="47.462236" lon="-121.663383"><ele>652.3</ele></trkpt>
<trkpt lat="47.462329" lon="-121.663365"><ele>653.1</ele></trkpt>
<trkpt lat="47.462321" lon="-121.663230"><ele>658.0</ele></trkpt>
<trkpt lat="47.462277" lon="-121.663280"><ele>661.1</ele></trkpt>
<trkpt lat="47.462313" lon="-121.663277"><ele>660.4</ele></trkpt>
<trkpt lat="47.462279" lon="-121.663189"><ele>662.0</ele></trkpt>
<trkpt lat="47.462302" lon="-121.663133"><ele>665.9</ele></trkpt>
<trkpt lat="47.462238" lon="-121.663043"><ele>670.1</ele></trkpt>
<trkpt lat="47.462225" lon="-121.662798"><ele>680.8</ele></trkpt>
<trkpt lat="47.462087" lon="-121.662563"><ele>691.4</ele></trkpt>
<trkpt lat="47.461953" lon="-121.662015"><ele>702.8</ele></trkpt>
<trkpt lat="47.461649" lon="-121.661576"><ele>708.7</ele></trkpt>
<trkpt lat="47.461623" lon="-121.661439"><ele>710.0</ele></trkpt>
<trkpt lat="47.461598" lon="-121.661543"><ele>709.3</ele></trkpt>
<trkpt lat="47.461620" lon="-121.661150"><ele>723.9</ele></trkpt>
<trkpt lat="47.461579" lon="-121.661105"><ele>725.0</ele></trkpt>
<trkpt lat="47.461553" lon="-121.660807"><ele>730.4</ele></trkpt>
<trkpt lat="47.461341" lon="-121.660220"><ele>743.9</ele></trkpt>
<trkpt lat="47.461217" lon="-121.660033"><ele>753.2</ele></trkpt>
<trkpt lat="47.461237" lon="-121.659608"><ele>760.1</ele></trkpt>
<trkpt lat="47.461179" lon="-121.659570"><ele>758.9</ele></trkpt>
<trkpt lat="47.461246" lon="-121.659526"><ele>761.1</ele></trkpt>
<trkpt lat="47.461214" lon="-121.659553"><ele>762.0</ele></trkpt>
<trkpt lat="47.461124" lon="-121.659299"><ele>770.8</ele></trkpt>
<trkpt lat="47.461185" lon="-121.659183"><ele>777.7</ele></trkpt>
<trkpt lat="47.461152" lon="-121.658997"><ele>781.8</ele></trkpt>
<trkpt lat="47.461202" lon="-121.658962"><ele>786.4</ele></trkpt>
<trkpt lat="47.461152" lon="-121.659006"><ele>787.5</ele></trkpt>
<trkpt lat="47.461185" lon="-121.659013"><ele>785.3</ele></trkpt>
<trkpt lat="47.461164" lon="-121.658843"><ele>790.8</ele></trkpt>
<trkpt lat="47.461277" lon="-121.658779"><ele>797.1</ele></trkpt>
<trkpt lat="47.461337" lon="-121.658605"><ele>805.2</ele></trkpt>
<trkpt lat="47.461228" lon="-121.658332"><ele>810.6</ele></trkpt>
<trkpt lat="47.461248" lon="-121.658249"><ele>812.4</ele></trkpt>
<trkpt lat="47.461178" lon="-121.657848"><ele>821.8</ele></trkpt>
<trkpt lat="47.461035" lon="-121.657663"><ele>821.9</ele></trkpt>
<trkpt lat="47.461033" lon="-121.657581"><ele>822.4</ele></trkpt>
<trkpt lat="47.461042" lon="-121.657655"><ele>822.1</ele></trkpt>
<trkpt lat="47.461073" lon="-121.657614"><ele>823.1</ele></trkpt>
<trkpt lat="47.461052" lon="-121.657684"><ele>824.4</ele></trkpt>
<trkpt lat="47.461092" lon="-121.657562"><ele>824.5</ele></trkpt>
<trkpt lat="47.461060" lon="-121.657624"><ele>826.6</ele></trkpt>
<trkpt lat="47.461034" lon="-121.657060"><ele>836.8</ele></trkpt>
<trkpt lat="47.460983" lon="-121.657017"><ele>841.2</ele></trkpt>
<trkpt lat="47.460913" lon="-121.656495"><ele>853.7</ele></trkpt>
<trkpt lat="47.460892" lon="-121.656569"><ele>852.5</ele></trkpt>
<trkpt lat="47.460865" lon="-121.656429"><ele>855.5</ele></trkpt>
<trkpt lat="47.460881" lon="-121.656385"><ele>856.7</ele></trkpt>
<trkpt lat="47.460934" lon="-121.656426"><ele>858.6</ele></trkpt>
<trkpt lat="47.460942" lon="-121.656374"><ele>860.2</ele></trkpt>
<trkpt lat="47.460885" lon="-121.656125"><ele>875.4</ele></trkpt>
<trkpt lat="47.460886" lon="-121.655598"><ele>884.1</ele></trkpt>
<trkpt lat="47.460891" lon="-121.655670"><ele>889.8</ele></trkpt>
<trkpt lat="47.460826" lon="-121.655628"><ele>889.1</ele></trkpt>
<trkpt lat="47.460873" lon="-121.655091"><ele>899.9</ele></trkpt>
<trkpt lat="47.460870" lon="-121.655014"><ele>908.3</ele></trkpt>
<trkpt lat="47.460845" lon="-121.655040"><ele>913.4</ele></trkpt>
<trkpt lat="47.460908" lon="-121.655055"><ele>905.6</ele></trkpt>
<trkpt lat="47.460849" lon="-121.655057"><ele>908.5</ele></trkpt>
<trkpt lat="47.460963" lon="-121.654713"><ele>921.1</ele></trkpt>
<trkpt lat="47.460945" lon="-121.654561"><ele>924.9</ele></trkpt>
<trkpt lat="47.460978" lon="-121.654529"><ele>928.0</ele></trkpt>
<trkpt lat="47.461045" lon="-121.654626"><ele>929.5</ele></trkpt>
<trkpt lat="47.461016" lon="-121.654647"><ele>928.0</ele></trkpt>
<trkpt lat="47.461059" lon="-121.654611"><ele>934.0</ele></trkpt>
<trkpt lat="47.460982" lon="-121.654659"><ele>936.2</ele></trkpt>
<trkpt lat="47.461055" lon="-121.654599"><ele>940.4</ele></trkpt>
<trkpt lat="47.461352" lon="-121.654613"><ele>950.6</ele></trkpt>
<trkpt lat="47.461375" lon="-121.654552"><ele>949.7</ele></trkpt>
<trkpt lat="47.461500" lon="-121.654554"><ele>952.6</ele></trkpt>
<trkpt lat="47.461569" lon="-121.654646"><ele>957.2</ele></trkpt>
<trkpt lat="47.461542" lon="-121.654361"><ele>966.7</ele></trkpt>
<trkpt lat="47.461616" lon="-121.654369"><ele>970.4</ele></trkpt>
<trkpt lat="47.461642" lon="-121.654260"><ele>973.0</ele></trkpt>
<trkpt lat="47.461503" lon="-121.653461"><ele>993.6</ele></trkpt>
<trkpt lat="47.461514" lon="-121.653406"><ele>993.9</ele></trkpt>
<trkpt lat="47.461534" lon="-121.653525"><ele>1000.2</ele></trkpt>
<trkpt lat="47.461547" lon="-121.653330"><ele>999.8</ele></trkpt>
<trkpt lat="47.461452" lon="-121.653116"><ele>1004.2</ele></trkpt>
<trkpt lat="47.461453" lon="-121.653014"><ele>1007.0</ele></trkpt>
<trkpt lat="47.461270" lon="-121.652740"><ele>1008.9</ele></trkpt>
<trkpt lat="47.461276" lon="-121.652593"><ele>1011.2</ele></trkpt>
<trkpt lat="47.461178" lon="-121.652239"><ele>1022.1</ele></trkpt>
<trkpt lat="47.461211" lon="-121.652238"><ele>1026.1</ele></trkpt>
<trkpt lat="47.461191" lon="-121.652105"><ele>1024.5</ele></trkpt>
<trkpt lat="47.461152" lon="-121.652037"><ele>1025.2</ele></trkpt>
<trkpt lat="47.461115" lon="-121.652093"><ele>1030.8</ele></trkpt>
<trkpt lat="47.461160" lon="-121.652049"><ele>1035.4</ele></trkpt>
<trkpt lat="47.461115" lon="-121.651847"><ele>1027.8</ele></trkpt>
<trkpt lat="47.461137" lon="-121.651874"><ele>1031.0</ele></trkpt>
<trkpt lat="47.461139" lon="-121.651792"><ele>1035.4</ele></trkpt>
<trkpt lat="47.461200" lon="-121.651863"><ele>1037.3</ele></trkpt>
<trkpt lat="47.461418" lon="-121.651713"><ele>1050.5</ele></trkpt>
<trkpt lat="47.461393" lon="-121.651603"><ele>1054.2</ele></trkpt>
<trkpt lat="47.461558" lon="-121.651726"><ele>1056.6</ele></trkpt>
<trkpt lat="47.461630" lon="-121.651640"><ele>1065.3</ele></trkpt>
<trkpt lat="47.461552" lon="-121.651727"><ele>1069.2</ele></trkpt>
<trkpt lat="47.461602" lon="-121.651751"><ele>1061.0</ele></trkpt>
<trkpt lat="47.461631" lon="-121.651696"><ele>1058.5</ele></trkpt>
<trkpt lat="47.461709" lon="-121.651785"><ele>1061.8</ele></trkpt>
<trkpt lat="47.461900" lon="-121.651828"><ele>1067.2</ele></trkpt>
<trkpt lat="47.461944" lon="-121.651676"><ele>1071.3</ele></trkpt>
<trkpt lat="47.461884" lon="-121.651433"><ele>1076.0</ele></trkpt>
<trkpt lat="47.461909" lon="-121.651370"><ele>1079.2</ele></trkpt>
<trkpt lat="47.461851" lon="-121.651271"><ele>1080.2</ele></trkpt>
<trkpt lat="47.462079" lon="-121.651302"><ele>1087.6</ele></trkpt>
<trkpt lat="47.462223" lon="-121.651183"><ele>1091.8</ele></trkpt>
<trkpt lat="47.462186" lon="-121.651081"><ele>1093.8</ele></trkpt>
<trkpt lat="47.462080" lon="-121.651033"><ele>1096.5</ele></trkpt>
<trkpt lat="47.462055" lon="-121.650937"><ele>1099.4</ele></trkpt>
<trkpt lat="47.462218" lon="-121.650823"><ele>1106.8</ele></trkpt>
<trkpt lat="47.462198" lon="-121.650696"><ele>1109.4</ele></trkpt>
<trkpt lat="47.462243" lon="-121.650621"><ele>1112.5</ele></trkpt>
<trkpt lat="47.462208" lon="-121.650517"><ele>1113.6</ele></trkpt>
<trkpt lat="47.462349" lon="-121.650310"><ele>1121.7</ele></trkpt>
<trkpt lat="47.462264" lon="-121.650052"><ele>1127.9</ele></trkpt>
<trkpt lat="47.462096" lon="-121.649912"><ele>1128.1</ele></trkpt>
<trkpt lat="47.461968" lon="-121.649455"><ele>1133.3</ele></trkpt>
<trkpt lat="47.462044" lon="-121.649383"><ele>1139.9</ele></trkpt>
<trkpt lat="47.462013" lon="-121.648988"><ele>1148.1</ele></trkpt>
<trkpt lat="47.462240" lon="-121.649053"><ele>1154.9</ele></trkpt>
<trkpt lat="47.462267" lon="-121.648990"><ele>1157.5</ele></trkpt>
<trkpt lat="47.462174" lon="-121.648685"><ele>1162.9</ele></trkpt>
<trkpt lat="47.462182" lon="-121.648496"><ele>1169.1</ele></trkpt>
<trkpt lat="47.462397" lon="-121.648400"><ele>1181.5</ele></trkpt>
<trkpt lat="47.462352" lon="-121.648278"><ele>1181.3</ele></trkpt>
<trkpt lat="47.462353" lon="-121.648342"><ele>1183.0</ele></trkpt>
<trkpt lat="47.462311" lon="-121.648319"><ele>1184.5</ele></trkpt>
<trkpt lat="47.462186" lon="-121.648044"><ele>1185.4</ele></trkpt>
<trkpt lat="47.461828" lon="-121.647056"><ele>1199.9</ele></trkpt>
<trkpt lat="47.461544" lon="-121.646553"><ele>1208.6</ele></trkpt>
<trkpt lat="47.461624" lon="-121.646569"><ele>1209.8</ele></trkpt>
<trkpt lat="47.462308" lon="-121.647215"><ele>1214.8</ele></trkpt>
<trkpt lat="47.462387" lon="-121.647198"><ele>1215.6</ele></trkpt>
<trkpt lat="47.462025" lon="-121.646348"><ele>1231.3</ele></trkpt>
<trkpt lat="47.461991" lon="-121.645996"><ele>1239.6</ele></trkpt>
<trkpt lat="47.461943" lon="-121.646065"><ele>1238.2</ele></trkpt>
<trkpt lat="47.462056" lon="-121.646041"><ele>1236.3</ele></trkpt>
<trkpt lat="47.461966" lon="-121.646064"><ele>1235.7</ele></trkpt>
<trkpt lat="47.461995" lon="-121.646131"><ele>1234.5</ele></trkpt>
<trkpt lat="47.461945" lon="-121.646068"><ele>1240.6</ele></trkpt>
<trkpt lat="47.461985" lon="-121.645930"><ele>1241.2</ele></trkpt>
<trkpt lat="47.461915" lon="-121.645489"><ele>1247.3</ele></trkpt>
<trkpt lat="47.461563" lon="-121.644898"><ele>1257.2</ele></trkpt>
<trkpt lat="47.461318" lon="-121.644289"><ele>1271.1</ele></trkpt>
<trkpt lat="47.461381" lon="-121.644193"><ele>1277.4</ele></trkpt>
<trkpt lat="47.461372" lon="-121.644083"><ele>1278.3</ele></trkpt>
<trkpt lat="47.461436" lon="-121.643933"><ele>1284.0</ele></trkpt>
<trkpt lat="47.461662" lon="-121.644122"><ele>1293.5</ele></trkpt>
<trkpt lat="47.461875" lon="-121.644131"><ele>1298.0</ele></trkpt>
<trkpt lat="47.461740" lon="-121.643752"><ele>1309.5</ele></trkpt>
<trkpt lat="47.461826" lon="-121.643351"><ele>1312.2</ele></trkpt>
<trkpt lat="47.461816" lon="-121.643097"><ele>1320.2</ele></trkpt>
<trkpt lat="47.461884" lon="-121.642976"><ele>1325.8</ele></trkpt>
<trkpt lat="47.461987" lon="-121.642930"><ele>1329.1</ele></trkpt>
<trkpt lat="47.461959" lon="-121.642953"><ele>1329.2</ele></trkpt>
<trkpt lat="47.461969" lon="-121.642533"><ele>1339.1</ele></trkpt>
<trkpt lat="47.462030" lon="-121.642492"><ele>1344.6</ele></trkpt>
<trkpt lat="47.462008" lon="-121.642393"><ele>1346.6</ele></trkpt>
<trkpt lat="47.462123" lon="-121.642046"><ele>1356.4</ele></trkpt>
<trkpt lat="47.462231" lon="-121.641973"><ele>1364.5</ele></trkpt>
<trkpt lat="47.462184" lon="-121.641802"><ele>1374.0</ele></trkpt>
<trkpt lat="47.462237" lon="-121.641695"><ele>1378.8</ele></trkpt>
<trkpt lat="47.462203" lon="-121.641638"><ele>1380.3</ele></trkpt>
<trkpt lat="47.462300" lon="-121.641615"><ele>1382.7</ele></trkpt>
<trkpt lat="47.462262" lon="-121.641492"><ele>1386.0</ele></trkpt>
<trkpt lat="47.462344" lon="-121.641512"><ele>1392.9</ele></trkpt>
<trkpt lat="47.462325" lon="-121.641385"><ele>1397.2</ele></trkpt>
<trkpt lat="47.462425" lon="-121.641312"><ele>1400.6</ele></trkpt>
<trkpt lat="47.462425" lon="-121.641173"><ele>1407.0</ele></trkpt>
<trkpt lat="47.462376" lon="-121.641097"><ele>1412.1</ele></trkpt>
<trkpt lat="47.462425" lon="-121.641100"><ele>1413.4</ele></trkpt>
<trkpt lat="47.462514" lon="-121.640879"><ele>1420.0</ele></trkpt>
<trkpt lat="47.462477" lon="-121.640824"><ele>1420.9</ele></trkpt>
<trkpt lat="47.462542" lon="-121.640780"><ele>1424.0</ele></trkpt>
<trkpt lat="47.462496" lon="-121.640711"><ele>1427.4</ele></trkpt>
<trkpt lat="47.462522" lon="-121.640417"><ele>1437.5</ele></trkpt>
<trkpt lat="47.462481" lon="-121.640195"><ele>1442.9</ele></trkpt>
<trkpt lat="47.462522" lon="-121.639790"><ele>1456.0</ele></trkpt>
<trkpt lat="47.462448" lon="-121.639617"><ele>1459.5</ele></trkpt>
<trkpt lat="47.462398" lon="-121.639280"><ele>1466.8</ele></trkpt>
<trkpt lat="47.462468" lon="-121.639256"><ele>1463.3</ele></trkpt>
<trkpt lat="47.462398" lon="-121.639280"><ele>1466.8</ele></trkpt>
<trkpt lat="47.462448" lon="-121.639617"><ele>1459.5</ele></trkpt>
<trkpt lat="47.462522" lon="-121.639790"><ele>1456.0</ele></trkpt>
<trkpt lat="47.462481" lon="-121.640195"><ele>1442.9</ele></trkpt>
<trkpt lat="47.462522" lon="-121.640417"><ele>1437.5</ele></trkpt>
<trkpt lat="47.462496" lon="-121.640711"><ele>1427.4</ele></trkpt>
<trkpt lat="47.462542" lon="-121.640780"><ele>1424.0</ele></trkpt>
<trkpt lat="47.462477" lon="-121.640824"><ele>1420.9</ele></trkpt>
<trkpt lat="47.462514" lon="-121.640879"><ele>1420.0</ele></trkpt>
<trkpt lat="47.462425" lon="-121.641100"><ele>1413.4</ele></trkpt>
<trkpt lat="47.462376" lon="-121.641097"><ele>1412.1</ele></trkpt>
<trkpt lat="47.462425" lon="-121.641173"><ele>1407.0</ele></trkpt>
<trkpt lat="47.462425" lon="-121.641312"><ele>1400.6</ele></trkpt>
<trkpt lat="47.462325" lon="-121.641385"><ele>1397.2</ele></trkpt>
<trkpt lat="47.462344" lon="-121.641512"><ele>1392.9</ele></trkpt>
<trkpt lat="47.462262" lon="-121.641492"><ele>1386.0</ele></trkpt>
<trkpt lat="47.462300" lon="-121.641615"><ele>1382.7</ele></trkpt>
<trkpt lat="47.462203" lon="-121.641638"><ele>1380.3</ele></trkpt>
<trkpt lat="47.462237" lon="-121.641695"><ele>1378.8</ele></trkpt>
<trkpt lat="47.462184" lon="-121.641802"><ele>1374.0</ele></trkpt>
<trkpt lat="47.462231" lon="-121.641973"><ele>1364.5</ele></trkpt>
<trkpt lat="47.462123" lon="-121.642046"><ele>1356.4</ele></trkpt>
<trkpt lat="47.462008" lon="-121.642393"><ele>1346.6</ele></trkpt>
<trkpt lat="47.462030" lon="-121.642492"><ele>1344.6</ele></trkpt>
<trkpt lat="47.461969" lon="-121.642533"><ele>1339.1</ele></trkpt>
<trkpt lat="47.461959" lon="-121.642953"><ele>1329.2</ele></trkpt>
<trkpt lat="47.461987" lon="-121.642930"><ele>1329.1</ele></trkpt>
<trkpt lat="47.461884" lon="-121.642976"><ele>1325.8</ele></trkpt>
<trkpt lat="47.461816" lon="-121.643097"><ele>1320.2</ele></trkpt>
<trkpt lat="47.461826" lon="-121.643351"><ele>1312.2</ele></trkpt>
<trkpt lat="47.461740" lon="-121.643752"><ele>1309.5</ele></trkpt>
<trkpt lat="47.461875" lon="-121.644131"><ele>1298.0</ele></trkpt>
<trkpt lat="47.461662" lon="-121.644122"><ele>1293.5</ele></trkpt>
<trkpt lat="47.461436" lon="-121.643933"><ele>1284.0</ele></trkpt>
<trkpt lat="47.461372" lon="-121.644083"><ele>1278.3</ele></trkpt>
<trkpt lat="47.461381" lon="-121.644193"><ele>1277.4</ele></trkpt>
<trkpt lat="47.461318" lon="-121.644289"><ele>1271.1</ele></trkpt>
<trkpt lat="47.461563" lon="-121.644898"><ele>1257.2</ele></trkpt>
<trkpt lat="47.461915" lon="-121.645489"><ele>1247.3</ele></trkpt>
<trkpt lat="47.461985" lon="-121.645930"><ele>1241.2</ele></trkpt>
<trkpt lat="47.461945" lon="-121.646068"><ele>1240.6</ele></trkpt>
<trkpt lat="47.461995" lon="-121.646131"><ele>1234.5</ele></trkpt>
<trkpt lat="47.461966" lon="-121.646064"><ele>1235.7</ele></trkpt>
<trkpt lat="47.462056" lon="-121.646041"><ele>1236.3</ele></trkpt>
<trkpt lat="47.461943" lon="-121.646065"><ele>1238.2</ele></trkpt>
<trkpt lat="47.461991" lon="-121.645996"><ele>1239.6</ele></trkpt>
<trkpt lat="47.462025" lon="-121.646348"><ele>1231.3</ele></trkpt>
<trkpt lat="47.462387" lon="-121.647198"><ele>1215.6</ele></trkpt>
<trkpt lat="47.462308" lon="-121.647215"><ele>1214.8</ele></trkpt>
<trkpt lat="47.461624" lon="-121.646569"><ele>1209.8</ele></trkpt>
<trkpt lat="47.461544" lon="-121.646553"><ele>1208.6</ele></trkpt>
<trkpt lat="47.461828" lon="-121.647056"><ele>1199.9</ele></trkpt>
<trkpt lat="47.462186" lon="-121.648044"><ele>1185.4</ele></trkpt>
<trkpt lat="47.462311" lon="-121.648319"><ele>1184.5</ele></trkpt>
<trkpt lat="47.462353" lon="-121.648342"><ele>1183.0</ele></trkpt>
<trkpt lat="47.462352" lon="-121.648278"><ele>1181.3</ele></trkpt>
<trkpt lat="47.462397" lon="-121.648400"><ele>1181.5</ele></trkpt>
<trkpt lat="47.462182" lon="-121.648496"><ele>1169.1</ele></trkpt>
<trkpt lat="47.462174" lon="-121.648685"><ele>1162.9</ele></trkpt>
<trkpt lat="47.462267" lon="-121.648990"><ele>1157.5</ele></trkpt>
<trkpt lat="47.462240" lon="-121.649053"><ele>1154.9</ele></trkpt>
<trkpt lat="47.462013" lon="-121.648988"><ele>1148.1</ele></trkpt>
<trkpt lat="47.462044" lon="-121.649383"><ele>1139.9</ele></trkpt>
<trkpt lat="47.461968" lon="-121.649455"><ele>1133.3</ele></trkpt>
<trkpt lat="47.462096" lon="-121.649912"><ele>1128.1</ele></trkpt>
<trkpt lat="47.462264" lon="-121.650052"><ele>1127.9</ele></trkpt>
<trkpt lat="47.462349" lon="-121.650310"><ele>1121.7</ele></trkpt>
<trkpt lat="47.462208" lon="-121.650517"><ele>1113.6</ele></trkpt>
<trkpt lat="47.462243" lon="-121.650621"><ele>1112.5</ele></trkpt>
<trkpt lat="47.462198" lon="-121.650696"><ele>1109.4</ele></trkpt>
<trkpt lat="47.462218" lon="-121.650823"><ele>1106.8</ele></trkpt>
<trkpt lat="47.462055" lon="-121.650937"><ele>1099.4</ele></trkpt>
<trkpt lat="47.462080" lon="-121.651033"><ele>1096.5</ele></trkpt>
<trkpt lat="47.462186" lon="-121.651081"><ele>1093.8</ele></trkpt>
<trkpt lat="47.462223" lon="-121.651183"><ele>1091.8</ele></trkpt>
<trkpt lat="47.462079" lon="-121.651302"><ele>1087.6</ele></trkpt>
<trkpt lat="47.461851" lon="-121.651271"><ele>1080.2</ele></trkpt>
<trkpt lat="47.461909" lon="-121.651370"><ele>1079.2</ele></trkpt>
<trkpt lat="47.461884" lon="-121.651433"><ele>1076.0</ele></trkpt>
<trkpt lat="47.461944" lon="-121.651676"><ele>1071.3</ele></trkpt>
<trkpt lat="47.461900" lon="-121.651828"><ele>1067.2</ele></trkpt>
<trkpt lat="47.461709" lon="-121.651785"><ele>1061.8</ele></trkpt>
<trkpt lat="47.461631" lon="-121.651696"><ele>1058.5</ele></trkpt>
<trkpt lat="47.461602" lon="-121.651751"><ele>1061.0</ele></trkpt>
<trkpt lat="47.461552" lon="-121.651727"><ele>1069.2</ele></trkpt>
<trkpt lat="47.461630" lon="-121.651640"><ele>1065.3</ele></trkpt>
<trkpt lat="47.461558" lon="-121.651726"><ele>1056.6</ele></trkpt>
<trkpt lat="47.461393" lon="-121.651603"><ele>1054.2</ele></trkpt>
<trkpt lat="47.461418" lon="-121.651713"><ele>1050.5</ele></trkpt>
<trkpt lat="47.461200" lon="-121.651863"><ele>1037.3</ele></trkpt>
<trkpt lat="47.461139" lon="-121.651792"><ele>1035.4</ele></trkpt>
<trkpt lat="47.461137" lon="-121.651874"><ele>1031.0</ele></trkpt>
<trkpt lat="47.461115" lon="-121.651847"><ele>1027.8</ele></trkpt>
<trkpt lat="47.461160" lon="-121.652049"><ele>1035.4</ele></trkpt>
<trkpt lat="47.461115" lon="-121.652093"><ele>1030.8</ele></trkpt>
<trkpt lat="47.461152" lon="-121.652037"><ele>1025.2</ele></trkpt>
<trkpt lat="47.461191" lon="-121.652105"><ele>1024.5</ele></trkpt>
<trkpt lat="47.461211" lon="-121.652238"><ele>1026.1</ele></trkpt>
<trkpt lat="47.461178" lon="-121.652239"><ele>1022.1</ele></trkpt>
<trkpt lat="47.461276" lon="-121.652593"><ele>1011.2</ele></trkpt>
<trkpt lat="47.461270" lon="-121.652740"><ele>1008.9</ele></trkpt>
<trkpt lat="47.461453" lon="-121.653014"><ele>1007.0</ele></trkpt>
<trkpt lat="47.461452" lon="-121.653116"><ele>1004.2</ele></trkpt>
<trkpt lat="47.461547" lon="-121.653330"><ele>999.8</ele></trkpt>
<trkpt lat="47.461534" lon="-121.653525"><ele>1000.2</ele></trkpt>
<trkpt lat="47.461514" lon="-121.653406"><ele>993.9</ele></trkpt>
<trkpt lat="47.461503" lon="-121.653461"><ele>993.6</ele></trkpt>
<trkpt lat="47.461642" lon="-121.654260"><ele>973.0</ele></trkpt>
<trkpt lat="47.461616" lon="-121.654369"><ele>970.4</ele></trkpt>
<trkpt lat="47.461542" lon="-121.654361"><ele>966.7</ele></trkpt>
<trkpt lat="47.461569" lon="-121.654646"><ele>957.2</ele></trkpt>
<trkpt lat="47.461500" lon="-121.654554"><ele>952.6</ele></trkpt>
<trkpt lat="47.461375" lon="-121.654552"><ele>949.7</ele></trkpt>
<trkpt lat="47.461352" lon="-121.654613"><ele>950.6</ele></trkpt>
<trkpt lat="47.461055" lon="-121.654599"><ele>940.4</ele></trkpt>
<trkpt lat="47.460982" lon="-121.654659"><ele>936.2</ele></trkpt>
<trkpt lat="47.461059" lon="-121.654611"><ele>934.0</ele></trkpt>
<trkpt lat="47.461016" lon="-121.654647"><ele>928.0</ele></trkpt>
<trkpt lat="47.461045" lon="-121.654626"><ele>929.5</ele></trkpt>
<trkpt lat="47.460978" lon="-121.654529"><ele>928.0</ele></trkpt>
<trkpt lat="47.460945" lon="-121.654561"><ele>924.9</ele></trkpt>
<trkpt lat="47.460963" lon="-121.654713"><ele>921.1</ele></trkpt>
<trkpt lat="47.460849" lon="-121.655057"><ele>908.5</ele></trkpt>
<trkpt lat="47.460908" lon="-121.655055"><ele>905.6</ele></trkpt>
<trkpt lat="47.460845" lon="-121.655040"><ele>913.4</ele></trkpt>
<trkpt lat="47.460870" lon="-121.655014"><ele>908.3</ele></trkpt>
<trkpt lat="47.460873" lon="-121.655091"><ele>899.9</ele></trkpt>
<trkpt lat="47.460826" lon="-121.655628"><ele>889.1</ele></trkpt>
<trkpt lat="47.460891" lon="-121.655670"><ele>889.8</ele></trkpt>
<trkpt lat="47.460886" lon="-121.655598"><ele>884.1</ele></trkpt>
<trkpt lat="47.460885" lon="-121.656125"><ele>875.4</ele></trkpt>
<trkpt lat="47.460942" lon="-121.656374"><ele>860.2</ele></trkpt>
<trkpt lat="47.460934" lon="-121.656426"><ele>858.6</ele></trkpt>
<trkpt lat="47.460881" lon="-121.656385"><ele>856.7</ele></trkpt>
<trkpt lat="47.460865" lon="-121.656429"><ele>855.5</ele></trkpt>
<trkpt lat="47.460892" lon="-121.656569"><ele>852.5</ele></trkpt>
<trkpt lat="47.460913" lon="-121.656495"><ele>853.7</ele></trkpt>
<trkpt lat="47.460983" lon="-121.657017"><ele>841.2</ele></trkpt>
<trkpt lat="47.461034" lon="-121.657060"><ele>836.8</ele></trkpt>
<trkpt lat="47.461060" lon="-121.657624"><ele>826.6</ele></trkpt>
<trkpt lat="47.461092" lon="-121.657562"><ele>824.5</ele></trkpt>
<trkpt lat="47.461052" lon="-121.657684"><ele>824.4</ele></trkpt>
<trkpt lat="47.461073" lon="-121.657614"><ele>823.1</ele></trkpt>
<trkpt lat="47.461042" lon="-121.657655"><ele>822.1</ele></trkpt>
<trkpt lat="47.461033" lon="-121.657581"><ele>822.4</ele></trkpt>
<trkpt lat="47.461035" lon="-121.657663"><ele>821.9</ele></trkpt>
<trkpt lat="47.461178" lon="-121.657848"><ele>821.8</ele></trkpt>
<trkpt lat="47.461248" lon="-121.658249"><ele>812.4</ele></trkpt>
<trkpt lat="47.461228" lon="-121.658332"><ele>810.6</ele></trkpt>
<trkpt lat="47.461337" lon="-121.658605"><ele>805.2</ele></trkpt>
<trkpt lat="47.461277" lon="-121.658779"><ele>797.1</ele></trkpt>
<trkpt lat="47.461164" lon="-121.658843"><ele>790.8</ele></trkpt>
<trkpt lat="47.461185" lon="-121.659013"><ele>785.3</ele></trkpt>
<trkpt lat="47.461152" lon="-121.659006"><ele>787.5</ele></trkpt>
<trkpt lat="47.461202" lon="-121.658962"><ele>786.4</ele></trkpt>
<trkpt lat="47.461152" lon="-121.658997"><ele>781.8</ele></trkpt>
<trkpt lat="47.461185" lon="-121.659183"><ele>777.7</ele></trkpt>
<trkpt lat="47.461124" lon="-121.659299"><ele>770.8</ele></trkpt>
<trkpt lat="47.461214" lon="-121.659553"><ele>762.0</ele></trkpt>
<trkpt lat="47.461246" lon="-121.659526"><ele>761.1</ele></trkpt>
<trkpt lat="47.461179" lon="-121.659570"><ele>758.9</ele></trkpt>
<trkpt lat="47.461237" lon="-121.659608"><ele>760.1</ele></trkpt>
<trkpt lat="47.461217" lon="-121.660033"><ele>753.2</ele></trkpt>
<trkpt lat="47.461341" lon="-121.660220"><ele>743.9</ele></trkpt>
<trkpt lat="47.461553" lon="-121.660807"><ele>730.4</ele></trkpt>
<trkpt lat="47.461579" lon="-121.661105"><ele>725.0</ele></trkpt>
<trkpt lat="47.461620" lon="-121.661150"><ele>723.9</ele></trkpt>
<trkpt lat="47.461598" lon="-121.661543"><ele>709.3</ele></trkpt>
<trkpt lat="47.461623" lon="-121.661439"><ele>710.0</ele></trkpt>
<trkpt lat="47.461649" lon="-121.661576"><ele>708.7</ele></trkpt>
<trkpt lat="47.461953" lon="-121.662015"><ele>702.8</ele></trkpt>
<trkpt lat="47.462087" lon="-121.662563"><ele>691.4</ele></trkpt>
<trkpt lat="47.462225" lon="-121.662798"><ele>680.8</ele></trkpt>
<trkpt lat="47.462238" lon="-121.663043"><ele>670.1</ele></trkpt>
<trkpt lat="47.462302" lon="-121.663133"><ele>665.9</ele></trkpt>
<trkpt lat="47.462279" lon="-121.663189"><ele>662.0</ele></trkpt>
<trkpt lat="47.462313" lon="-121.663277"><ele>660.4</ele></trkpt>
<trkpt lat="47.462277" lon="-121.663280"><ele>661.1</ele></trkpt>
<trkpt lat="47.462321" lon="-121.663230"><ele>658.0</ele></trkpt>
<trkpt lat="47.462329" lon="-121.663365"><ele>653.1</ele></trkpt>
<trkpt lat="47.462236" lon="-121.663383"><ele>652.3</ele></trkpt>
<trkpt lat="47.462181" lon="-121.663498"><ele>645.7</ele></trkpt>
<trkpt lat="47.462246" lon="-121.663626"><ele>640.1</ele></trkpt>
<trkpt lat="47.462447" lon="-121.663643"><ele>639.6</ele></trkpt>
<trkpt lat="47.462474" lon="-121.663728"><ele>635.2</ele></trkpt>
<trkpt lat="47.462582" lon="-121.663780"><ele>633.3</ele></trkpt>
<trkpt lat="47.462342" lon="-121.664164"><ele>612.6</ele></trkpt>
<trkpt lat="47.462404" lon="-121.664155"><ele>613.2</ele></trkpt>
<trkpt lat="47.462364" lon="-121.664099"><ele>612.3</ele></trkpt>
<trkpt lat="47.462385" lon="-121.664265"><ele>607.1</ele></trkpt>
<trkpt lat="47.462308" lon="-121.664392"><ele>604.8</ele></trkpt>
<trkpt lat="47.462174" lon="-121.664449"><ele>604.0</ele></trkpt>
<trkpt lat="47.462052" lon="-121.664367"><ele>599.6</ele></trkpt>
<trkpt lat="47.462065" lon="-121.664476"><ele>595.5</ele></trkpt>
<trkpt lat="47.462189" lon="-121.664665"><ele>586.9</ele></trkpt>
<trkpt lat="47.462120" lon="-121.664750"><ele>581.5</ele></trkpt>
<trkpt lat="47.462236" lon="-121.664903"><ele>574.1</ele></trkpt>
<trkpt lat="47.462225" lon="-121.664995"><ele>572.1</ele></trkpt>
<trkpt lat="47.462005" lon="-121.665163"><ele>562.7</ele></trkpt>
<trkpt lat="47.461927" lon="-121.665097"><ele>560.9</ele></trkpt>
<trkpt lat="47.462095" lon="-121.665243"><ele>558.3</ele></trkpt>
<trkpt lat="47.462024" lon="-121.665258"><ele>556.0</ele></trkpt>
<trkpt lat="47.461889" lon="-121.665112"><ele>551.2</ele></trkpt>
<trkpt lat="47.461893" lon="-121.665225"><ele>551.1</ele></trkpt>
<trkpt lat="47.461851" lon="-121.665198"><ele>552.1</ele></trkpt>
<trkpt lat="47.462160" lon="-121.665486"><ele>547.8</ele></trkpt>
<trkpt lat="47.462225" lon="-121.665642"><ele>547.8</ele></trkpt>
<trkpt lat="47.462582" lon="-121.666047"><ele>534.0</ele></trkpt>
<trkpt lat="47.462608" lon="-121.666119"><ele>530.6</ele></trkpt>
<trkpt lat="47.462550" lon="-121.666126"><ele>525.0</ele></trkpt>
<trkpt lat="47.462629" lon="-121.666227"><ele>525.5</ele></trkpt>
<trkpt lat="47.462771" lon="-121.666277"><ele>516.0</ele></trkpt>
<trkpt lat="47.462705" lon="-121.666400"><ele>517.7</ele></trkpt>
<trkpt lat="47.462697" lon="-121.666570"><ele>511.1</ele></trkpt>
<trkpt lat="47.462439" lon="-121.666661"><ele>502.3</ele></trkpt>
<trkpt lat="47.462464" lon="-121.666706"><ele>502.2</ele></trkpt>
<trkpt lat="47.462428" lon="-121.666638"><ele>501.0</ele></trkpt>
<trkpt lat="47.462459" lon="-121.666699"><ele>502.7</ele></trkpt>
<trkpt lat="47.462377" lon="-121.666696"><ele>499.9</ele></trkpt>
<trkpt lat="47.462414" lon="-121.666766"><ele>498.0</ele></trkpt>
<trkpt lat="47.462452" lon="-121.666738"><ele>498.5</ele></trkpt>
<trkpt lat="47.462412" lon="-121.667016"><ele>487.8</ele></trkpt>
<trkpt lat="47.462378" lon="-121.667011"><ele>486.0</ele></trkpt>
<trkpt lat="47.462494" lon="-121.667240"><ele>481.2</ele></trkpt>
<trkpt lat="47.462487" lon="-121.667307"><ele>479.7</ele></trkpt>
<trkpt lat="47.462458" lon="-121.667241"><ele>478.9</ele></trkpt>
<trkpt lat="47.462417" lon="-121.667262"><ele>476.8</ele></trkpt>
<trkpt lat="47.462489" lon="-121.667515"><ele>468.4</ele></trkpt>
<trkpt lat="47.462459" lon="-121.667573"><ele>464.9</ele></trkpt>
<trkpt lat="47.462619" lon="-121.668052"><ele>454.1</ele></trkpt>
<trkpt lat="47.462535" lon="-121.668187"><ele>447.1</ele></trkpt>
<trkpt lat="47.462631" lon="-121.668459"><ele>437.9</ele></trkpt>
<trkpt lat="47.462559" lon="-121.668535"><ele>433.8</ele></trkpt>
<trkpt lat="47.462559" lon="-121.668656"><ele>430.2</ele></trkpt>
<trkpt lat="47.462627" lon="-121.668731"><ele>427.3</ele></trkpt>
<trkpt lat="47.462610" lon="-121.668881"><ele>419.8</ele></trkpt>
<trkpt lat="47.462678" lon="-121.668998"><ele>415.9</ele></trkpt>
<trkpt lat="47.462587" lon="-121.669131"><ele>409.0</ele></trkpt>
<trkpt lat="47.462637" lon="-121.669320"><ele>405.3</ele></trkpt>
<trkpt lat="47.462656" lon="-121.669198"><ele>405.6</ele></trkpt>
<trkpt lat="47.462674" lon="-121.669282"><ele>406.6</ele></trkpt>
<trkpt lat="47.462679" lon="-121.669230"><ele>406.4</ele></trkpt>
<trkpt lat="47.462723" lon="-121.669276"><ele>408.0</ele></trkpt>
<trkpt lat="47.462682" lon="-121.669285"><ele>407.5</ele></trkpt>
<trkpt lat="47.462750" lon="-121.669270"><ele>405.6</ele></trkpt>
<trkpt lat="47.462681" lon="-121.669244"><ele>404.7</ele></trkpt>
<trkpt lat="47.462679" lon="-121.669363"><ele>407.0</ele></trkpt>
<trkpt lat="47.462679" lon="-121.669246"><ele>405.6</ele></trkpt>
<trkpt lat="47.462642" lon="-121.669366"><ele>403.5</ele></trkpt>
<trkpt lat="47.462497" lon="-121.669502"><ele>399.0</ele></trkpt>
<trkpt lat="47.462428" lon="-121.669714"><ele>387.2</ele></trkpt>
<trkpt lat="47.462346" lon="-121.669738"><ele>379.9</ele></trkpt>
<trkpt lat="47.462335" lon="-121.669912"><ele>375.5</ele></trkpt>
<trkpt lat="47.462253" lon="-121.669979"><ele>374.6</ele></trkpt>
<trkpt lat="47.461996" lon="-121.669697"><ele>375.9</ele></trkpt>
<trkpt lat="47.461941" lon="-121.669516"><ele>373.7</ele></trkpt>
<trkpt lat="47.461958" lon="-121.669716"><ele>370.1</ele></trkpt>
<trkpt lat="47.461908" lon="-121.669795"><ele>364.0</ele></trkpt>
<trkpt lat="47.462068" lon="-121.670253"><ele>354.7</ele></trkpt>
<trkpt lat="47.461975" lon="-121.670374"><ele>351.0</ele></trkpt>
<trkpt lat="47.462015" lon="-121.670489"><ele>349.7</ele></trkpt>
<trkpt lat="47.461896" lon="-121.670970"><ele>344.0</ele></trkpt>
<trkpt lat="47.461908" lon="-121.671370"><ele>342.9</ele></trkpt>
<trkpt lat="47.461865" lon="-121.671467"><ele>343.4</ele></trkpt>
<trkpt lat="47.461757" lon="-121.671478"><ele>343.1</ele></trkpt>
<trkpt lat="47.461675" lon="-121.671618"><ele>341.0</ele></trkpt>
<trkpt lat="47.461621" lon="-121.671940"><ele>337.4</ele></trkpt>
<trkpt lat="47.461754" lon="-121.672044"><ele>334.2</ele></trkpt>
<trkpt lat="47.461890" lon="-121.672291"><ele>331.5</ele></trkpt>
<trkpt lat="47.462056" lon="-121.672394"><ele>330.2</ele></trkpt>
<trkpt lat="47.462276" lon="-121.673127"><ele>318.4</ele></trkpt>
<trkpt lat="47.462475" lon="-121.673259"><ele>311.9</ele></trkpt>
<trkpt lat="47.462555" lon="-121.673635"><ele>307.8</ele></trkpt>
<trkpt lat="47.462575" lon="-121.673576"><ele>309.8</ele></trkpt>
<trkpt lat="47.462669" lon="-121.673649"><ele>309.2</ele></trkpt>
<trkpt lat="47.462804" lon="-121.673650"><ele>308.0</ele></trkpt>
<trkpt lat="47.463205" lon="-121.673517"><ele>302.6</ele></trkpt>
<trkpt lat="47.464442" lon="-121.673577"><ele>286.6</ele></trkpt>
<trkpt lat="47.464846" lon="-121.673387"><ele>284.6</ele></trkpt>
<trkpt lat="47.465414" lon="-121.672897"><ele>278.7</ele></trkpt>
<trkpt lat="47.466036" lon="-121.672621"><ele>274.7</ele></trkpt>
<trkpt lat="47.466822" lon="-121.672497"><ele>259.7</ele></trkpt>
<trkpt lat="47.466989" lon="-121.672643"><ele>259.8</ele></trkpt>
<trkpt lat="47.466996" lon="-121.672534"><ele>261.0</ele></trkpt>
<trkpt lat="47.467054" lon="-121.672588"><ele>260.9</ele></trkpt>
<trkpt lat="47.467247" lon="-121.672482"><ele>258.8</ele></trkpt>
<trkpt lat="47.467398" lon="-121.672602"><ele>256.5</ele></trkpt>
<trkpt lat="47.467497" lon="-121.672960"><ele>255.1</ele></trkpt>
<trkpt lat="47.467546" lon="-121.673628"><ele>247.2</ele></trkpt>
<trkpt lat="47.467491" lon="-121.673953"><ele>245.4</ele></trkpt>
<trkpt lat="47.467460" lon="-121.673891"><ele>246.5</ele></trkpt>
<trkpt lat="47.467540" lon="-121.673874"><ele>246.9</ele></trkpt>
<trkpt lat="47.467368" lon="-121.673806"><ele>245.6</ele></trkpt>
</trkseg></trk>
</gpx>
