<?xml version="1.0" encoding="UTF-8"?>
<gpx version="1.1" creator="The Lost Trailhead" xmlns="http://www.topografix.com/GPX/1/1" xmlns:xsi="http://www.w3.org/2001/XMLSchema-instance" xsi:schemaLocation="http://www.topografix.com/GPX/1/1 http://www.topografix.com/GPX/1/1/gpx.xsd">
<metadata><name>Snow Lake</name><desc>The Lost Trailhead, thelosttrailhead.com/hikes/snow-lake. Conditions change. Use at your own risk.</desc><link href="https://thelosttrailhead.com/hikes/snow-lake"><text>Snow Lake on The Lost Trailhead</text></link></metadata>
<trk><name>Snow Lake</name><link href="https://thelosttrailhead.com/hikes/snow-lake"><text>Snow Lake on The Lost Trailhead</text></link><trkseg>
<trkpt lat="47.444841" lon="-121.423404"><ele>949.7</ele></trkpt>
<trkpt lat="47.444879" lon="-121.423414"><ele>950.9</ele></trkpt>
<trkpt lat="47.444842" lon="-121.423323"><ele>949.9</ele></trkpt>
<trkpt lat="47.444835" lon="-121.423366"><ele>949.3</ele></trkpt>
<trkpt lat="47.445597" lon="-121.423564"><ele>958.0</ele></trkpt>
<trkpt lat="47.445654" lon="-121.423455"><ele>959.8</ele></trkpt>
<trkpt lat="47.446048" lon="-121.423321"><ele>971.9</ele></trkpt>
<trkpt lat="47.446661" lon="-121.422992"><ele>987.2</ele></trkpt>
<trkpt lat="47.446664" lon="-121.422797"><ele>990.3</ele></trkpt>
<trkpt lat="47.446713" lon="-121.422963"><ele>992.5</ele></trkpt>
<trkpt lat="47.447123" lon="-121.423302"><ele>997.9</ele></trkpt>
<trkpt lat="47.447289" lon="-121.424008"><ele>995.1</ele></trkpt>
<trkpt lat="47.447326" lon="-121.424539"><ele>995.2</ele></trkpt>
<trkpt lat="47.447287" lon="-121.424704"><ele>994.6</ele></trkpt>
<trkpt lat="47.447367" lon="-121.424863"><ele>995.3</ele></trkpt>
<trkpt lat="47.447308" lon="-121.425137"><ele>997.2</ele></trkpt>
<trkpt lat="47.447302" lon="-121.425485"><ele>1000.0</ele></trkpt>
<trkpt lat="47.447367" lon="-121.425962"><ele>997.4</ele></trkpt>
<trkpt lat="47.447416" lon="-121.426177"><ele>996.8</ele></trkpt>
<trkpt lat="47.447653" lon="-121.426623"><ele>1000.0</ele></trkpt>
<trkpt lat="47.447777" lon="-121.427589"><ele>1002.5</ele></trkpt>
<trkpt lat="47.447990" lon="-121.427784"><ele>1003.6</ele></trkpt>
<trkpt lat="47.448424" lon="-121.427907"><ele>1011.9</ele></trkpt>
<trkpt lat="47.448561" lon="-121.428027"><ele>1014.3</ele></trkpt>
<trkpt lat="47.448668" lon="-121.428244"><ele>1016.9</ele></trkpt>
<trkpt lat="47.448735" lon="-121.428886"><ele>1018.7</ele></trkpt>
<trkpt lat="47.448785" lon="-121.429019"><ele>1019.6</ele></trkpt>
<trkpt lat="47.448849" lon="-121.429086"><ele>1020.0</ele></trkpt>
<trkpt lat="47.449013" lon="-121.429087"><ele>1020.1</ele></trkpt>
<trkpt lat="47.449016" lon="-121.429383"><ele>1021.5</ele></trkpt>
<trkpt lat="47.449386" lon="-121.429770"><ele>1027.6</ele></trkpt>
<trkpt lat="47.449580" lon="-121.430281"><ele>1029.5</ele></trkpt>
<trkpt lat="47.450070" lon="-121.430832"><ele>1037.7</ele></trkpt>
<trkpt lat="47.450172" lon="-121.431064"><ele>1037.3</ele></trkpt>
<trkpt lat="47.450601" lon="-121.431472"><ele>1041.0</ele></trkpt>
<trkpt lat="47.450605" lon="-121.431595"><ele>1042.3</ele></trkpt>
<trkpt lat="47.450521" lon="-121.431761"><ele>1044.4</ele></trkpt>
<trkpt lat="47.450565" lon="-121.431927"><ele>1044.2</ele></trkpt>
<trkpt lat="47.450930" lon="-121.432173"><ele>1051.8</ele></trkpt>
<trkpt lat="47.451164" lon="-121.432434"><ele>1049.2</ele></trkpt>
<trkpt lat="47.451455" lon="-121.432591"><ele>1051.7</ele></trkpt>
<trkpt lat="47.451878" lon="-121.433471"><ele>1055.8</ele></trkpt>
<trkpt lat="47.451928" lon="-121.433766"><ele>1059.4</ele></trkpt>
<trkpt lat="47.452048" lon="-121.433988"><ele>1057.6</ele></trkpt>
<trkpt lat="47.452119" lon="-121.434245"><ele>1058.8</ele></trkpt>
<trkpt lat="47.452286" lon="-121.434470"><ele>1059.3</ele></trkpt>
<trkpt lat="47.452443" lon="-121.434554"><ele>1062.0</ele></trkpt>
<trkpt lat="47.452612" lon="-121.434759"><ele>1062.0</ele></trkpt>
<trkpt lat="47.452978" lon="-121.435325"><ele>1065.0</ele></trkpt>
<trkpt lat="47.453194" lon="-121.435557"><ele>1064.0</ele></trkpt>
<trkpt lat="47.453702" lon="-121.436683"><ele>1068.9</ele></trkpt>
<trkpt lat="47.453970" lon="-121.437004"><ele>1072.9</ele></trkpt>
<trkpt lat="47.454132" lon="-121.437634"><ele>1078.9</ele></trkpt>
<trkpt lat="47.454469" lon="-121.438328"><ele>1080.3</ele></trkpt>
<trkpt lat="47.454668" lon="-121.438535"><ele>1079.8</ele></trkpt>
<trkpt lat="47.455033" lon="-121.439088"><ele>1082.5</ele></trkpt>
<trkpt lat="47.455276" lon="-121.439642"><ele>1086.6</ele></trkpt>
<trkpt lat="47.455256" lon="-121.439676"><ele>1087.7</ele></trkpt>
<trkpt lat="47.455520" lon="-121.440045"><ele>1090.3</ele></trkpt>
<trkpt lat="47.455767" lon="-121.440253"><ele>1094.1</ele></trkpt>
<trkpt lat="47.456279" lon="-121.441054"><ele>1104.6</ele></trkpt>
<trkpt lat="47.456495" lon="-121.441608"><ele>1113.2</ele></trkpt>
<trkpt lat="47.456765" lon="-121.442095"><ele>1117.0</ele></trkpt>
<trkpt lat="47.456841" lon="-121.442544"><ele>1124.1</ele></trkpt>
<trkpt lat="47.456804" lon="-121.442829"><ele>1129.8</ele></trkpt>
<trkpt lat="47.456851" lon="-121.443200"><ele>1131.2</ele></trkpt>
<trkpt lat="47.456773" lon="-121.443446"><ele>1133.5</ele></trkpt>
<trkpt lat="47.456793" lon="-121.443670"><ele>1134.7</ele></trkpt>
<trkpt lat="47.456957" lon="-121.444345"><ele>1140.8</ele></trkpt>
<trkpt lat="47.457374" lon="-121.445596"><ele>1156.3</ele></trkpt>
<trkpt lat="47.457510" lon="-121.446182"><ele>1161.6</ele></trkpt>
<trkpt lat="47.457714" lon="-121.446681"><ele>1166.9</ele></trkpt>
<trkpt lat="47.457946" lon="-121.446865"><ele>1172.0</ele></trkpt>
<trkpt lat="47.458055" lon="-121.447104"><ele>1174.7</ele></trkpt>
<trkpt lat="47.458103" lon="-121.447934"><ele>1183.8</ele></trkpt>
<trkpt lat="47.458145" lon="-121.447912"><ele>1184.7</ele></trkpt>
<trkpt lat="47.458321" lon="-121.447320"><ele>1189.0</ele></trkpt>
<trkpt lat="47.458530" lon="-121.446277"><ele>1201.2</ele></trkpt>
<trkpt lat="47.458525" lon="-121.445549"><ele>1205.5</ele></trkpt>
<trkpt lat="47.458630" lon="-121.445125"><ele>1209.9</ele></trkpt>
<trkpt lat="47.458662" lon="-121.444671"><ele>1216.8</ele></trkpt>
<trkpt lat="47.458610" lon="-121.443652"><ele>1227.6</ele></trkpt>
<trkpt lat="47.458651" lon="-121.443848"><ele>1227.2</ele></trkpt>
<trkpt lat="47.458838" lon="-121.444253"><ele>1232.6</ele></trkpt>
<trkpt lat="47.459034" lon="-121.445126"><ele>1240.5</ele></trkpt>
<trkpt lat="47.459063" lon="-121.445424"><ele>1243.8</ele></trkpt>
<trkpt lat="47.459226" lon="-121.445961"><ele>1251.9</ele></trkpt>
<trkpt lat="47.459291" lon="-121.446312"><ele>1254.3</ele></trkpt>
<trkpt lat="47.459287" lon="-121.446795"><ele>1259.8</ele></trkpt>
<trkpt lat="47.459423" lon="-121.446339"><ele>1268.3</ele></trkpt>
<trkpt lat="47.459442" lon="-121.446005"><ele>1272.3</ele></trkpt>
<trkpt lat="47.459505" lon="-121.446384"><ele>1275.2</ele></trkpt>
<trkpt lat="47.459551" lon="-121.446381"><ele>1271.6</ele></trkpt>
<trkpt lat="47.459521" lon="-121.446395"><ele>1274.5</ele></trkpt>
<trkpt lat="47.459527" lon="-121.446606"><ele>1277.4</ele></trkpt>
<trkpt lat="47.459574" lon="-121.446548"><ele>1279.5</ele></trkpt>
<trkpt lat="47.459606" lon="-121.446290"><ele>1282.5</ele></trkpt>
<trkpt lat="47.459581" lon="-121.445927"><ele>1287.7</ele></trkpt>
<trkpt lat="47.459661" lon="-121.446092"><ele>1289.7</ele></trkpt>
<trkpt lat="47.459686" lon="-121.446677"><ele>1301.6</ele></trkpt>
<trkpt lat="47.459621" lon="-121.446961"><ele>1308.8</ele></trkpt>
<trkpt lat="47.459664" lon="-121.446991"><ele>1310.3</ele></trkpt>
<trkpt lat="47.459744" lon="-121.446925"><ele>1311.5</ele></trkpt>
<trkpt lat="47.459819" lon="-121.446757"><ele>1314.2</ele></trkpt>
<trkpt lat="47.459772" lon="-121.446934"><ele>1318.6</ele></trkpt>
<trkpt lat="47.459727" lon="-121.447643"><ele>1329.4</ele></trkpt>
<trkpt lat="47.459872" lon="-121.447563"><ele>1333.9</ele></trkpt>
<trkpt lat="47.460073" lon="-121.447246"><ele>1339.6</ele></trkpt>
<trkpt lat="47.460319" lon="-121.446661"><ele>1342.7</ele></trkpt>
<trkpt lat="47.460545" lon="-121.447358"><ele>1334.8</ele></trkpt>
<trkpt lat="47.460806" lon="-121.446749"><ele>1328.4</ele></trkpt>
<trkpt lat="47.461041" lon="-121.445931"><ele>1321.8</ele></trkpt>
<trkpt lat="47.461248" lon="-121.445518"><ele>1318.7</ele></trkpt>
<trkpt lat="47.461311" lon="-121.445205"><ele>1316.2</ele></trkpt>
<trkpt lat="47.461308" lon="-121.445518"><ele>1312.0</ele></trkpt>
<trkpt lat="47.461124" lon="-121.446655"><ele>1302.8</ele></trkpt>
<trkpt lat="47.461089" lon="-121.447389"><ele>1296.8</ele></trkpt>
<trkpt lat="47.461130" lon="-121.447687"><ele>1291.9</ele></trkpt>
<trkpt lat="47.461207" lon="-121.447863"><ele>1290.1</ele></trkpt>
<trkpt lat="47.461210" lon="-121.448175"><ele>1288.4</ele></trkpt>
<trkpt lat="47.461610" lon="-121.447117"><ele>1273.9</ele></trkpt>
<trkpt lat="47.462048" lon="-121.446892"><ele>1268.8</ele></trkpt>
<trkpt lat="47.462376" lon="-121.446113"><ele>1257.7</ele></trkpt>
<trkpt lat="47.462990" lon="-121.445583"><ele>1249.0</ele></trkpt>
<trkpt lat="47.463885" lon="-121.445470"><ele>1242.6</ele></trkpt>
<trkpt lat="47.464004" lon="-121.445596"><ele>1241.9</ele></trkpt>
<trkpt lat="47.464153" lon="-121.445634"><ele>1242.8</ele></trkpt>
<trkpt lat="47.464629" lon="-121.445449"><ele>1245.5</ele></trkpt>
<trkpt lat="47.465181" lon="-121.445640"><ele>1247.0</ele></trkpt>
<trkpt lat="47.465636" lon="-121.445961"><ele>1245.7</ele></trkpt>
<trkpt lat="47.465929" lon="-121.447652"><ele>1240.0</ele></trkpt>
<trkpt lat="47.465936" lon="-121.448298"><ele>1237.5</ele></trkpt>
<trkpt lat="47.466103" lon="-121.448338"><ele>1230.0</ele></trkpt>
<trkpt lat="47.466082" lon="-121.448483"><ele>1230.2</ele></trkpt>
<trkpt lat="47.466110" lon="-121.448409"><ele>1229.2</ele></trkpt>
<trkpt lat="47.466143" lon="-121.448517"><ele>1228.6</ele></trkpt>
<trkpt lat="47.466098" lon="-121.448454"><ele>1229.9</ele></trkpt>
<trkpt lat="47.466134" lon="-121.448500"><ele>1230.0</ele></trkpt>
<trkpt lat="47.466100" lon="-121.448477"><ele>1230.2</ele></trkpt>
<trkpt lat="47.466104" lon="-121.448528"><ele>1231.2</ele></trkpt>
<trkpt lat="47.466041" lon="-121.448359"><ele>1229.8</ele></trkpt>
<trkpt lat="47.466485" lon="-121.448173"><ele>1233.4</ele></trkpt>
<trkpt lat="47.466633" lon="-121.447944"><ele>1233.0</ele></trkpt>
<trkpt lat="47.467260" lon="-121.448093"><ele>1232.8</ele></trkpt>
<trkpt lat="47.467471" lon="-121.448255"><ele>1234.2</ele></trkpt>
<trkpt lat="47.467661" lon="-121.448506"><ele>1237.1</ele></trkpt>
<trkpt lat="47.467874" lon="-121.448553"><ele>1242.8</ele></trkpt>
<trkpt lat="47.468054" lon="-121.448502"><ele>1248.4</ele></trkpt>
<trkpt lat="47.468212" lon="-121.448315"><ele>1253.0</ele></trkpt>
<trkpt lat="47.468443" lon="-121.448329"><ele>1254.7</ele></trkpt>
<trkpt lat="47.468552" lon="-121.448078"><ele>1251.6</ele></trkpt>
<trkpt lat="47.468759" lon="-121.448245"><ele>1251.4</ele></trkpt>
<trkpt lat="47.468742" lon="-121.448298"><ele>1249.7</ele></trkpt>
<trkpt lat="47.468831" lon="-121.448264"><ele>1250.5</ele></trkpt>
<trkpt lat="47.468742" lon="-121.448298"><ele>1249.7</ele></trkpt>
<trkpt lat="47.468759" lon="-121.448245"><ele>1251.4</ele></trkpt>
<trkpt lat="47.468552" lon="-121.448078"><ele>1251.6</ele></trkpt>
<trkpt lat="47.468443" lon="-121.448329"><ele>1254.7</ele></trkpt>
<trkpt lat="47.468212" lon="-121.448315"><ele>1253.0</ele></trkpt>
<trkpt lat="47.468054" lon="-121.448502"><ele>1248.4</ele></trkpt>
<trkpt lat="47.467874" lon="-121.448553"><ele>1242.8</ele></trkpt>
<trkpt lat="47.467661" lon="-121.448506"><ele>1237.1</ele></trkpt>
<trkpt lat="47.467471" lon="-121.448255"><ele>1234.2</ele></trkpt>
<trkpt lat="47.467260" lon="-121.448093"><ele>1232.8</ele></trkpt>
<trkpt lat="47.466633" lon="-121.447944"><ele>1233.0</ele></trkpt>
<trkpt lat="47.466485" lon="-121.448173"><ele>1233.4</ele></trkpt>
<trkpt lat="47.466041" lon="-121.448359"><ele>1229.8</ele></trkpt>
<trkpt lat="47.466104" lon="-121.448528"><ele>1231.2</ele></trkpt>
<trkpt lat="47.466100" lon="-121.448477"><ele>1230.2</ele></trkpt>
<trkpt lat="47.466134" lon="-121.448500"><ele>1230.0</ele></trkpt>
<trkpt lat="47.466098" lon="-121.448454"><ele>1229.9</ele></trkpt>
<trkpt lat="47.466143" lon="-121.448517"><ele>1228.6</ele></trkpt>
<trkpt lat="47.466110" lon="-121.448409"><ele>1229.2</ele></trkpt>
<trkpt lat="47.466082" lon="-121.448483"><ele>1230.2</ele></trkpt>
<trkpt lat="47.466103" lon="-121.448338"><ele>1230.0</ele></trkpt>
<trkpt lat="47.465936" lon="-121.448298"><ele>1237.5</ele></trkpt>
<trkpt lat="47.465929" lon="-121.447652"><ele>1240.0</ele></trkpt>
<trkpt lat="47.465636" lon="-121.445961"><ele>1245.7</ele></trkpt>
<trkpt lat="47.465181" lon="-121.445640"><ele>1247.0</ele></trkpt>
<trkpt lat="47.464629" lon="-121.445449"><ele>1245.5</ele></trkpt>
<trkpt lat="47.464153" lon="-121.445634"><ele>1242.8</ele></trkpt>
<trkpt lat="47.464004" lon="-121.445596"><ele>1241.9</ele></trkpt>
<trkpt lat="47.463885" lon="-121.445470"><ele>1242.6</ele></trkpt>
<trkpt lat="47.462990" lon="-121.445583"><ele>1249.0</ele></trkpt>
<trkpt lat="47.462376" lon="-121.446113"><ele>1257.7</ele></trkpt>
<trkpt lat="47.462048" lon="-121.446892"><ele>1268.8</ele></trkpt>
<trkpt lat="47.461610" lon="-121.447117"><ele>1273.9</ele></trkpt>
<trkpt lat="47.461210" lon="-121.448175"><ele>1288.4</ele></trkpt>
<trkpt lat="47.461207" lon="-121.447863"><ele>1290.1</ele></trkpt>
<trkpt lat="47.461130" lon="-121.447687"><ele>1291.9</ele></trkpt>
<trkpt lat="47.461089" lon="-121.447389"><ele>1296.8</ele></trkpt>
<trkpt lat="47.461124" lon="-121.446655"><ele>1302.8</ele></trkpt>
<trkpt lat="47.461308" lon="-121.445518"><ele>1312.0</ele></trkpt>
<trkpt lat="47.461311" lon="-121.445205"><ele>1316.2</ele></trkpt>
<trkpt lat="47.461248" lon="-121.445518"><ele>1318.7</ele></trkpt>
<trkpt lat="47.461041" lon="-121.445931"><ele>1321.8</ele></trkpt>
<trkpt lat="47.460806" lon="-121.446749"><ele>1328.4</ele></trkpt>
<trkpt lat="47.460545" lon="-121.447358"><ele>1334.8</ele></trkpt>
<trkpt lat="47.460319" lon="-121.446661"><ele>1342.7</ele></trkpt>
<trkpt lat="47.460073" lon="-121.447246"><ele>1339.6</ele></trkpt>
<trkpt lat="47.459872" lon="-121.447563"><ele>1333.9</ele></trkpt>
<trkpt lat="47.459727" lon="-121.447643"><ele>1329.4</ele></trkpt>
<trkpt lat="47.459772" lon="-121.446934"><ele>1318.6</ele></trkpt>
<trkpt lat="47.459819" lon="-121.446757"><ele>1314.2</ele></trkpt>
<trkpt lat="47.459744" lon="-121.446925"><ele>1311.5</ele></trkpt>
<trkpt lat="47.459664" lon="-121.446991"><ele>1310.3</ele></trkpt>
<trkpt lat="47.459621" lon="-121.446961"><ele>1308.8</ele></trkpt>
<trkpt lat="47.459686" lon="-121.446677"><ele>1301.6</ele></trkpt>
<trkpt lat="47.459661" lon="-121.446092"><ele>1289.7</ele></trkpt>
<trkpt lat="47.459581" lon="-121.445927"><ele>1287.7</ele></trkpt>
<trkpt lat="47.459606" lon="-121.446290"><ele>1282.5</ele></trkpt>
<trkpt lat="47.459574" lon="-121.446548"><ele>1279.5</ele></trkpt>
<trkpt lat="47.459527" lon="-121.446606"><ele>1277.4</ele></trkpt>
<trkpt lat="47.459521" lon="-121.446395"><ele>1274.5</ele></trkpt>
<trkpt lat="47.459551" lon="-121.446381"><ele>1271.6</ele></trkpt>
<trkpt lat="47.459505" lon="-121.446384"><ele>1275.2</ele></trkpt>
<trkpt lat="47.459442" lon="-121.446005"><ele>1272.3</ele></trkpt>
<trkpt lat="47.459423" lon="-121.446339"><ele>1268.3</ele></trkpt>
<trkpt lat="47.459287" lon="-121.446795"><ele>1259.8</ele></trkpt>
<trkpt lat="47.459291" lon="-121.446312"><ele>1254.3</ele></trkpt>
<trkpt lat="47.459226" lon="-121.445961"><ele>1251.9</ele></trkpt>
<trkpt lat="47.459063" lon="-121.445424"><ele>1243.8</ele></trkpt>
<trkpt lat="47.459034" lon="-121.445126"><ele>1240.5</ele></trkpt>
<trkpt lat="47.458838" lon="-121.444253"><ele>1232.6</ele></trkpt>
<trkpt lat="47.458651" lon="-121.443848"><ele>1227.2</ele></trkpt>
<trkpt lat="47.458610" lon="-121.443652"><ele>1227.6</ele></trkpt>
<trkpt lat="47.458662" lon="-121.444671"><ele>1216.8</ele></trkpt>
<trkpt lat="47.458630" lon="-121.445125"><ele>1209.9</ele></trkpt>
<trkpt lat="47.458525" lon="-121.445549"><ele>1205.5</ele></trkpt>
<trkpt lat="47.458530" lon="-121.446277"><ele>1201.2</ele></trkpt>
<trkpt lat="47.458321" lon="-121.447320"><ele>1189.0</ele></trkpt>
<trkpt lat="47.458145" lon="-121.447912"><ele>1184.7</ele></trkpt>
<trkpt lat="47.458103" lon="-121.447934"><ele>1183.8</ele></trkpt>
<trkpt lat="47.458055" lon="-121.447104"><ele>1174.7</ele></trkpt>
<trkpt lat="47.457946" lon="-121.446865"><ele>1172.0</ele></trkpt>
<trkpt lat="47.457714" lon="-121.446681"><ele>1166.9</ele></trkpt>
<trkpt lat="47.457510" lon="-121.446182"><ele>1161.6</ele></trkpt>
<trkpt lat="47.457374" lon="-121.445596"><ele>1156.3</ele></trkpt>
<trkpt lat="47.456957" lon="-121.444345"><ele>1140.8</ele></trkpt>
<trkpt lat="47.456793" lon="-121.443670"><ele>1134.7</ele></trkpt>
<trkpt lat="47.456773" lon="-121.443446"><ele>1133.5</ele></trkpt>
<trkpt lat="47.456851" lon="-121.443200"><ele>1131.2</ele></trkpt>
<trkpt lat="47.456804" lon="-121.442829"><ele>1129.8</ele></trkpt>
<trkpt lat="47.456841" lon="-121.442544"><ele>1124.1</ele></trkpt>
<trkpt lat="47.456765" lon="-121.442095"><ele>1117.0</ele></trkpt>
<trkpt lat="47.456495" lon="-121.441608"><ele>1113.2</ele></trkpt>
<trkpt lat="47.456279" lon="-121.441054"><ele>1104.6</ele></trkpt>
<trkpt lat="47.455767" lon="-121.440253"><ele>1094.1</ele></trkpt>
<trkpt lat="47.455520" lon="-121.440045"><ele>1090.3</ele></trkpt>
<trkpt lat="47.455256" lon="-121.439676"><ele>1087.7</ele></trkpt>
<trkpt lat="47.455276" lon="-121.439642"><ele>1086.6</ele></trkpt>
<trkpt lat="47.455033" lon="-121.439088"><ele>1082.5</ele></trkpt>
<trkpt lat="47.454668" lon="-121.438535"><ele>1079.8</ele></trkpt>
<trkpt lat="47.454469" lon="-121.438328"><ele>1080.3</ele></trkpt>
<trkpt lat="47.454132" lon="-121.437634"><ele>1078.9</ele></trkpt>
<trkpt lat="47.453970" lon="-121.437004"><ele>1072.9</ele></trkpt>
<trkpt lat="47.453702" lon="-121.436683"><ele>1068.9</ele></trkpt>
<trkpt lat="47.453194" lon="-121.435557"><ele>1064.0</ele></trkpt>
<trkpt lat="47.452978" lon="-121.435325"><ele>1065.0</ele></trkpt>
<trkpt lat="47.452612" lon="-121.434759"><ele>1062.0</ele></trkpt>
<trkpt lat="47.452443" lon="-121.434554"><ele>1062.0</ele></trkpt>
<trkpt lat="47.452286" lon="-121.434470"><ele>1059.3</ele></trkpt>
<trkpt lat="47.452119" lon="-121.434245"><ele>1058.8</ele></trkpt>
<trkpt lat="47.452048" lon="-121.433988"><ele>1057.6</ele></trkpt>
<trkpt lat="47.451928" lon="-121.433766"><ele>1059.4</ele></trkpt>
<trkpt lat="47.451878" lon="-121.433471"><ele>1055.8</ele></trkpt>
<trkpt lat="47.451455" lon="-121.432591"><ele>1051.7</ele></trkpt>
<trkpt lat="47.451164" lon="-121.432434"><ele>1049.2</ele></trkpt>
<trkpt lat="47.450930" lon="-121.432173"><ele>1051.8</ele></trkpt>
<trkpt lat="47.450565" lon="-121.431927"><ele>1044.2</ele></trkpt>
<trkpt lat="47.450521" lon="-121.431761"><ele>1044.4</ele></trkpt>
<trkpt lat="47.450605" lon="-121.431595"><ele>1042.3</ele></trkpt>
<trkpt lat="47.450601" lon="-121.431472"><ele>1041.0</ele></trkpt>
<trkpt lat="47.450172" lon="-121.431064"><ele>1037.3</ele></trkpt>
<trkpt lat="47.450070" lon="-121.430832"><ele>1037.7</ele></trkpt>
<trkpt lat="47.449580" lon="-121.430281"><ele>1029.5</ele></trkpt>
<trkpt lat="47.449386" lon="-121.429770"><ele>1027.6</ele></trkpt>
<trkpt lat="47.449016" lon="-121.429383"><ele>1021.5</ele></trkpt>
<trkpt lat="47.449013" lon="-121.429087"><ele>1020.1</ele></trkpt>
<trkpt lat="47.448849" lon="-121.429086"><ele>1020.0</ele></trkpt>
<trkpt lat="47.448785" lon="-121.429019"><ele>1019.6</ele></trkpt>
<trkpt lat="47.448735" lon="-121.428886"><ele>1018.7</ele></trkpt>
<trkpt lat="47.448668" lon="-121.428244"><ele>1016.9</ele></trkpt>
<trkpt lat="47.448561" lon="-121.428027"><ele>1014.3</ele></trkpt>
<trkpt lat="47.448424" lon="-121.427907"><ele>1011.9</ele></trkpt>
<trkpt lat="47.447990" lon="-121.427784"><ele>1003.6</ele></trkpt>
<trkpt lat="47.447777" lon="-121.427589"><ele>1002.5</ele></trkpt>
<trkpt lat="47.447653" lon="-121.426623"><ele>1000.0</ele></trkpt>
<trkpt lat="47.447416" lon="-121.426177"><ele>996.8</ele></trkpt>
<trkpt lat="47.447367" lon="-121.425962"><ele>997.4</ele></trkpt>
<trkpt lat="47.447302" lon="-121.425485"><ele>1000.0</ele></trkpt>
<trkpt lat="47.447308" lon="-121.425137"><ele>997.2</ele></trkpt>
<trkpt lat="47.447367" lon="-121.424863"><ele>995.3</ele></trkpt>
<trkpt lat="47.447287" lon="-121.424704"><ele>994.6</ele></trkpt>
<trkpt lat="47.447326" lon="-121.424539"><ele>995.2</ele></trkpt>
<trkpt lat="47.447289" lon="-121.424008"><ele>995.1</ele></trkpt>
<trkpt lat="47.447123" lon="-121.423302"><ele>997.9</ele></trkpt>
<trkpt lat="47.446713" lon="-121.422963"><ele>992.5</ele></trkpt>
<trkpt lat="47.446664" lon="-121.422797"><ele>990.3</ele></trkpt>
<trkpt lat="47.446661" lon="-121.422992"><ele>987.2</ele></trkpt>
<trkpt lat="47.446048" lon="-121.423321"><ele>971.9</ele></trkpt>
<trkpt lat="47.445654" lon="-121.423455"><ele>959.8</ele></trkpt>
<trkpt lat="47.445597" lon="-121.423564"><ele>958.0</ele></trkpt>
<trkpt lat="47.444835" lon="-121.423366"><ele>949.3</ele></trkpt>
<trkpt lat="47.444842" lon="-121.423323"><ele>949.9</ele></trkpt>
<trkpt lat="47.444879" lon="-121.423414"><ele>950.9</ele></trkpt>
<trkpt lat="47.444841" lon="-121.423404"><ele>949.7</ele></trkpt>
</trkseg></trk>
</gpx>
