<?xml version="1.0" encoding="UTF-8"?>
<gpx version="1.1" creator="The Lost Trailhead" xmlns="http://www.topografix.com/GPX/1/1" xmlns:xsi="http://www.w3.org/2001/XMLSchema-instance" xsi:schemaLocation="http://www.topografix.com/GPX/1/1 http://www.topografix.com/GPX/1/1/gpx.xsd">
<metadata><name>Granite Mountain</name><desc>The Lost Trailhead, thelosttrailhead.com/hikes/granite-mountain. Conditions change. Use at your own risk.</desc><link href="https://thelosttrailhead.com/hikes/granite-mountain"><text>Granite Mountain on The Lost Trailhead</text></link></metadata>
<trk><name>Granite Mountain</name><link href="https://thelosttrailhead.com/hikes/granite-mountain"><text>Granite Mountain on The Lost Trailhead</text></link><trkseg>
<trkpt lat="47.397921" lon="-121.486985"><ele>584.3</ele></trkpt>
<trkpt lat="47.398138" lon="-121.486975"><ele>575.2</ele></trkpt>
<trkpt lat="47.398615" lon="-121.486660"><ele>581.2</ele></trkpt>
<trkpt lat="47.398799" lon="-121.486614"><ele>585.6</ele></trkpt>
<trkpt lat="47.398996" lon="-121.487002"><ele>589.2</ele></trkpt>
<trkpt lat="47.399282" lon="-121.487891"><ele>592.8</ele></trkpt>
<trkpt lat="47.399378" lon="-121.487891"><ele>594.2</ele></trkpt>
<trkpt lat="47.399458" lon="-121.487746"><ele>596.3</ele></trkpt>
<trkpt lat="47.399660" lon="-121.486845"><ele>612.6</ele></trkpt>
<trkpt lat="47.399734" lon="-121.486730"><ele>614.7</ele></trkpt>
<trkpt lat="47.399930" lon="-121.486120"><ele>623.4</ele></trkpt>
<trkpt lat="47.400046" lon="-121.485076"><ele>630.3</ele></trkpt>
<trkpt lat="47.400402" lon="-121.483410"><ele>643.7</ele></trkpt>
<trkpt lat="47.400505" lon="-121.482687"><ele>649.9</ele></trkpt>
<trkpt lat="47.400553" lon="-121.481444"><ele>660.6</ele></trkpt>
<trkpt lat="47.400493" lon="-121.481062"><ele>662.5</ele></trkpt>
<trkpt lat="47.400211" lon="-121.480298"><ele>663.0</ele></trkpt>
<trkpt lat="47.400269" lon="-121.479680"><ele>668.6</ele></trkpt>
<trkpt lat="47.400327" lon="-121.479742"><ele>669.7</ele></trkpt>
<trkpt lat="47.400428" lon="-121.480086"><ele>672.8</ele></trkpt>
<trkpt lat="47.401028" lon="-121.480708"><ele>683.0</ele></trkpt>
<trkpt lat="47.401311" lon="-121.481165"><ele>693.5</ele></trkpt>
<trkpt lat="47.401478" lon="-121.481570"><ele>698.0</ele></trkpt>
<trkpt lat="47.401490" lon="-121.481485"><ele>697.2</ele></trkpt>
<trkpt lat="47.401581" lon="-121.481546"><ele>697.8</ele></trkpt>
<trkpt lat="47.401494" lon="-121.481543"><ele>696.2</ele></trkpt>
<trkpt lat="47.401612" lon="-121.481818"><ele>698.5</ele></trkpt>
<trkpt lat="47.401658" lon="-121.482279"><ele>700.4</ele></trkpt>
<trkpt lat="47.402047" lon="-121.484082"><ele>721.1</ele></trkpt>
<trkpt lat="47.402260" lon="-121.484379"><ele>728.3</ele></trkpt>
<trkpt lat="47.402297" lon="-121.484526"><ele>730.8</ele></trkpt>
<trkpt lat="47.402310" lon="-121.484396"><ele>734.9</ele></trkpt>
<trkpt lat="47.402346" lon="-121.484495"><ele>733.0</ele></trkpt>
<trkpt lat="47.402426" lon="-121.484923"><ele>736.9</ele></trkpt>
<trkpt lat="47.402556" lon="-121.485270"><ele>742.2</ele></trkpt>
<trkpt lat="47.402527" lon="-121.485600"><ele>742.2</ele></trkpt>
<trkpt lat="47.402664" lon="-121.486209"><ele>746.5</ele></trkpt>
<trkpt lat="47.403042" lon="-121.487001"><ele>762.6</ele></trkpt>
<trkpt lat="47.403039" lon="-121.486690"><ele>769.1</ele></trkpt>
<trkpt lat="47.403120" lon="-121.486492"><ele>770.7</ele></trkpt>
<trkpt lat="47.403113" lon="-121.485947"><ele>774.5</ele></trkpt>
<trkpt lat="47.403202" lon="-121.485681"><ele>777.1</ele></trkpt>
<trkpt lat="47.403145" lon="-121.485560"><ele>774.2</ele></trkpt>
<trkpt lat="47.403242" lon="-121.485546"><ele>784.5</ele></trkpt>
<trkpt lat="47.403397" lon="-121.485043"><ele>792.6</ele></trkpt>
<trkpt lat="47.403410" lon="-121.484753"><ele>793.4</ele></trkpt>
<trkpt lat="47.403423" lon="-121.484899"><ele>796.0</ele></trkpt>
<trkpt lat="47.403465" lon="-121.484914"><ele>798.7</ele></trkpt>
<trkpt lat="47.403413" lon="-121.484791"><ele>798.8</ele></trkpt>
<trkpt lat="47.403464" lon="-121.483550"><ele>808.9</ele></trkpt>
<trkpt lat="47.403531" lon="-121.483056"><ele>820.0</ele></trkpt>
<trkpt lat="47.403594" lon="-121.482914"><ele>821.8</ele></trkpt>
<trkpt lat="47.403505" lon="-121.482868"><ele>829.2</ele></trkpt>
<trkpt lat="47.403565" lon="-121.482954"><ele>827.8</ele></trkpt>
<trkpt lat="47.403555" lon="-121.483056"><ele>827.1</ele></trkpt>
<trkpt lat="47.403567" lon="-121.482961"><ele>820.2</ele></trkpt>
<trkpt lat="47.403520" lon="-121.482903"><ele>821.6</ele></trkpt>
<trkpt lat="47.403546" lon="-121.483079"><ele>824.5</ele></trkpt>
<trkpt lat="47.403490" lon="-121.483002"><ele>825.1</ele></trkpt>
<trkpt lat="47.403510" lon="-121.482949"><ele>828.3</ele></trkpt>
<trkpt lat="47.403772" lon="-121.482632"><ele>843.4</ele></trkpt>
<trkpt lat="47.403870" lon="-121.482597"><ele>846.4</ele></trkpt>
<trkpt lat="47.403852" lon="-121.482411"><ele>847.7</ele></trkpt>
<trkpt lat="47.404051" lon="-121.481804"><ele>861.7</ele></trkpt>
<trkpt lat="47.404256" lon="-121.481437"><ele>872.5</ele></trkpt>
<trkpt lat="47.404303" lon="-121.481267"><ele>875.7</ele></trkpt>
<trkpt lat="47.404258" lon="-121.481327"><ele>875.9</ele></trkpt>
<trkpt lat="47.404214" lon="-121.481337"><ele>874.0</ele></trkpt>
<trkpt lat="47.404235" lon="-121.481284"><ele>873.3</ele></trkpt>
<trkpt lat="47.404328" lon="-121.481163"><ele>874.5</ele></trkpt>
<trkpt lat="47.404260" lon="-121.481343"><ele>875.4</ele></trkpt>
<trkpt lat="47.404278" lon="-121.481419"><ele>878.5</ele></trkpt>
<trkpt lat="47.404568" lon="-121.480917"><ele>889.0</ele></trkpt>
<trkpt lat="47.404793" lon="-121.480241"><ele>901.3</ele></trkpt>
<trkpt lat="47.404633" lon="-121.480137"><ele>917.2</ele></trkpt>
<trkpt lat="47.404704" lon="-121.480191"><ele>908.7</ele></trkpt>
<trkpt lat="47.404795" lon="-121.480083"><ele>903.1</ele></trkpt>
<trkpt lat="47.404856" lon="-121.480098"><ele>904.4</ele></trkpt>
<trkpt lat="47.405107" lon="-121.479758"><ele>910.1</ele></trkpt>
<trkpt lat="47.405199" lon="-121.479829"><ele>918.4</ele></trkpt>
<trkpt lat="47.405210" lon="-121.480210"><ele>924.7</ele></trkpt>
<trkpt lat="47.405298" lon="-121.480389"><ele>928.4</ele></trkpt>
<trkpt lat="47.405473" lon="-121.480320"><ele>933.6</ele></trkpt>
<trkpt lat="47.405644" lon="-121.480042"><ele>942.7</ele></trkpt>
<trkpt lat="47.405592" lon="-121.480057"><ele>942.5</ele></trkpt>
<trkpt lat="47.405999" lon="-121.480745"><ele>960.2</ele></trkpt>
<trkpt lat="47.406053" lon="-121.480962"><ele>964.9</ele></trkpt>
<trkpt lat="47.406064" lon="-121.480783"><ele>966.3</ele></trkpt>
<trkpt lat="47.406123" lon="-121.480870"><ele>967.2</ele></trkpt>
<trkpt lat="47.406189" lon="-121.480820"><ele>968.1</ele></trkpt>
<trkpt lat="47.406213" lon="-121.480190"><ele>966.2</ele></trkpt>
<trkpt lat="47.406350" lon="-121.480292"><ele>972.2</ele></trkpt>
<trkpt lat="47.406311" lon="-121.480229"><ele>970.9</ele></trkpt>
<trkpt lat="47.406285" lon="-121.480299"><ele>968.2</ele></trkpt>
<trkpt lat="47.406407" lon="-121.480363"><ele>971.2</ele></trkpt>
<trkpt lat="47.406552" lon="-121.480750"><ele>981.5</ele></trkpt>
<trkpt lat="47.406565" lon="-121.480957"><ele>983.8</ele></trkpt>
<trkpt lat="47.406611" lon="-121.480987"><ele>984.6</ele></trkpt>
<trkpt lat="47.406863" lon="-121.480435"><ele>994.0</ele></trkpt>
<trkpt lat="47.407036" lon="-121.479898"><ele>995.2</ele></trkpt>
<trkpt lat="47.406985" lon="-121.479907"><ele>997.3</ele></trkpt>
<trkpt lat="47.407005" lon="-121.479946"><ele>997.7</ele></trkpt>
<trkpt lat="47.407105" lon="-121.479765"><ele>999.6</ele></trkpt>
<trkpt lat="47.407086" lon="-121.479733"><ele>999.0</ele></trkpt>
<trkpt lat="47.407205" lon="-121.480088"><ele>1009.5</ele></trkpt>
<trkpt lat="47.407391" lon="-121.479858"><ele>1014.6</ele></trkpt>
<trkpt lat="47.407381" lon="-121.479807"><ele>1017.1</ele></trkpt>
<trkpt lat="47.407424" lon="-121.479918"><ele>1016.9</ele></trkpt>
<trkpt lat="47.407422" lon="-121.480136"><ele>1021.1</ele></trkpt>
<trkpt lat="47.407619" lon="-121.479969"><ele>1027.5</ele></trkpt>
<trkpt lat="47.407678" lon="-121.480224"><ele>1033.9</ele></trkpt>
<trkpt lat="47.407649" lon="-121.480371"><ele>1036.9</ele></trkpt>
<trkpt lat="47.407742" lon="-121.480691"><ele>1046.4</ele></trkpt>
<trkpt lat="47.408011" lon="-121.480357"><ele>1057.2</ele></trkpt>
<trkpt lat="47.408003" lon="-121.480290"><ele>1059.1</ele></trkpt>
<trkpt lat="47.408150" lon="-121.480225"><ele>1061.8</ele></trkpt>
<trkpt lat="47.408220" lon="-121.480241"><ele>1065.3</ele></trkpt>
<trkpt lat="47.408192" lon="-121.480301"><ele>1067.4</ele></trkpt>
<trkpt lat="47.408255" lon="-121.480366"><ele>1072.3</ele></trkpt>
<trkpt lat="47.408284" lon="-121.480282"><ele>1072.6</ele></trkpt>
<trkpt lat="47.408241" lon="-121.480236"><ele>1075.3</ele></trkpt>
<trkpt lat="47.408339" lon="-121.480431"><ele>1076.6</ele></trkpt>
<trkpt lat="47.408380" lon="-121.480423"><ele>1078.3</ele></trkpt>
<trkpt lat="47.408514" lon="-121.480065"><ele>1085.7</ele></trkpt>
<trkpt lat="47.408530" lon="-121.480128"><ele>1083.7</ele></trkpt>
<trkpt lat="47.408631" lon="-121.480069"><ele>1087.1</ele></trkpt>
<trkpt lat="47.408687" lon="-121.479823"><ele>1089.0</ele></trkpt>
<trkpt lat="47.408945" lon="-121.479495"><ele>1101.2</ele></trkpt>
<trkpt lat="47.409041" lon="-121.480225"><ele>1117.3</ele></trkpt>
<trkpt lat="47.409245" lon="-121.479922"><ele>1123.8</ele></trkpt>
<trkpt lat="47.409275" lon="-121.479779"><ele>1127.2</ele></trkpt>
<trkpt lat="47.409329" lon="-121.479755"><ele>1129.7</ele></trkpt>
<trkpt lat="47.409356" lon="-121.480368"><ele>1138.6</ele></trkpt>
<trkpt lat="47.409687" lon="-121.479821"><ele>1154.3</ele></trkpt>
<trkpt lat="47.409841" lon="-121.479650"><ele>1159.6</ele></trkpt>
<trkpt lat="47.409894" lon="-121.479541"><ele>1162.0</ele></trkpt>
<trkpt lat="47.409847" lon="-121.479494"><ele>1159.7</ele></trkpt>
<trkpt lat="47.409867" lon="-121.479412"><ele>1165.3</ele></trkpt>
<trkpt lat="47.409905" lon="-121.479510"><ele>1170.0</ele></trkpt>
<trkpt lat="47.410081" lon="-121.479428"><ele>1173.2</ele></trkpt>
<trkpt lat="47.410034" lon="-121.479560"><ele>1175.3</ele></trkpt>
<trkpt lat="47.410250" lon="-121.479276"><ele>1179.2</ele></trkpt>
<trkpt lat="47.410260" lon="-121.479208"><ele>1180.5</ele></trkpt>
<trkpt lat="47.410213" lon="-121.479171"><ele>1180.2</ele></trkpt>
<trkpt lat="47.410236" lon="-121.478782"><ele>1179.3</ele></trkpt>
<trkpt lat="47.410316" lon="-121.478488"><ele>1187.1</ele></trkpt>
<trkpt lat="47.410390" lon="-121.478715"><ele>1193.8</ele></trkpt>
<trkpt lat="47.410489" lon="-121.478813"><ele>1194.2</ele></trkpt>
<trkpt lat="47.410460" lon="-121.478803"><ele>1195.2</ele></trkpt>
<trkpt lat="47.410494" lon="-121.478889"><ele>1195.4</ele></trkpt>
<trkpt lat="47.410467" lon="-121.478894"><ele>1196.1</ele></trkpt>
<trkpt lat="47.410560" lon="-121.478892"><ele>1201.5</ele></trkpt>
<trkpt lat="47.410568" lon="-121.478023"><ele>1211.3</ele></trkpt>
<trkpt lat="47.410731" lon="-121.477528"><ele>1215.0</ele></trkpt>
<trkpt lat="47.410714" lon="-121.477208"><ele>1218.4</ele></trkpt>
<trkpt lat="47.410303" lon="-121.476239"><ele>1234.6</ele></trkpt>
<trkpt lat="47.410390" lon="-121.476357"><ele>1235.2</ele></trkpt>
<trkpt lat="47.410321" lon="-121.476201"><ele>1242.5</ele></trkpt>
<trkpt lat="47.410371" lon="-121.476034"><ele>1241.3</ele></trkpt>
<trkpt lat="47.410330" lon="-121.475846"><ele>1245.9</ele></trkpt>
<trkpt lat="47.410362" lon="-121.475819"><ele>1247.8</ele></trkpt>
<trkpt lat="47.410353" lon="-121.475380"><ele>1255.5</ele></trkpt>
<trkpt lat="47.410557" lon="-121.474880"><ele>1264.8</ele></trkpt>
<trkpt lat="47.410554" lon="-121.474264"><ele>1271.5</ele></trkpt>
<trkpt lat="47.410475" lon="-121.474295"><ele>1278.6</ele></trkpt>
<trkpt lat="47.410219" lon="-121.473737"><ele>1273.8</ele></trkpt>
<trkpt lat="47.410147" lon="-121.473384"><ele>1281.3</ele></trkpt>
<trkpt lat="47.410093" lon="-121.473363"><ele>1282.8</ele></trkpt>
<trkpt lat="47.410143" lon="-121.473462"><ele>1278.7</ele></trkpt>
<trkpt lat="47.410099" lon="-121.473208"><ele>1286.1</ele></trkpt>
<trkpt lat="47.410137" lon="-121.473168"><ele>1289.2</ele></trkpt>
<trkpt lat="47.410004" lon="-121.472966"><ele>1291.4</ele></trkpt>
<trkpt lat="47.409848" lon="-121.472485"><ele>1298.6</ele></trkpt>
<trkpt lat="47.409674" lon="-121.471102"><ele>1314.2</ele></trkpt>
<trkpt lat="47.409639" lon="-121.471142"><ele>1316.2</ele></trkpt>
<trkpt lat="47.409637" lon="-121.471100"><ele>1316.9</ele></trkpt>
<trkpt lat="47.409752" lon="-121.470721"><ele>1323.4</ele></trkpt>
<trkpt lat="47.409729" lon="-121.470563"><ele>1325.1</ele></trkpt>
<trkpt lat="47.409779" lon="-121.470271"><ele>1330.3</ele></trkpt>
<trkpt lat="47.409850" lon="-121.470161"><ele>1330.7</ele></trkpt>
<trkpt lat="47.410058" lon="-121.469475"><ele>1340.3</ele></trkpt>
<trkpt lat="47.410122" lon="-121.469370"><ele>1342.1</ele></trkpt>
<trkpt lat="47.410115" lon="-121.469487"><ele>1348.0</ele></trkpt>
<trkpt lat="47.410205" lon="-121.469491"><ele>1348.5</ele></trkpt>
<trkpt lat="47.410347" lon="-121.469053"><ele>1356.6</ele></trkpt>
<trkpt lat="47.410481" lon="-121.468910"><ele>1357.8</ele></trkpt>
<trkpt lat="47.410494" lon="-121.468765"><ele>1360.2</ele></trkpt>
<trkpt lat="47.410816" lon="-121.468367"><ele>1371.8</ele></trkpt>
<trkpt lat="47.410866" lon="-121.468902"><ele>1380.4</ele></trkpt>
<trkpt lat="47.411069" lon="-121.468735"><ele>1384.2</ele></trkpt>
<trkpt lat="47.411178" lon="-121.468545"><ele>1388.7</ele></trkpt>
<trkpt lat="47.411154" lon="-121.468705"><ele>1391.0</ele></trkpt>
<trkpt lat="47.411231" lon="-121.469295"><ele>1395.8</ele></trkpt>
<trkpt lat="47.411325" lon="-121.469229"><ele>1398.6</ele></trkpt>
<trkpt lat="47.411446" lon="-121.468903"><ele>1401.9</ele></trkpt>
<trkpt lat="47.411643" lon="-121.468630"><ele>1407.9</ele></trkpt>
<trkpt lat="47.411646" lon="-121.469308"><ele>1416.0</ele></trkpt>
<trkpt lat="47.411761" lon="-121.469246"><ele>1418.7</ele></trkpt>
<trkpt lat="47.411932" lon="-121.468930"><ele>1424.9</ele></trkpt>
<trkpt lat="47.411977" lon="-121.468950"><ele>1426.4</ele></trkpt>
<trkpt lat="47.412100" lon="-121.469313"><ele>1435.4</ele></trkpt>
<trkpt lat="47.412052" lon="-121.470354"><ele>1440.5</ele></trkpt>
<trkpt lat="47.412264" lon="-121.471065"><ele>1448.6</ele></trkpt>
<trkpt lat="47.412267" lon="-121.471237"><ele>1449.7</ele></trkpt>
<trkpt lat="47.412367" lon="-121.471397"><ele>1451.1</ele></trkpt>
<trkpt lat="47.412569" lon="-121.472178"><ele>1460.3</ele></trkpt>
<trkpt lat="47.412828" lon="-121.472749"><ele>1467.3</ele></trkpt>
<trkpt lat="47.413011" lon="-121.472876"><ele>1473.2</ele></trkpt>
<trkpt lat="47.412992" lon="-121.472941"><ele>1474.0</ele></trkpt>
<trkpt lat="47.413073" lon="-121.473038"><ele>1475.9</ele></trkpt>
<trkpt lat="47.413240" lon="-121.473144"><ele>1482.2</ele></trkpt>
<trkpt lat="47.413380" lon="-121.473424"><ele>1488.5</ele></trkpt>
<trkpt lat="47.413463" lon="-121.473400"><ele>1488.0</ele></trkpt>
<trkpt lat="47.413443" lon="-121.473461"><ele>1489.9</ele></trkpt>
<trkpt lat="47.413600" lon="-121.473606"><ele>1496.7</ele></trkpt>
<trkpt lat="47.413660" lon="-121.473839"><ele>1502.0</ele></trkpt>
<trkpt lat="47.413786" lon="-121.473760"><ele>1503.6</ele></trkpt>
<trkpt lat="47.413865" lon="-121.473860"><ele>1507.5</ele></trkpt>
<trkpt lat="47.413835" lon="-121.473911"><ele>1509.1</ele></trkpt>
<trkpt lat="47.413862" lon="-121.473948"><ele>1511.1</ele></trkpt>
<trkpt lat="47.414134" lon="-121.473855"><ele>1516.4</ele></trkpt>
<trkpt lat="47.415059" lon="-121.474064"><ele>1545.9</ele></trkpt>
<trkpt lat="47.415198" lon="-121.474201"><ele>1549.3</ele></trkpt>
<trkpt lat="47.415409" lon="-121.474550"><ele>1559.9</ele></trkpt>
<trkpt lat="47.415606" lon="-121.474724"><ele>1566.1</ele></trkpt>
<trkpt lat="47.415788" lon="-121.475223"><ele>1573.4</ele></trkpt>
<trkpt lat="47.415757" lon="-121.475502"><ele>1575.2</ele></trkpt>
<trkpt lat="47.415782" lon="-121.475695"><ele>1578.8</ele></trkpt>
<trkpt lat="47.415707" lon="-121.475865"><ele>1581.1</ele></trkpt>
<trkpt lat="47.415676" lon="-121.476113"><ele>1583.1</ele></trkpt>
<trkpt lat="47.416169" lon="-121.476887"><ele>1587.5</ele></trkpt>
<trkpt lat="47.416249" lon="-121.477126"><ele>1589.5</ele></trkpt>
<trkpt lat="47.416180" lon="-121.477276"><ele>1593.4</ele></trkpt>
<trkpt lat="47.416179" lon="-121.477394"><ele>1594.6</ele></trkpt>
<trkpt lat="47.416327" lon="-121.477621"><ele>1597.5</ele></trkpt>
<trkpt lat="47.416358" lon="-121.477893"><ele>1599.3</ele></trkpt>
<trkpt lat="47.416742" lon="-121.478184"><ele>1598.8</ele></trkpt>
<trkpt lat="47.416766" lon="-121.478272"><ele>1600.4</ele></trkpt>
<trkpt lat="47.416720" lon="-121.478345"><ele>1603.9</ele></trkpt>
<trkpt lat="47.416728" lon="-121.478529"><ele>1606.8</ele></trkpt>
<trkpt lat="47.416794" lon="-121.478580"><ele>1609.0</ele></trkpt>
<trkpt lat="47.416879" lon="-121.478524"><ele>1609.5</ele></trkpt>
<trkpt lat="47.417073" lon="-121.478537"><ele>1607.1</ele></trkpt>
<trkpt lat="47.417279" lon="-121.478901"><ele>1614.6</ele></trkpt>
<trkpt lat="47.417250" lon="-121.479075"><ele>1617.7</ele></trkpt>
<trkpt lat="47.417358" lon="-121.479165"><ele>1622.1</ele></trkpt>
<trkpt lat="47.417371" lon="-121.479324"><ele>1624.1</ele></trkpt>
<trkpt lat="47.417526" lon="-121.479232"><ele>1624.3</ele></trkpt>
<trkpt lat="47.417728" lon="-121.479215"><ele>1625.0</ele></trkpt>
<trkpt lat="47.417736" lon="-121.479300"><ele>1625.3</ele></trkpt>
<trkpt lat="47.417649" lon="-121.479487"><ele>1629.0</ele></trkpt>
<trkpt lat="47.417693" lon="-121.479530"><ele>1630.3</ele></trkpt>
<trkpt lat="47.417950" lon="-121.479619"><ele>1634.0</ele></trkpt>
<trkpt lat="47.417998" lon="-121.479711"><ele>1637.3</ele></trkpt>
<trkpt lat="47.418281" lon="-121.479644"><ele>1637.7</ele></trkpt>
<trkpt lat="47.418260" lon="-121.479429"><ele>1640.0</ele></trkpt>
<trkpt lat="47.418434" lon="-121.479575"><ele>1638.9</ele></trkpt>
<trkpt lat="47.418265" lon="-121.479489"><ele>1640.8</ele></trkpt>
<trkpt lat="47.418285" lon="-121.479431"><ele>1640.6</ele></trkpt>
<trkpt lat="47.417986" lon="-121.480009"><ele>1639.2</ele></trkpt>
<trkpt lat="47.417947" lon="-121.480191"><ele>1639.7</ele></trkpt>
<trkpt lat="47.418249" lon="-121.479573"><ele>1633.1</ele></trkpt>
<trkpt lat="47.418313" lon="-121.479877"><ele>1633.4</ele></trkpt>
<trkpt lat="47.418272" lon="-121.479931"><ele>1634.1</ele></trkpt>
<trkpt lat="47.418208" lon="-121.479793"><ele>1632.6</ele></trkpt>
<trkpt lat="47.418085" lon="-121.479709"><ele>1633.5</ele></trkpt>
<trkpt lat="47.417975" lon="-121.479744"><ele>1636.4</ele></trkpt>
<trkpt lat="47.417986" lon="-121.479805"><ele>1639.4</ele></trkpt>
<trkpt lat="47.418184" lon="-121.479812"><ele>1641.6</ele></trkpt>
<trkpt lat="47.418171" lon="-121.479902"><ele>1644.2</ele></trkpt>
<trkpt lat="47.418222" lon="-121.480002"><ele>1646.1</ele></trkpt>
<trkpt lat="47.418159" lon="-121.479975"><ele>1647.0</ele></trkpt>
<trkpt lat="47.417916" lon="-121.480445"><ele>1666.5</ele></trkpt>
<trkpt lat="47.417940" lon="-121.480576"><ele>1671.1</ele></trkpt>
<trkpt lat="47.418048" lon="-121.480637"><ele>1674.9</ele></trkpt>
<trkpt lat="47.418080" lon="-121.480726"><ele>1674.3</ele></trkpt>
<trkpt lat="47.418099" lon="-121.480679"><ele>1673.6</ele></trkpt>
<trkpt lat="47.418016" lon="-121.480889"><ele>1676.3</ele></trkpt>
<trkpt lat="47.417727" lon="-121.480877"><ele>1689.8</ele></trkpt>
<trkpt lat="47.417626" lon="-121.480966"><ele>1694.8</ele></trkpt>
<trkpt lat="47.417690" lon="-121.481034"><ele>1696.8</ele></trkpt>
<trkpt lat="47.417655" lon="-121.481061"><ele>1697.4</ele></trkpt>
<trkpt lat="47.417460" lon="-121.481151"><ele>1701.6</ele></trkpt>
<trkpt lat="47.417175" lon="-121.481162"><ele>1701.4</ele></trkpt>
<trkpt lat="47.417114" lon="-121.481218"><ele>1701.8</ele></trkpt>
<trkpt lat="47.417149" lon="-121.481283"><ele>1701.6</ele></trkpt>
<trkpt lat="47.417096" lon="-121.481239"><ele>1702.3</ele></trkpt>
<trkpt lat="47.417158" lon="-121.481190"><ele>1701.3</ele></trkpt>
<trkpt lat="47.417100" lon="-121.481206"><ele>1699.8</ele></trkpt>
<trkpt lat="47.417071" lon="-121.481111"><ele>1698.8</ele></trkpt>
<trkpt lat="47.417097" lon="-121.481224"><ele>1700.5</ele></trkpt>
<trkpt lat="47.417071" lon="-121.481111"><ele>1698.8</ele></trkpt>
<trkpt lat="47.417100" lon="-121.481206"><ele>1699.8</ele></trkpt>
<trkpt lat="47.417158" lon="-121.481190"><ele>1701.3</ele></trkpt>
<trkpt lat="47.417096" lon="-121.481239"><ele>1702.3</ele></trkpt>
<trkpt lat="47.417149" lon="-121.481283"><ele>1701.6</ele></trkpt>
<trkpt lat="47.417114" lon="-121.481218"><ele>1701.8</ele></trkpt>
<trkpt lat="47.417175" lon="-121.481162"><ele>1701.4</ele></trkpt>
<trkpt lat="47.417460" lon="-121.481151"><ele>1701.6</ele></trkpt>
<trkpt lat="47.417655" lon="-121.481061"><ele>1697.4</ele></trkpt>
<trkpt lat="47.417690" lon="-121.481034"><ele>1696.8</ele></trkpt>
<trkpt lat="47.417626" lon="-121.480966"><ele>1694.8</ele></trkpt>
<trkpt lat="47.417727" lon="-121.480877"><ele>1689.8</ele></trkpt>
<trkpt lat="47.418016" lon="-121.480889"><ele>1676.3</ele></trkpt>
<trkpt lat="47.418099" lon="-121.480679"><ele>1673.6</ele></trkpt>
<trkpt lat="47.418080" lon="-121.480726"><ele>1674.3</ele></trkpt>
<trkpt lat="47.418048" lon="-121.480637"><ele>1674.9</ele></trkpt>
<trkpt lat="47.417940" lon="-121.480576"><ele>1671.1</ele></trkpt>
<trkpt lat="47.417916" lon="-121.480445"><ele>1666.5</ele></trkpt>
<trkpt lat="47.418159" lon="-121.479975"><ele>1647.0</ele></trkpt>
<trkpt lat="47.418222" lon="-121.480002"><ele>1646.1</ele></trkpt>
<trkpt lat="47.418171" lon="-121.479902"><ele>1644.2</ele></trkpt>
<trkpt lat="47.418184" lon="-121.479812"><ele>1641.6</ele></trkpt>
<trkpt lat="47.417986" lon="-121.479805"><ele>1639.4</ele></trkpt>
<trkpt lat="47.417975" lon="-121.479744"><ele>1636.4</ele></trkpt>
<trkpt lat="47.418085" lon="-121.479709"><ele>1633.5</ele></trkpt>
<trkpt lat="47.418208" lon="-121.479793"><ele>1632.6</ele></trkpt>
<trkpt lat="47.418272" lon="-121.479931"><ele>1634.1</ele></trkpt>
<trkpt lat="47.418313" lon="-121.479877"><ele>1633.4</ele></trkpt>
<trkpt lat="47.418249" lon="-121.479573"><ele>1633.1</ele></trkpt>
<trkpt lat="47.417947" lon="-121.480191"><ele>1639.7</ele></trkpt>
<trkpt lat="47.417986" lon="-121.480009"><ele>1639.2</ele></trkpt>
<trkpt lat="47.418285" lon="-121.479431"><ele>1640.6</ele></trkpt>
<trkpt lat="47.418265" lon="-121.479489"><ele>1640.8</ele></trkpt>
<trkpt lat="47.418434" lon="-121.479575"><ele>1638.9</ele></trkpt>
<trkpt lat="47.418260" lon="-121.479429"><ele>1640.0</ele></trkpt>
<trkpt lat="47.418281" lon="-121.479644"><ele>1637.7</ele></trkpt>
<trkpt lat="47.417998" lon="-121.479711"><ele>1637.3</ele></trkpt>
<trkpt lat="47.417950" lon="-121.479619"><ele>1634.0</ele></trkpt>
<trkpt lat="47.417693" lon="-121.479530"><ele>1630.3</ele></trkpt>
<trkpt lat="47.417649" lon="-121.479487"><ele>1629.0</ele></trkpt>
<trkpt lat="47.417736" lon="-121.479300"><ele>1625.3</ele></trkpt>
<trkpt lat="47.417728" lon="-121.479215"><ele>1625.0</ele></trkpt>
<trkpt lat="47.417526" lon="-121.479232"><ele>1624.3</ele></trkpt>
<trkpt lat="47.417371" lon="-121.479324"><ele>1624.1</ele></trkpt>
<trkpt lat="47.417358" lon="-121.479165"><ele>1622.1</ele></trkpt>
<trkpt lat="47.417250" lon="-121.479075"><ele>1617.7</ele></trkpt>
<trkpt lat="47.417279" lon="-121.478901"><ele>1614.6</ele></trkpt>
<trkpt lat="47.417073" lon="-121.478537"><ele>1607.1</ele></trkpt>
<trkpt lat="47.416879" lon="-121.478524"><ele>1609.5</ele></trkpt>
<trkpt lat="47.416794" lon="-121.478580"><ele>1609.0</ele></trkpt>
<trkpt lat="47.416728" lon="-121.478529"><ele>1606.8</ele></trkpt>
<trkpt lat="47.416720" lon="-121.478345"><ele>1603.9</ele></trkpt>
<trkpt lat="47.416766" lon="-121.478272"><ele>1600.4</ele></trkpt>
<trkpt lat="47.416742" lon="-121.478184"><ele>1598.8</ele></trkpt>
<trkpt lat="47.416358" lon="-121.477893"><ele>1599.3</ele></trkpt>
<trkpt lat="47.416327" lon="-121.477621"><ele>1597.5</ele></trkpt>
<trkpt lat="47.416179" lon="-121.477394"><ele>1594.6</ele></trkpt>
<trkpt lat="47.416180" lon="-121.477276"><ele>1593.4</ele></trkpt>
<trkpt lat="47.416249" lon="-121.477126"><ele>1589.5</ele></trkpt>
<trkpt lat="47.416169" lon="-121.476887"><ele>1587.5</ele></trkpt>
<trkpt lat="47.415676" lon="-121.476113"><ele>1583.1</ele></trkpt>
<trkpt lat="47.415707" lon="-121.475865"><ele>1581.1</ele></trkpt>
<trkpt lat="47.415782" lon="-121.475695"><ele>1578.8</ele></trkpt>
<trkpt lat="47.415757" lon="-121.475502"><ele>1575.2</ele></trkpt>
<trkpt lat="47.415788" lon="-121.475223"><ele>1573.4</ele></trkpt>
<trkpt lat="47.415606" lon="-121.474724"><ele>1566.1</ele></trkpt>
<trkpt lat="47.415409" lon="-121.474550"><ele>1559.9</ele></trkpt>
<trkpt lat="47.415198" lon="-121.474201"><ele>1549.3</ele></trkpt>
<trkpt lat="47.415059" lon="-121.474064"><ele>1545.9</ele></trkpt>
<trkpt lat="47.414134" lon="-121.473855"><ele>1516.4</ele></trkpt>
<trkpt lat="47.413862" lon="-121.473948"><ele>1511.1</ele></trkpt>
<trkpt lat="47.413835" lon="-121.473911"><ele>1509.1</ele></trkpt>
<trkpt lat="47.413865" lon="-121.473860"><ele>1507.5</ele></trkpt>
<trkpt lat="47.413786" lon="-121.473760"><ele>1503.6</ele></trkpt>
<trkpt lat="47.413660" lon="-121.473839"><ele>1502.0</ele></trkpt>
<trkpt lat="47.413600" lon="-121.473606"><ele>1496.7</ele></trkpt>
<trkpt lat="47.413443" lon="-121.473461"><ele>1489.9</ele></trkpt>
<trkpt lat="47.413463" lon="-121.473400"><ele>1488.0</ele></trkpt>
<trkpt lat="47.413380" lon="-121.473424"><ele>1488.5</ele></trkpt>
<trkpt lat="47.413240" lon="-121.473144"><ele>1482.2</ele></trkpt>
<trkpt lat="47.413073" lon="-121.473038"><ele>1475.9</ele></trkpt>
<trkpt lat="47.412992" lon="-121.472941"><ele>1474.0</ele></trkpt>
<trkpt lat="47.413011" lon="-121.472876"><ele>1473.2</ele></trkpt>
<trkpt lat="47.412828" lon="-121.472749"><ele>1467.3</ele></trkpt>
<trkpt lat="47.412569" lon="-121.472178"><ele>1460.3</ele></trkpt>
<trkpt lat="47.412367" lon="-121.471397"><ele>1451.1</ele></trkpt>
<trkpt lat="47.412267" lon="-121.471237"><ele>1449.7</ele></trkpt>
<trkpt lat="47.412264" lon="-121.471065"><ele>1448.6</ele></trkpt>
<trkpt lat="47.412052" lon="-121.470354"><ele>1440.5</ele></trkpt>
<trkpt lat="47.412100" lon="-121.469313"><ele>1435.4</ele></trkpt>
<trkpt lat="47.411977" lon="-121.468950"><ele>1426.4</ele></trkpt>
<trkpt lat="47.411932" lon="-121.468930"><ele>1424.9</ele></trkpt>
<trkpt lat="47.411761" lon="-121.469246"><ele>1418.7</ele></trkpt>
<trkpt lat="47.411646" lon="-121.469308"><ele>1416.0</ele></trkpt>
<trkpt lat="47.411643" lon="-121.468630"><ele>1407.9</ele></trkpt>
<trkpt lat="47.411446" lon="-121.468903"><ele>1401.9</ele></trkpt>
<trkpt lat="47.411325" lon="-121.469229"><ele>1398.6</ele></trkpt>
<trkpt lat="47.411231" lon="-121.469295"><ele>1395.8</ele></trkpt>
<trkpt lat="47.411154" lon="-121.468705"><ele>1391.0</ele></trkpt>
<trkpt lat="47.411178" lon="-121.468545"><ele>1388.7</ele></trkpt>
<trkpt lat="47.411069" lon="-121.468735"><ele>1384.2</ele></trkpt>
<trkpt lat="47.410866" lon="-121.468902"><ele>1380.4</ele></trkpt>
<trkpt lat="47.410816" lon="-121.468367"><ele>1371.8</ele></trkpt>
<trkpt lat="47.410494" lon="-121.468765"><ele>1360.2</ele></trkpt>
<trkpt lat="47.410481" lon="-121.468910"><ele>1357.8</ele></trkpt>
<trkpt lat="47.410347" lon="-121.469053"><ele>1356.6</ele></trkpt>
<trkpt lat="47.410205" lon="-121.469491"><ele>1348.5</ele></trkpt>
<trkpt lat="47.410115" lon="-121.469487"><ele>1348.0</ele></trkpt>
<trkpt lat="47.410122" lon="-121.469370"><ele>1342.1</ele></trkpt>
<trkpt lat="47.410058" lon="-121.469475"><ele>1340.3</ele></trkpt>
<trkpt lat="47.409850" lon="-121.470161"><ele>1330.7</ele></trkpt>
<trkpt lat="47.409779" lon="-121.470271"><ele>1330.3</ele></trkpt>
<trkpt lat="47.409729" lon="-121.470563"><ele>1325.1</ele></trkpt>
<trkpt lat="47.409752" lon="-121.470721"><ele>1323.4</ele></trkpt>
<trkpt lat="47.409637" lon="-121.471100"><ele>1316.9</ele></trkpt>
<trkpt lat="47.409639" lon="-121.471142"><ele>1316.2</ele></trkpt>
<trkpt lat="47.409674" lon="-121.471102"><ele>1314.2</ele></trkpt>
<trkpt lat="47.409848" lon="-121.472485"><ele>1298.6</ele></trkpt>
<trkpt lat="47.410004" lon="-121.472966"><ele>1291.4</ele></trkpt>
<trkpt lat="47.410137" lon="-121.473168"><ele>1289.2</ele></trkpt>
<trkpt lat="47.410099" lon="-121.473208"><ele>1286.1</ele></trkpt>
<trkpt lat="47.410143" lon="-121.473462"><ele>1278.7</ele></trkpt>
<trkpt lat="47.410093" lon="-121.473363"><ele>1282.8</ele></trkpt>
<trkpt lat="47.410147" lon="-121.473384"><ele>1281.3</ele></trkpt>
<trkpt lat="47.410219" lon="-121.473737"><ele>1273.8</ele></trkpt>
<trkpt lat="47.410475" lon="-121.474295"><ele>1278.6</ele></trkpt>
<trkpt lat="47.410554" lon="-121.474264"><ele>1271.5</ele></trkpt>
<trkpt lat="47.410557" lon="-121.474880"><ele>1264.8</ele></trkpt>
<trkpt lat="47.410353" lon="-121.475380"><ele>1255.5</ele></trkpt>
<trkpt lat="47.410362" lon="-121.475819"><ele>1247.8</ele></trkpt>
<trkpt lat="47.410330" lon="-121.475846"><ele>1245.9</ele></trkpt>
<trkpt lat="47.410371" lon="-121.476034"><ele>1241.3</ele></trkpt>
<trkpt lat="47.410321" lon="-121.476201"><ele>1242.5</ele></trkpt>
<trkpt lat="47.410390" lon="-121.476357"><ele>1235.2</ele></trkpt>
<trkpt lat="47.410303" lon="-121.476239"><ele>1234.6</ele></trkpt>
<trkpt lat="47.410714" lon="-121.477208"><ele>1218.4</ele></trkpt>
<trkpt lat="47.410731" lon="-121.477528"><ele>1215.0</ele></trkpt>
<trkpt lat="47.410568" lon="-121.478023"><ele>1211.3</ele></trkpt>
<trkpt lat="47.410560" lon="-121.478892"><ele>1201.5</ele></trkpt>
<trkpt lat="47.410467" lon="-121.478894"><ele>1196.1</ele></trkpt>
<trkpt lat="47.410494" lon="-121.478889"><ele>1195.4</ele></trkpt>
<trkpt lat="47.410460" lon="-121.478803"><ele>1195.2</ele></trkpt>
<trkpt lat="47.410489" lon="-121.478813"><ele>1194.2</ele></trkpt>
<trkpt lat="47.410390" lon="-121.478715"><ele>1193.8</ele></trkpt>
<trkpt lat="47.410316" lon="-121.478488"><ele>1187.1</ele></trkpt>
<trkpt lat="47.410236" lon="-121.478782"><ele>1179.3</ele></trkpt>
<trkpt lat="47.410213" lon="-121.479171"><ele>1180.2</ele></trkpt>
<trkpt lat="47.410260" lon="-121.479208"><ele>1180.5</ele></trkpt>
<trkpt lat="47.410250" lon="-121.479276"><ele>1179.2</ele></trkpt>
<trkpt lat="47.410034" lon="-121.479560"><ele>1175.3</ele></trkpt>
<trkpt lat="47.410081" lon="-121.479428"><ele>1173.2</ele></trkpt>
<trkpt lat="47.409905" lon="-121.479510"><ele>1170.0</ele></trkpt>
<trkpt lat="47.409867" lon="-121.479412"><ele>1165.3</ele></trkpt>
<trkpt lat="47.409847" lon="-121.479494"><ele>1159.7</ele></trkpt>
<trkpt lat="47.409894" lon="-121.479541"><ele>1162.0</ele></trkpt>
<trkpt lat="47.409841" lon="-121.479650"><ele>1159.6</ele></trkpt>
<trkpt lat="47.409687" lon="-121.479821"><ele>1154.3</ele></trkpt>
<trkpt lat="47.409356" lon="-121.480368"><ele>1138.6</ele></trkpt>
<trkpt lat="47.409329" lon="-121.479755"><ele>1129.7</ele></trkpt>
<trkpt lat="47.409275" lon="-121.479779"><ele>1127.2</ele></trkpt>
<trkpt lat="47.409245" lon="-121.479922"><ele>1123.8</ele></trkpt>
<trkpt lat="47.409041" lon="-121.480225"><ele>1117.3</ele></trkpt>
<trkpt lat="47.408945" lon="-121.479495"><ele>1101.2</ele></trkpt>
<trkpt lat="47.408687" lon="-121.479823"><ele>1089.0</ele></trkpt>
<trkpt lat="47.408631" lon="-121.480069"><ele>1087.1</ele></trkpt>
<trkpt lat="47.408530" lon="-121.480128"><ele>1083.7</ele></trkpt>
<trkpt lat="47.408514" lon="-121.480065"><ele>1085.7</ele></trkpt>
<trkpt lat="47.408380" lon="-121.480423"><ele>1078.3</ele></trkpt>
<trkpt lat="47.408339" lon="-121.480431"><ele>1076.6</ele></trkpt>
<trkpt lat="47.408241" lon="-121.480236"><ele>1075.3</ele></trkpt>
<trkpt lat="47.408284" lon="-121.480282"><ele>1072.6</ele></trkpt>
<trkpt lat="47.408255" lon="-121.480366"><ele>1072.3</ele></trkpt>
<trkpt lat="47.408192" lon="-121.480301"><ele>1067.4</ele></trkpt>
<trkpt lat="47.408220" lon="-121.480241"><ele>1065.3</ele></trkpt>
<trkpt lat="47.408150" lon="-121.480225"><ele>1061.8</ele></trkpt>
<trkpt lat="47.408003" lon="-121.480290"><ele>1059.1</ele></trkpt>
<trkpt lat="47.408011" lon="-121.480357"><ele>1057.2</ele></trkpt>
<trkpt lat="47.407742" lon="-121.480691"><ele>1046.4</ele></trkpt>
<trkpt lat="47.407649" lon="-121.480371"><ele>1036.9</ele></trkpt>
<trkpt lat="47.407678" lon="-121.480224"><ele>1033.9</ele></trkpt>
<trkpt lat="47.407619" lon="-121.479969"><ele>1027.5</ele></trkpt>
<trkpt lat="47.407422" lon="-121.480136"><ele>1021.1</ele></trkpt>
<trkpt lat="47.407424" lon="-121.479918"><ele>1016.9</ele></trkpt>
<trkpt lat="47.407381" lon="-121.479807"><ele>1017.1</ele></trkpt>
<trkpt lat="47.407391" lon="-121.479858"><ele>1014.6</ele></trkpt>
<trkpt lat="47.407205" lon="-121.480088"><ele>1009.5</ele></trkpt>
<trkpt lat="47.407086" lon="-121.479733"><ele>999.0</ele></trkpt>
<trkpt lat="47.407105" lon="-121.479765"><ele>999.6</ele></trkpt>
<trkpt lat="47.407005" lon="-121.479946"><ele>997.7</ele></trkpt>
<trkpt lat="47.406985" lon="-121.479907"><ele>997.3</ele></trkpt>
<trkpt lat="47.407036" lon="-121.479898"><ele>995.2</ele></trkpt>
<trkpt lat="47.406863" lon="-121.480435"><ele>994.0</ele></trkpt>
<trkpt lat="47.406611" lon="-121.480987"><ele>984.6</ele></trkpt>
<trkpt lat="47.406565" lon="-121.480957"><ele>983.8</ele></trkpt>
<trkpt lat="47.406552" lon="-121.480750"><ele>981.5</ele></trkpt>
<trkpt lat="47.406407" lon="-121.480363"><ele>971.2</ele></trkpt>
<trkpt lat="47.406285" lon="-121.480299"><ele>968.2</ele></trkpt>
<trkpt lat="47.406311" lon="-121.480229"><ele>970.9</ele></trkpt>
<trkpt lat="47.406350" lon="-121.480292"><ele>972.2</ele></trkpt>
<trkpt lat="47.406213" lon="-121.480190"><ele>966.2</ele></trkpt>
<trkpt lat="47.406189" lon="-121.480820"><ele>968.1</ele></trkpt>
<trkpt lat="47.406123" lon="-121.480870"><ele>967.2</ele></trkpt>
<trkpt lat="47.406064" lon="-121.480783"><ele>966.3</ele></trkpt>
<trkpt lat="47.406053" lon="-121.480962"><ele>964.9</ele></trkpt>
<trkpt lat="47.405999" lon="-121.480745"><ele>960.2</ele></trkpt>
<trkpt lat="47.405592" lon="-121.480057"><ele>942.5</ele></trkpt>
<trkpt lat="47.405644" lon="-121.480042"><ele>942.7</ele></trkpt>
<trkpt lat="47.405473" lon="-121.480320"><ele>933.6</ele></trkpt>
<trkpt lat="47.405298" lon="-121.480389"><ele>928.4</ele></trkpt>
<trkpt lat="47.405210" lon="-121.480210"><ele>924.7</ele></trkpt>
<trkpt lat="47.405199" lon="-121.479829"><ele>918.4</ele></trkpt>
<trkpt lat="47.405107" lon="-121.479758"><ele>910.1</ele></trkpt>
<trkpt lat="47.404856" lon="-121.480098"><ele>904.4</ele></trkpt>
<trkpt lat="47.404795" lon="-121.480083"><ele>903.1</ele></trkpt>
<trkpt lat="47.404704" lon="-121.480191"><ele>908.7</ele></trkpt>
<trkpt lat="47.404633" lon="-121.480137"><ele>917.2</ele></trkpt>
<trkpt lat="47.404793" lon="-121.480241"><ele>901.3</ele></trkpt>
<trkpt lat="47.404568" lon="-121.480917"><ele>889.0</ele></trkpt>
<trkpt lat="47.404278" lon="-121.481419"><ele>878.5</ele></trkpt>
<trkpt lat="47.404260" lon="-121.481343"><ele>875.4</ele></trkpt>
<trkpt lat="47.404328" lon="-121.481163"><ele>874.5</ele></trkpt>
<trkpt lat="47.404235" lon="-121.481284"><ele>873.3</ele></trkpt>
<trkpt lat="47.404214" lon="-121.481337"><ele>874.0</ele></trkpt>
<trkpt lat="47.404258" lon="-121.481327"><ele>875.9</ele></trkpt>
<trkpt lat="47.404303" lon="-121.481267"><ele>875.7</ele></trkpt>
<trkpt lat="47.404256" lon="-121.481437"><ele>872.5</ele></trkpt>
<trkpt lat="47.404051" lon="-121.481804"><ele>861.7</ele></trkpt>
<trkpt lat="47.403852" lon="-121.482411"><ele>847.7</ele></trkpt>
<trkpt lat="47.403870" lon="-121.482597"><ele>846.4</ele></trkpt>
<trkpt lat="47.403772" lon="-121.482632"><ele>843.4</ele></trkpt>
<trkpt lat="47.403510" lon="-121.482949"><ele>828.3</ele></trkpt>
<trkpt lat="47.403490" lon="-121.483002"><ele>825.1</ele></trkpt>
<trkpt lat="47.403546" lon="-121.483079"><ele>824.5</ele></trkpt>
<trkpt lat="47.403520" lon="-121.482903"><ele>821.6</ele></trkpt>
<trkpt lat="47.403567" lon="-121.482961"><ele>820.2</ele></trkpt>
<trkpt lat="47.403555" lon="-121.483056"><ele>827.1</ele></trkpt>
<trkpt lat="47.403565" lon="-121.482954"><ele>827.8</ele></trkpt>
<trkpt lat="47.403505" lon="-121.482868"><ele>829.2</ele></trkpt>
<trkpt lat="47.403594" lon="-121.482914"><ele>821.8</ele></trkpt>
<trkpt lat="47.403531" lon="-121.483056"><ele>820.0</ele></trkpt>
<trkpt lat="47.403464" lon="-121.483550"><ele>808.9</ele></trkpt>
<trkpt lat="47.403413" lon="-121.484791"><ele>798.8</ele></trkpt>
<trkpt lat="47.403465" lon="-121.484914"><ele>798.7</ele></trkpt>
<trkpt lat="47.403423" lon="-121.484899"><ele>796.0</ele></trkpt>
<trkpt lat="47.403410" lon="-121.484753"><ele>793.4</ele></trkpt>
<trkpt lat="47.403397" lon="-121.485043"><ele>792.6</ele></trkpt>
<trkpt lat="47.403242" lon="-121.485546"><ele>784.5</ele></trkpt>
<trkpt lat="47.403145" lon="-121.485560"><ele>774.2</ele></trkpt>
<trkpt lat="47.403202" lon="-121.485681"><ele>777.1</ele></trkpt>
<trkpt lat="47.403113" lon="-121.485947"><ele>774.5</ele></trkpt>
<trkpt lat="47.403120" lon="-121.486492"><ele>770.7</ele></trkpt>
<trkpt lat="47.403039" lon="-121.486690"><ele>769.1</ele></trkpt>
<trkpt lat="47.403042" lon="-121.487001"><ele>762.6</ele></trkpt>
<trkpt lat="47.402664" lon="-121.486209"><ele>746.5</ele></trkpt>
<trkpt lat="47.402527" lon="-121.485600"><ele>742.2</ele></trkpt>
<trkpt lat="47.402556" lon="-121.485270"><ele>742.2</ele></trkpt>
<trkpt lat="47.402426" lon="-121.484923"><ele>736.9</ele></trkpt>
<trkpt lat="47.402346" lon="-121.484495"><ele>733.0</ele></trkpt>
<trkpt lat="47.402310" lon="-121.484396"><ele>734.9</ele></trkpt>
<trkpt lat="47.402297" lon="-121.484526"><ele>730.8</ele></trkpt>
<trkpt lat="47.402260" lon="-121.484379"><ele>728.3</ele></trkpt>
<trkpt lat="47.402047" lon="-121.484082"><ele>721.1</ele></trkpt>
<trkpt lat="47.401658" lon="-121.482279"><ele>700.4</ele></trkpt>
<trkpt lat="47.401612" lon="-121.481818"><ele>698.5</ele></trkpt>
<trkpt lat="47.401494" lon="-121.481543"><ele>696.2</ele></trkpt>
<trkpt lat="47.401581" lon="-121.481546"><ele>697.8</ele></trkpt>
<trkpt lat="47.401490" lon="-121.481485"><ele>697.2</ele></trkpt>
<trkpt lat="47.401478" lon="-121.481570"><ele>698.0</ele></trkpt>
<trkpt lat="47.401311" lon="-121.481165"><ele>693.5</ele></trkpt>
<trkpt lat="47.401028" lon="-121.480708"><ele>683.0</ele></trkpt>
<trkpt lat="47.400428" lon="-121.480086"><ele>672.8</ele></trkpt>
<trkpt lat="47.400327" lon="-121.479742"><ele>669.7</ele></trkpt>
<trkpt lat="47.400269" lon="-121.479680"><ele>668.6</ele></trkpt>
<trkpt lat="47.400211" lon="-121.480298"><ele>663.0</ele></trkpt>
<trkpt lat="47.400493" lon="-121.481062"><ele>662.5</ele></trkpt>
<trkpt lat="47.400553" lon="-121.481444"><ele>660.6</ele></trkpt>
<trkpt lat="47.400505" lon="-121.482687"><ele>649.9</ele></trkpt>
<trkpt lat="47.400402" lon="-121.483410"><ele>643.7</ele></trkpt>
<trkpt lat="47.400046" lon="-121.485076"><ele>630.3</ele></trkpt>
<trkpt lat="47.399930" lon="-121.486120"><ele>623.4</ele></trkpt>
<trkpt lat="47.399734" lon="-121.486730"><ele>614.7</ele></trkpt>
<trkpt lat="47.399660" lon="-121.486845"><ele>612.6</ele></trkpt>
<trkpt lat="47.399458" lon="-121.487746"><ele>596.3</ele></trkpt>
<trkpt lat="47.399378" lon="-121.487891"><ele>594.2</ele></trkpt>
<trkpt lat="47.399282" lon="-121.487891"><ele>592.8</ele></trkpt>
<trkpt lat="47.398996" lon="-121.487002"><ele>589.2</ele></trkpt>
<trkpt lat="47.398799" lon="-121.486614"><ele>585.6</ele></trkpt>
<trkpt lat="47.398615" lon="-121.486660"><ele>581.2</ele></trkpt>
<trkpt lat="47.398138" lon="-121.486975"><ele>575.2</ele></trkpt>
<trkpt lat="47.397921" lon="-121.486985"><ele>584.3</ele></trkpt>
</trkseg></trk>
</gpx>
