<?xml version="1.0" encoding="UTF-8"?>
<gpx version="1.1" creator="The Lost Trailhead" xmlns="http://www.topografix.com/GPX/1/1" xmlns:xsi="http://www.w3.org/2001/XMLSchema-instance" xsi:schemaLocation="http://www.topografix.com/GPX/1/1 http://www.topografix.com/GPX/1/1/gpx.xsd">
<metadata><name>Rachel &amp; Rampart Lakes</name><desc>The Lost Trailhead, thelosttrailhead.com/hikes/rachel-rampart-lakes. Conditions change. Use at your own risk.</desc><link href="https://thelosttrailhead.com/hikes/rachel-rampart-lakes"><text>Rachel &amp; Rampart Lakes on The Lost Trailhead</text></link></metadata>
<trk><name>Rachel &amp; Rampart Lakes</name><link href="https://thelosttrailhead.com/hikes/rachel-rampart-lakes"><text>Rachel &amp; Rampart Lakes on The Lost Trailhead</text></link><trkseg>
<trkpt lat="47.400499" lon="-121.283516"><ele>828.8</ele></trkpt>
<trkpt lat="47.400511" lon="-121.283461"><ele>839.2</ele></trkpt>
<trkpt lat="47.400554" lon="-121.283693"><ele>841.0</ele></trkpt>
<trkpt lat="47.400706" lon="-121.283957"><ele>845.1</ele></trkpt>
<trkpt lat="47.400832" lon="-121.283831"><ele>845.8</ele></trkpt>
<trkpt lat="47.400867" lon="-121.283593"><ele>846.3</ele></trkpt>
<trkpt lat="47.400883" lon="-121.283639"><ele>845.8</ele></trkpt>
<trkpt lat="47.400930" lon="-121.283589"><ele>847.3</ele></trkpt>
<trkpt lat="47.401071" lon="-121.283641"><ele>848.6</ele></trkpt>
<trkpt lat="47.401259" lon="-121.283346"><ele>851.5</ele></trkpt>
<trkpt lat="47.401358" lon="-121.283305"><ele>853.1</ele></trkpt>
<trkpt lat="47.401519" lon="-121.283016"><ele>857.9</ele></trkpt>
<trkpt lat="47.401549" lon="-121.282471"><ele>866.2</ele></trkpt>
<trkpt lat="47.401673" lon="-121.282738"><ele>871.7</ele></trkpt>
<trkpt lat="47.401892" lon="-121.282838"><ele>875.5</ele></trkpt>
<trkpt lat="47.402169" lon="-121.283349"><ele>884.0</ele></trkpt>
<trkpt lat="47.402514" lon="-121.283755"><ele>891.8</ele></trkpt>
<trkpt lat="47.402736" lon="-121.283919"><ele>892.7</ele></trkpt>
<trkpt lat="47.403135" lon="-121.284767"><ele>896.7</ele></trkpt>
<trkpt lat="47.403323" lon="-121.284949"><ele>901.2</ele></trkpt>
<trkpt lat="47.403595" lon="-121.285356"><ele>906.6</ele></trkpt>
<trkpt lat="47.403784" lon="-121.285578"><ele>904.5</ele></trkpt>
<trkpt lat="47.403923" lon="-121.285654"><ele>905.2</ele></trkpt>
<trkpt lat="47.404122" lon="-121.285926"><ele>907.5</ele></trkpt>
<trkpt lat="47.404280" lon="-121.285958"><ele>908.3</ele></trkpt>
<trkpt lat="47.404391" lon="-121.286058"><ele>908.1</ele></trkpt>
<trkpt lat="47.404648" lon="-121.286598"><ele>909.8</ele></trkpt>
<trkpt lat="47.404747" lon="-121.286621"><ele>910.8</ele></trkpt>
<trkpt lat="47.404884" lon="-121.286482"><ele>911.8</ele></trkpt>
<trkpt lat="47.405695" lon="-121.286636"><ele>924.9</ele></trkpt>
<trkpt lat="47.405844" lon="-121.286730"><ele>927.3</ele></trkpt>
<trkpt lat="47.406526" lon="-121.286588"><ele>931.9</ele></trkpt>
<trkpt lat="47.406841" lon="-121.286740"><ele>933.8</ele></trkpt>
<trkpt lat="47.406968" lon="-121.286736"><ele>932.4</ele></trkpt>
<trkpt lat="47.407326" lon="-121.287066"><ele>935.8</ele></trkpt>
<trkpt lat="47.407422" lon="-121.287013"><ele>934.1</ele></trkpt>
<trkpt lat="47.407490" lon="-121.287096"><ele>932.0</ele></trkpt>
<trkpt lat="47.408076" lon="-121.287352"><ele>938.5</ele></trkpt>
<trkpt lat="47.408332" lon="-121.287928"><ele>939.3</ele></trkpt>
<trkpt lat="47.408810" lon="-121.288316"><ele>942.5</ele></trkpt>
<trkpt lat="47.409156" lon="-121.288498"><ele>939.8</ele></trkpt>
<trkpt lat="47.409207" lon="-121.288778"><ele>942.5</ele></trkpt>
<trkpt lat="47.409280" lon="-121.288894"><ele>943.0</ele></trkpt>
<trkpt lat="47.409382" lon="-121.288901"><ele>942.9</ele></trkpt>
<trkpt lat="47.409447" lon="-121.289055"><ele>943.5</ele></trkpt>
<trkpt lat="47.409666" lon="-121.289221"><ele>946.1</ele></trkpt>
<trkpt lat="47.409784" lon="-121.289424"><ele>949.5</ele></trkpt>
<trkpt lat="47.410190" lon="-121.289844"><ele>953.4</ele></trkpt>
<trkpt lat="47.410285" lon="-121.290035"><ele>952.3</ele></trkpt>
<trkpt lat="47.410361" lon="-121.290070"><ele>953.2</ele></trkpt>
<trkpt lat="47.410407" lon="-121.290212"><ele>953.5</ele></trkpt>
<trkpt lat="47.410385" lon="-121.290378"><ele>953.6</ele></trkpt>
<trkpt lat="47.410176" lon="-121.290672"><ele>949.3</ele></trkpt>
<trkpt lat="47.410059" lon="-121.290747"><ele>949.6</ele></trkpt>
<trkpt lat="47.410137" lon="-121.290979"><ele>949.0</ele></trkpt>
<trkpt lat="47.410280" lon="-121.291134"><ele>949.6</ele></trkpt>
<trkpt lat="47.410370" lon="-121.291137"><ele>951.7</ele></trkpt>
<trkpt lat="47.410515" lon="-121.291305"><ele>952.8</ele></trkpt>
<trkpt lat="47.410743" lon="-121.291437"><ele>952.1</ele></trkpt>
<trkpt lat="47.410937" lon="-121.291419"><ele>955.3</ele></trkpt>
<trkpt lat="47.410999" lon="-121.291534"><ele>955.9</ele></trkpt>
<trkpt lat="47.410945" lon="-121.291710"><ele>955.4</ele></trkpt>
<trkpt lat="47.410901" lon="-121.291795"><ele>955.8</ele></trkpt>
<trkpt lat="47.410806" lon="-121.291776"><ele>954.2</ele></trkpt>
<trkpt lat="47.411000" lon="-121.291830"><ele>956.8</ele></trkpt>
<trkpt lat="47.411230" lon="-121.292082"><ele>959.5</ele></trkpt>
<trkpt lat="47.411286" lon="-121.292332"><ele>963.6</ele></trkpt>
<trkpt lat="47.411367" lon="-121.292441"><ele>964.7</ele></trkpt>
<trkpt lat="47.411510" lon="-121.292852"><ele>967.0</ele></trkpt>
<trkpt lat="47.411764" lon="-121.292978"><ele>969.5</ele></trkpt>
<trkpt lat="47.411965" lon="-121.293194"><ele>967.4</ele></trkpt>
<trkpt lat="47.412221" lon="-121.293292"><ele>970.7</ele></trkpt>
<trkpt lat="47.412423" lon="-121.293489"><ele>970.2</ele></trkpt>
<trkpt lat="47.412778" lon="-121.293576"><ele>971.7</ele></trkpt>
<trkpt lat="47.412993" lon="-121.294570"><ele>963.6</ele></trkpt>
<trkpt lat="47.412924" lon="-121.294946"><ele>964.8</ele></trkpt>
<trkpt lat="47.412987" lon="-121.295167"><ele>968.4</ele></trkpt>
<trkpt lat="47.413338" lon="-121.295766"><ele>972.1</ele></trkpt>
<trkpt lat="47.413494" lon="-121.295872"><ele>973.2</ele></trkpt>
<trkpt lat="47.413478" lon="-121.296046"><ele>973.2</ele></trkpt>
<trkpt lat="47.413607" lon="-121.296177"><ele>974.4</ele></trkpt>
<trkpt lat="47.413788" lon="-121.296519"><ele>971.4</ele></trkpt>
<trkpt lat="47.413930" lon="-121.296655"><ele>973.6</ele></trkpt>
<trkpt lat="47.414102" lon="-121.297114"><ele>974.8</ele></trkpt>
<trkpt lat="47.414259" lon="-121.297389"><ele>975.4</ele></trkpt>
<trkpt lat="47.414694" lon="-121.297952"><ele>975.4</ele></trkpt>
<trkpt lat="47.414749" lon="-121.298244"><ele>974.4</ele></trkpt>
<trkpt lat="47.415004" lon="-121.298385"><ele>975.2</ele></trkpt>
<trkpt lat="47.415204" lon="-121.299103"><ele>973.9</ele></trkpt>
<trkpt lat="47.415347" lon="-121.299157"><ele>974.1</ele></trkpt>
<trkpt lat="47.415475" lon="-121.299499"><ele>975.2</ele></trkpt>
<trkpt lat="47.415637" lon="-121.299654"><ele>975.4</ele></trkpt>
<trkpt lat="47.415738" lon="-121.300068"><ele>978.2</ele></trkpt>
<trkpt lat="47.415790" lon="-121.300635"><ele>978.1</ele></trkpt>
<trkpt lat="47.415927" lon="-121.301040"><ele>975.7</ele></trkpt>
<trkpt lat="47.415816" lon="-121.301775"><ele>978.5</ele></trkpt>
<trkpt lat="47.416020" lon="-121.302058"><ele>979.9</ele></trkpt>
<trkpt lat="47.416041" lon="-121.302761"><ele>979.0</ele></trkpt>
<trkpt lat="47.416353" lon="-121.303173"><ele>984.5</ele></trkpt>
<trkpt lat="47.416502" lon="-121.303570"><ele>984.2</ele></trkpt>
<trkpt lat="47.416723" lon="-121.303904"><ele>985.2</ele></trkpt>
<trkpt lat="47.416856" lon="-121.304314"><ele>981.2</ele></trkpt>
<trkpt lat="47.416852" lon="-121.304509"><ele>980.9</ele></trkpt>
<trkpt lat="47.416922" lon="-121.304699"><ele>983.8</ele></trkpt>
<trkpt lat="47.417319" lon="-121.304967"><ele>992.0</ele></trkpt>
<trkpt lat="47.417564" lon="-121.305489"><ele>996.9</ele></trkpt>
<trkpt lat="47.417554" lon="-121.305770"><ele>996.2</ele></trkpt>
<trkpt lat="47.417486" lon="-121.306021"><ele>994.5</ele></trkpt>
<trkpt lat="47.417551" lon="-121.306374"><ele>994.6</ele></trkpt>
<trkpt lat="47.417679" lon="-121.306819"><ele>990.3</ele></trkpt>
<trkpt lat="47.417848" lon="-121.306989"><ele>992.6</ele></trkpt>
<trkpt lat="47.417956" lon="-121.307256"><ele>995.3</ele></trkpt>
<trkpt lat="47.418007" lon="-121.307639"><ele>994.3</ele></trkpt>
<trkpt lat="47.418082" lon="-121.307854"><ele>995.4</ele></trkpt>
<trkpt lat="47.418386" lon="-121.308021"><ele>1000.5</ele></trkpt>
<trkpt lat="47.418579" lon="-121.308274"><ele>1000.9</ele></trkpt>
<trkpt lat="47.418811" lon="-121.308212"><ele>1001.5</ele></trkpt>
<trkpt lat="47.418865" lon="-121.308377"><ele>999.9</ele></trkpt>
<trkpt lat="47.418809" lon="-121.308534"><ele>997.8</ele></trkpt>
<trkpt lat="47.418989" lon="-121.308629"><ele>997.8</ele></trkpt>
<trkpt lat="47.419134" lon="-121.308798"><ele>997.3</ele></trkpt>
<trkpt lat="47.419170" lon="-121.308986"><ele>996.3</ele></trkpt>
<trkpt lat="47.419310" lon="-121.309208"><ele>996.4</ele></trkpt>
<trkpt lat="47.419348" lon="-121.309481"><ele>997.4</ele></trkpt>
<trkpt lat="47.419315" lon="-121.309650"><ele>996.6</ele></trkpt>
<trkpt lat="47.419520" lon="-121.310202"><ele>1001.4</ele></trkpt>
<trkpt lat="47.419483" lon="-121.310471"><ele>1002.9</ele></trkpt>
<trkpt lat="47.419748" lon="-121.311011"><ele>1006.6</ele></trkpt>
<trkpt lat="47.420070" lon="-121.311466"><ele>1010.3</ele></trkpt>
<trkpt lat="47.420308" lon="-121.311664"><ele>1012.4</ele></trkpt>
<trkpt lat="47.420412" lon="-121.311837"><ele>1012.6</ele></trkpt>
<trkpt lat="47.420467" lon="-121.312131"><ele>1011.5</ele></trkpt>
<trkpt lat="47.420627" lon="-121.312520"><ele>1014.9</ele></trkpt>
<trkpt lat="47.420610" lon="-121.312708"><ele>1015.8</ele></trkpt>
<trkpt lat="47.420740" lon="-121.312885"><ele>1013.0</ele></trkpt>
<trkpt lat="47.420776" lon="-121.313018"><ele>1013.6</ele></trkpt>
<trkpt lat="47.421207" lon="-121.313160"><ele>1020.5</ele></trkpt>
<trkpt lat="47.421267" lon="-121.313347"><ele>1020.8</ele></trkpt>
<trkpt lat="47.421492" lon="-121.313619"><ele>1023.5</ele></trkpt>
<trkpt lat="47.421688" lon="-121.313727"><ele>1027.9</ele></trkpt>
<trkpt lat="47.421761" lon="-121.314102"><ele>1030.7</ele></trkpt>
<trkpt lat="47.421974" lon="-121.314206"><ele>1034.0</ele></trkpt>
<trkpt lat="47.422164" lon="-121.314558"><ele>1038.6</ele></trkpt>
<trkpt lat="47.422231" lon="-121.314882"><ele>1037.9</ele></trkpt>
<trkpt lat="47.422174" lon="-121.315226"><ele>1040.1</ele></trkpt>
<trkpt lat="47.422313" lon="-121.315565"><ele>1042.2</ele></trkpt>
<trkpt lat="47.422543" lon="-121.315666"><ele>1044.3</ele></trkpt>
<trkpt lat="47.422639" lon="-121.315583"><ele>1044.7</ele></trkpt>
<trkpt lat="47.422606" lon="-121.315518"><ele>1045.2</ele></trkpt>
<trkpt lat="47.422729" lon="-121.315708"><ele>1048.1</ele></trkpt>
<trkpt lat="47.422882" lon="-121.315675"><ele>1050.4</ele></trkpt>
<trkpt lat="47.422620" lon="-121.315561"><ele>1045.4</ele></trkpt>
<trkpt lat="47.422435" lon="-121.315604"><ele>1039.2</ele></trkpt>
<trkpt lat="47.422390" lon="-121.315771"><ele>1045.4</ele></trkpt>
<trkpt lat="47.422472" lon="-121.316199"><ele>1046.8</ele></trkpt>
<trkpt lat="47.422447" lon="-121.316420"><ele>1048.8</ele></trkpt>
<trkpt lat="47.422492" lon="-121.316814"><ele>1056.0</ele></trkpt>
<trkpt lat="47.422557" lon="-121.316912"><ele>1056.8</ele></trkpt>
<trkpt lat="47.422566" lon="-121.317044"><ele>1058.7</ele></trkpt>
<trkpt lat="47.422530" lon="-121.317066"><ele>1059.1</ele></trkpt>
<trkpt lat="47.422571" lon="-121.317032"><ele>1054.9</ele></trkpt>
<trkpt lat="47.422519" lon="-121.317057"><ele>1054.1</ele></trkpt>
<trkpt lat="47.422572" lon="-121.317347"><ele>1065.7</ele></trkpt>
<trkpt lat="47.422498" lon="-121.317586"><ele>1070.7</ele></trkpt>
<trkpt lat="47.422543" lon="-121.317629"><ele>1072.0</ele></trkpt>
<trkpt lat="47.422625" lon="-121.317588"><ele>1073.6</ele></trkpt>
<trkpt lat="47.422719" lon="-121.317716"><ele>1077.3</ele></trkpt>
<trkpt lat="47.422723" lon="-121.317813"><ele>1079.0</ele></trkpt>
<trkpt lat="47.422662" lon="-121.317919"><ele>1081.9</ele></trkpt>
<trkpt lat="47.422718" lon="-121.318153"><ele>1092.4</ele></trkpt>
<trkpt lat="47.422795" lon="-121.318246"><ele>1093.3</ele></trkpt>
<trkpt lat="47.422618" lon="-121.318496"><ele>1099.1</ele></trkpt>
<trkpt lat="47.422820" lon="-121.318580"><ele>1107.2</ele></trkpt>
<trkpt lat="47.422729" lon="-121.318635"><ele>1108.4</ele></trkpt>
<trkpt lat="47.422668" lon="-121.318961"><ele>1114.2</ele></trkpt>
<trkpt lat="47.422869" lon="-121.318906"><ele>1118.5</ele></trkpt>
<trkpt lat="47.422636" lon="-121.319266"><ele>1129.3</ele></trkpt>
<trkpt lat="47.422764" lon="-121.319482"><ele>1138.0</ele></trkpt>
<trkpt lat="47.423031" lon="-121.319524"><ele>1144.9</ele></trkpt>
<trkpt lat="47.422988" lon="-121.319573"><ele>1144.3</ele></trkpt>
<trkpt lat="47.423005" lon="-121.319740"><ele>1144.5</ele></trkpt>
<trkpt lat="47.422916" lon="-121.319748"><ele>1149.2</ele></trkpt>
<trkpt lat="47.422902" lon="-121.319850"><ele>1156.5</ele></trkpt>
<trkpt lat="47.422838" lon="-121.319873"><ele>1157.4</ele></trkpt>
<trkpt lat="47.422818" lon="-121.319951"><ele>1158.6</ele></trkpt>
<trkpt lat="47.422972" lon="-121.320085"><ele>1163.6</ele></trkpt>
<trkpt lat="47.423093" lon="-121.320098"><ele>1163.2</ele></trkpt>
<trkpt lat="47.422903" lon="-121.320336"><ele>1168.9</ele></trkpt>
<trkpt lat="47.422936" lon="-121.320482"><ele>1175.7</ele></trkpt>
<trkpt lat="47.422662" lon="-121.320666"><ele>1182.5</ele></trkpt>
<trkpt lat="47.422641" lon="-121.320901"><ele>1187.3</ele></trkpt>
<trkpt lat="47.422496" lon="-121.321065"><ele>1189.9</ele></trkpt>
<trkpt lat="47.422488" lon="-121.321210"><ele>1191.8</ele></trkpt>
<trkpt lat="47.422410" lon="-121.321273"><ele>1193.8</ele></trkpt>
<trkpt lat="47.422484" lon="-121.321534"><ele>1199.8</ele></trkpt>
<trkpt lat="47.422620" lon="-121.321580"><ele>1203.2</ele></trkpt>
<trkpt lat="47.422630" lon="-121.321654"><ele>1203.1</ele></trkpt>
<trkpt lat="47.422526" lon="-121.321717"><ele>1209.3</ele></trkpt>
<trkpt lat="47.422436" lon="-121.321892"><ele>1210.9</ele></trkpt>
<trkpt lat="47.422445" lon="-121.321984"><ele>1207.6</ele></trkpt>
<trkpt lat="47.422395" lon="-121.321951"><ele>1209.7</ele></trkpt>
<trkpt lat="47.422359" lon="-121.322069"><ele>1215.4</ele></trkpt>
<trkpt lat="47.422267" lon="-121.322102"><ele>1218.6</ele></trkpt>
<trkpt lat="47.422138" lon="-121.322266"><ele>1221.4</ele></trkpt>
<trkpt lat="47.421966" lon="-121.322251"><ele>1225.9</ele></trkpt>
<trkpt lat="47.421837" lon="-121.322456"><ele>1226.3</ele></trkpt>
<trkpt lat="47.421445" lon="-121.322544"><ele>1233.7</ele></trkpt>
<trkpt lat="47.421270" lon="-121.322798"><ele>1234.8</ele></trkpt>
<trkpt lat="47.420954" lon="-121.323040"><ele>1245.0</ele></trkpt>
<trkpt lat="47.420722" lon="-121.323096"><ele>1248.6</ele></trkpt>
<trkpt lat="47.420635" lon="-121.323209"><ele>1250.8</ele></trkpt>
<trkpt lat="47.420591" lon="-121.323426"><ele>1250.9</ele></trkpt>
<trkpt lat="47.420650" lon="-121.323522"><ele>1255.1</ele></trkpt>
<trkpt lat="47.420805" lon="-121.323531"><ele>1259.1</ele></trkpt>
<trkpt lat="47.421067" lon="-121.323399"><ele>1263.6</ele></trkpt>
<trkpt lat="47.421311" lon="-121.323439"><ele>1273.1</ele></trkpt>
<trkpt lat="47.421253" lon="-121.323653"><ele>1278.4</ele></trkpt>
<trkpt lat="47.421281" lon="-121.323854"><ele>1283.2</ele></trkpt>
<trkpt lat="47.421226" lon="-121.323988"><ele>1284.6</ele></trkpt>
<trkpt lat="47.421255" lon="-121.324432"><ele>1291.0</ele></trkpt>
<trkpt lat="47.421346" lon="-121.324434"><ele>1295.1</ele></trkpt>
<trkpt lat="47.421426" lon="-121.324317"><ele>1295.0</ele></trkpt>
<trkpt lat="47.421496" lon="-121.324483"><ele>1300.6</ele></trkpt>
<trkpt lat="47.421474" lon="-121.324582"><ele>1302.3</ele></trkpt>
<trkpt lat="47.421520" lon="-121.324723"><ele>1304.9</ele></trkpt>
<trkpt lat="47.421650" lon="-121.324882"><ele>1307.0</ele></trkpt>
<trkpt lat="47.421935" lon="-121.324746"><ele>1313.7</ele></trkpt>
<trkpt lat="47.421986" lon="-121.324653"><ele>1314.3</ele></trkpt>
<trkpt lat="47.422213" lon="-121.324502"><ele>1320.3</ele></trkpt>
<trkpt lat="47.422260" lon="-121.324912"><ele>1323.9</ele></trkpt>
<trkpt lat="47.422359" lon="-121.325194"><ele>1328.0</ele></trkpt>
<trkpt lat="47.422420" lon="-121.325246"><ele>1330.3</ele></trkpt>
<trkpt lat="47.422391" lon="-121.325345"><ele>1332.6</ele></trkpt>
<trkpt lat="47.422609" lon="-121.325831"><ele>1344.9</ele></trkpt>
<trkpt lat="47.422706" lon="-121.325846"><ele>1347.4</ele></trkpt>
<trkpt lat="47.422901" lon="-121.325663"><ele>1349.5</ele></trkpt>
<trkpt lat="47.423039" lon="-121.325627"><ele>1350.6</ele></trkpt>
<trkpt lat="47.423024" lon="-121.325584"><ele>1352.9</ele></trkpt>
<trkpt lat="47.423205" lon="-121.325759"><ele>1358.1</ele></trkpt>
<trkpt lat="47.423095" lon="-121.326160"><ele>1363.9</ele></trkpt>
<trkpt lat="47.423137" lon="-121.326231"><ele>1365.8</ele></trkpt>
<trkpt lat="47.423259" lon="-121.326262"><ele>1369.1</ele></trkpt>
<trkpt lat="47.423206" lon="-121.326324"><ele>1370.9</ele></trkpt>
<trkpt lat="47.423149" lon="-121.326776"><ele>1378.8</ele></trkpt>
<trkpt lat="47.422977" lon="-121.327075"><ele>1385.5</ele></trkpt>
<trkpt lat="47.423102" lon="-121.327152"><ele>1388.5</ele></trkpt>
<trkpt lat="47.423038" lon="-121.327208"><ele>1392.2</ele></trkpt>
<trkpt lat="47.423030" lon="-121.327325"><ele>1393.4</ele></trkpt>
<trkpt lat="47.422947" lon="-121.327482"><ele>1395.0</ele></trkpt>
<trkpt lat="47.422958" lon="-121.327727"><ele>1396.5</ele></trkpt>
<trkpt lat="47.423084" lon="-121.328009"><ele>1407.1</ele></trkpt>
<trkpt lat="47.422997" lon="-121.328161"><ele>1409.6</ele></trkpt>
<trkpt lat="47.422955" lon="-121.328418"><ele>1415.8</ele></trkpt>
<trkpt lat="47.422999" lon="-121.328496"><ele>1416.1</ele></trkpt>
<trkpt lat="47.422872" lon="-121.328537"><ele>1421.0</ele></trkpt>
<trkpt lat="47.422817" lon="-121.328630"><ele>1422.3</ele></trkpt>
<trkpt lat="47.422766" lon="-121.328834"><ele>1422.2</ele></trkpt>
<trkpt lat="47.422760" lon="-121.329145"><ele>1421.1</ele></trkpt>
<trkpt lat="47.422805" lon="-121.329379"><ele>1420.5</ele></trkpt>
<trkpt lat="47.422888" lon="-121.329446"><ele>1419.4</ele></trkpt>
<trkpt lat="47.422965" lon="-121.329231"><ele>1423.0</ele></trkpt>
<trkpt lat="47.423122" lon="-121.329176"><ele>1428.2</ele></trkpt>
<trkpt lat="47.423382" lon="-121.329420"><ele>1431.8</ele></trkpt>
<trkpt lat="47.423623" lon="-121.329402"><ele>1435.8</ele></trkpt>
<trkpt lat="47.423672" lon="-121.329532"><ele>1436.9</ele></trkpt>
<trkpt lat="47.423869" lon="-121.330605"><ele>1453.4</ele></trkpt>
<trkpt lat="47.423814" lon="-121.331086"><ele>1458.5</ele></trkpt>
<trkpt lat="47.423885" lon="-121.331449"><ele>1465.7</ele></trkpt>
<trkpt lat="47.423828" lon="-121.331598"><ele>1469.9</ele></trkpt>
<trkpt lat="47.423960" lon="-121.331728"><ele>1475.9</ele></trkpt>
<trkpt lat="47.424026" lon="-121.331673"><ele>1478.0</ele></trkpt>
<trkpt lat="47.423954" lon="-121.331681"><ele>1478.8</ele></trkpt>
<trkpt lat="47.423849" lon="-121.331802"><ele>1481.7</ele></trkpt>
<trkpt lat="47.423957" lon="-121.331906"><ele>1486.6</ele></trkpt>
<trkpt lat="47.423705" lon="-121.332065"><ele>1493.3</ele></trkpt>
<trkpt lat="47.423847" lon="-121.332188"><ele>1496.4</ele></trkpt>
<trkpt lat="47.423860" lon="-121.332285"><ele>1499.8</ele></trkpt>
<trkpt lat="47.423660" lon="-121.332460"><ele>1506.2</ele></trkpt>
<trkpt lat="47.423646" lon="-121.332590"><ele>1506.5</ele></trkpt>
<trkpt lat="47.423812" lon="-121.332603"><ele>1511.4</ele></trkpt>
<trkpt lat="47.423690" lon="-121.332708"><ele>1514.6</ele></trkpt>
<trkpt lat="47.423766" lon="-121.332765"><ele>1519.4</ele></trkpt>
<trkpt lat="47.423587" lon="-121.332938"><ele>1527.0</ele></trkpt>
<trkpt lat="47.423704" lon="-121.333096"><ele>1532.6</ele></trkpt>
<trkpt lat="47.423883" lon="-121.333067"><ele>1537.5</ele></trkpt>
<trkpt lat="47.423841" lon="-121.333129"><ele>1539.2</ele></trkpt>
<trkpt lat="47.423903" lon="-121.333180"><ele>1541.7</ele></trkpt>
<trkpt lat="47.423875" lon="-121.333262"><ele>1544.9</ele></trkpt>
<trkpt lat="47.423943" lon="-121.333333"><ele>1548.0</ele></trkpt>
<trkpt lat="47.423964" lon="-121.333702"><ele>1557.0</ele></trkpt>
<trkpt lat="47.424151" lon="-121.333975"><ele>1561.1</ele></trkpt>
<trkpt lat="47.424048" lon="-121.333963"><ele>1560.9</ele></trkpt>
<trkpt lat="47.423942" lon="-121.334146"><ele>1560.9</ele></trkpt>
<trkpt lat="47.423811" lon="-121.334225"><ele>1559.6</ele></trkpt>
<trkpt lat="47.423434" lon="-121.334299"><ele>1557.1</ele></trkpt>
<trkpt lat="47.423434" lon="-121.334549"><ele>1557.7</ele></trkpt>
<trkpt lat="47.423543" lon="-121.334683"><ele>1557.8</ele></trkpt>
<trkpt lat="47.423398" lon="-121.334456"><ele>1557.4</ele></trkpt>
<trkpt lat="47.423393" lon="-121.334289"><ele>1556.6</ele></trkpt>
<trkpt lat="47.423211" lon="-121.334225"><ele>1557.8</ele></trkpt>
<trkpt lat="47.423087" lon="-121.334341"><ele>1554.9</ele></trkpt>
<trkpt lat="47.423140" lon="-121.334272"><ele>1553.6</ele></trkpt>
<trkpt lat="47.423104" lon="-121.334270"><ele>1552.7</ele></trkpt>
<trkpt lat="47.423011" lon="-121.334457"><ele>1551.1</ele></trkpt>
<trkpt lat="47.422703" lon="-121.334579"><ele>1550.6</ele></trkpt>
<trkpt lat="47.422503" lon="-121.334752"><ele>1548.7</ele></trkpt>
<trkpt lat="47.422095" lon="-121.334864"><ele>1544.9</ele></trkpt>
<trkpt lat="47.421805" lon="-121.334817"><ele>1544.1</ele></trkpt>
<trkpt lat="47.421597" lon="-121.334880"><ele>1545.3</ele></trkpt>
<trkpt lat="47.421513" lon="-121.334987"><ele>1547.3</ele></trkpt>
<trkpt lat="47.421341" lon="-121.334997"><ele>1547.9</ele></trkpt>
<trkpt lat="47.420927" lon="-121.335557"><ele>1542.0</ele></trkpt>
<trkpt lat="47.420657" lon="-121.335668"><ele>1544.1</ele></trkpt>
<trkpt lat="47.420630" lon="-121.336009"><ele>1534.9</ele></trkpt>
<trkpt lat="47.420446" lon="-121.336182"><ele>1534.2</ele></trkpt>
<trkpt lat="47.420021" lon="-121.336229"><ele>1536.0</ele></trkpt>
<trkpt lat="47.419863" lon="-121.335980"><ele>1535.5</ele></trkpt>
<trkpt lat="47.419534" lon="-121.336190"><ele>1535.2</ele></trkpt>
<trkpt lat="47.419426" lon="-121.336119"><ele>1533.7</ele></trkpt>
<trkpt lat="47.419528" lon="-121.336182"><ele>1535.0</ele></trkpt>
<trkpt lat="47.419578" lon="-121.336367"><ele>1536.6</ele></trkpt>
<trkpt lat="47.419559" lon="-121.336472"><ele>1537.9</ele></trkpt>
<trkpt lat="47.419321" lon="-121.336825"><ele>1539.3</ele></trkpt>
<trkpt lat="47.419028" lon="-121.337476"><ele>1537.4</ele></trkpt>
<trkpt lat="47.418781" lon="-121.337646"><ele>1538.1</ele></trkpt>
<trkpt lat="47.418841" lon="-121.337767"><ele>1539.0</ele></trkpt>
<trkpt lat="47.418840" lon="-121.337951"><ele>1545.8</ele></trkpt>
<trkpt lat="47.418515" lon="-121.338333"><ele>1550.1</ele></trkpt>
<trkpt lat="47.418565" lon="-121.338405"><ele>1548.0</ele></trkpt>
<trkpt lat="47.418481" lon="-121.338483"><ele>1546.6</ele></trkpt>
<trkpt lat="47.418524" lon="-121.338559"><ele>1544.0</ele></trkpt>
<trkpt lat="47.418581" lon="-121.338541"><ele>1543.0</ele></trkpt>
<trkpt lat="47.418742" lon="-121.338888"><ele>1546.9</ele></trkpt>
<trkpt lat="47.418695" lon="-121.338894"><ele>1547.6</ele></trkpt>
<trkpt lat="47.418742" lon="-121.338888"><ele>1546.9</ele></trkpt>
<trkpt lat="47.418581" lon="-121.338541"><ele>1543.0</ele></trkpt>
<trkpt lat="47.418524" lon="-121.338559"><ele>1544.0</ele></trkpt>
<trkpt lat="47.418481" lon="-121.338483"><ele>1546.6</ele></trkpt>
<trkpt lat="47.418565" lon="-121.338405"><ele>1548.0</ele></trkpt>
<trkpt lat="47.418515" lon="-121.338333"><ele>1550.1</ele></trkpt>
<trkpt lat="47.418840" lon="-121.337951"><ele>1545.8</ele></trkpt>
<trkpt lat="47.418841" lon="-121.337767"><ele>1539.0</ele></trkpt>
<trkpt lat="47.418781" lon="-121.337646"><ele>1538.1</ele></trkpt>
<trkpt lat="47.419028" lon="-121.337476"><ele>1537.4</ele></trkpt>
<trkpt lat="47.419321" lon="-121.336825"><ele>1539.3</ele></trkpt>
<trkpt lat="47.419559" lon="-121.336472"><ele>1537.9</ele></trkpt>
<trkpt lat="47.419578" lon="-121.336367"><ele>1536.6</ele></trkpt>
<trkpt lat="47.419528" lon="-121.336182"><ele>1535.0</ele></trkpt>
<trkpt lat="47.419426" lon="-121.336119"><ele>1533.7</ele></trkpt>
<trkpt lat="47.419534" lon="-121.336190"><ele>1535.2</ele></trkpt>
<trkpt lat="47.419863" lon="-121.335980"><ele>1535.5</ele></trkpt>
<trkpt lat="47.420021" lon="-121.336229"><ele>1536.0</ele></trkpt>
<trkpt lat="47.420446" lon="-121.336182"><ele>1534.2</ele></trkpt>
<trkpt lat="47.420630" lon="-121.336009"><ele>1534.9</ele></trkpt>
<trkpt lat="47.420657" lon="-121.335668"><ele>1544.1</ele></trkpt>
<trkpt lat="47.420927" lon="-121.335557"><ele>1542.0</ele></trkpt>
<trkpt lat="47.421341" lon="-121.334997"><ele>1547.9</ele></trkpt>
<trkpt lat="47.421513" lon="-121.334987"><ele>1547.3</ele></trkpt>
<trkpt lat="47.421597" lon="-121.334880"><ele>1545.3</ele></trkpt>
<trkpt lat="47.421805" lon="-121.334817"><ele>1544.1</ele></trkpt>
<trkpt lat="47.422095" lon="-121.334864"><ele>1544.9</ele></trkpt>
<trkpt lat="47.422503" lon="-121.334752"><ele>1548.7</ele></trkpt>
<trkpt lat="47.422703" lon="-121.334579"><ele>1550.6</ele></trkpt>
<trkpt lat="47.423011" lon="-121.334457"><ele>1551.1</ele></trkpt>
<trkpt lat="47.423104" lon="-121.334270"><ele>1552.7</ele></trkpt>
<trkpt lat="47.423140" lon="-121.334272"><ele>1553.6</ele></trkpt>
<trkpt lat="47.423087" lon="-121.334341"><ele>1554.9</ele></trkpt>
<trkpt lat="47.423211" lon="-121.334225"><ele>1557.8</ele></trkpt>
<trkpt lat="47.423393" lon="-121.334289"><ele>1556.6</ele></trkpt>
<trkpt lat="47.423398" lon="-121.334456"><ele>1557.4</ele></trkpt>
<trkpt lat="47.423543" lon="-121.334683"><ele>1557.8</ele></trkpt>
<trkpt lat="47.423434" lon="-121.334549"><ele>1557.7</ele></trkpt>
<trkpt lat="47.423434" lon="-121.334299"><ele>1557.1</ele></trkpt>
<trkpt lat="47.423811" lon="-121.334225"><ele>1559.6</ele></trkpt>
<trkpt lat="47.423942" lon="-121.334146"><ele>1560.9</ele></trkpt>
<trkpt lat="47.424048" lon="-121.333963"><ele>1560.9</ele></trkpt>
<trkpt lat="47.424151" lon="-121.333975"><ele>1561.1</ele></trkpt>
<trkpt lat="47.423964" lon="-121.333702"><ele>1557.0</ele></trkpt>
<trkpt lat="47.423943" lon="-121.333333"><ele>1548.0</ele></trkpt>
<trkpt lat="47.423875" lon="-121.333262"><ele>1544.9</ele></trkpt>
<trkpt lat="47.423903" lon="-121.333180"><ele>1541.7</ele></trkpt>
<trkpt lat="47.423841" lon="-121.333129"><ele>1539.2</ele></trkpt>
<trkpt lat="47.423883" lon="-121.333067"><ele>1537.5</ele></trkpt>
<trkpt lat="47.423704" lon="-121.333096"><ele>1532.6</ele></trkpt>
<trkpt lat="47.423587" lon="-121.332938"><ele>1527.0</ele></trkpt>
<trkpt lat="47.423766" lon="-121.332765"><ele>1519.4</ele></trkpt>
<trkpt lat="47.423690" lon="-121.332708"><ele>1514.6</ele></trkpt>
<trkpt lat="47.423812" lon="-121.332603"><ele>1511.4</ele></trkpt>
<trkpt lat="47.423646" lon="-121.332590"><ele>1506.5</ele></trkpt>
<trkpt lat="47.423660" lon="-121.332460"><ele>1506.2</ele></trkpt>
<trkpt lat="47.423860" lon="-121.332285"><ele>1499.8</ele></trkpt>
<trkpt lat="47.423847" lon="-121.332188"><ele>1496.4</ele></trkpt>
<trkpt lat="47.423705" lon="-121.332065"><ele>1493.3</ele></trkpt>
<trkpt lat="47.423957" lon="-121.331906"><ele>1486.6</ele></trkpt>
<trkpt lat="47.423849" lon="-121.331802"><ele>1481.7</ele></trkpt>
<trkpt lat="47.423954" lon="-121.331681"><ele>1478.8</ele></trkpt>
<trkpt lat="47.424026" lon="-121.331673"><ele>1478.0</ele></trkpt>
<trkpt lat="47.423960" lon="-121.331728"><ele>1475.9</ele></trkpt>
<trkpt lat="47.423828" lon="-121.331598"><ele>1469.9</ele></trkpt>
<trkpt lat="47.423885" lon="-121.331449"><ele>1465.7</ele></trkpt>
<trkpt lat="47.423814" lon="-121.331086"><ele>1458.5</ele></trkpt>
<trkpt lat="47.423869" lon="-121.330605"><ele>1453.4</ele></trkpt>
<trkpt lat="47.423672" lon="-121.329532"><ele>1436.9</ele></trkpt>
<trkpt lat="47.423623" lon="-121.329402"><ele>1435.8</ele></trkpt>
<trkpt lat="47.423382" lon="-121.329420"><ele>1431.8</ele></trkpt>
<trkpt lat="47.423122" lon="-121.329176"><ele>1428.2</ele></trkpt>
<trkpt lat="47.422965" lon="-121.329231"><ele>1423.0</ele></trkpt>
<trkpt lat="47.422888" lon="-121.329446"><ele>1419.4</ele></trkpt>
<trkpt lat="47.422805" lon="-121.329379"><ele>1420.5</ele></trkpt>
<trkpt lat="47.422760" lon="-121.329145"><ele>1421.1</ele></trkpt>
<trkpt lat="47.422766" lon="-121.328834"><ele>1422.2</ele></trkpt>
<trkpt lat="47.422817" lon="-121.328630"><ele>1422.3</ele></trkpt>
<trkpt lat="47.422872" lon="-121.328537"><ele>1421.0</ele></trkpt>
<trkpt lat="47.422999" lon="-121.328496"><ele>1416.1</ele></trkpt>
<trkpt lat="47.422955" lon="-121.328418"><ele>1415.8</ele></trkpt>
<trkpt lat="47.422997" lon="-121.328161"><ele>1409.6</ele></trkpt>
<trkpt lat="47.423084" lon="-121.328009"><ele>1407.1</ele></trkpt>
<trkpt lat="47.422958" lon="-121.327727"><ele>1396.5</ele></trkpt>
<trkpt lat="47.422947" lon="-121.327482"><ele>1395.0</ele></trkpt>
<trkpt lat="47.423030" lon="-121.327325"><ele>1393.4</ele></trkpt>
<trkpt lat="47.423038" lon="-121.327208"><ele>1392.2</ele></trkpt>
<trkpt lat="47.423102" lon="-121.327152"><ele>1388.5</ele></trkpt>
<trkpt lat="47.422977" lon="-121.327075"><ele>1385.5</ele></trkpt>
<trkpt lat="47.423149" lon="-121.326776"><ele>1378.8</ele></trkpt>
<trkpt lat="47.423206" lon="-121.326324"><ele>1370.9</ele></trkpt>
<trkpt lat="47.423259" lon="-121.326262"><ele>1369.1</ele></trkpt>
<trkpt lat="47.423137" lon="-121.326231"><ele>1365.8</ele></trkpt>
<trkpt lat="47.423095" lon="-121.326160"><ele>1363.9</ele></trkpt>
<trkpt lat="47.423205" lon="-121.325759"><ele>1358.1</ele></trkpt>
<trkpt lat="47.423024" lon="-121.325584"><ele>1352.9</ele></trkpt>
<trkpt lat="47.423039" lon="-121.325627"><ele>1350.6</ele></trkpt>
<trkpt lat="47.422901" lon="-121.325663"><ele>1349.5</ele></trkpt>
<trkpt lat="47.422706" lon="-121.325846"><ele>1347.4</ele></trkpt>
<trkpt lat="47.422609" lon="-121.325831"><ele>1344.9</ele></trkpt>
<trkpt lat="47.422391" lon="-121.325345"><ele>1332.6</ele></trkpt>
<trkpt lat="47.422420" lon="-121.325246"><ele>1330.3</ele></trkpt>
<trkpt lat="47.422359" lon="-121.325194"><ele>1328.0</ele></trkpt>
<trkpt lat="47.422260" lon="-121.324912"><ele>1323.9</ele></trkpt>
<trkpt lat="47.422213" lon="-121.324502"><ele>1320.3</ele></trkpt>
<trkpt lat="47.421986" lon="-121.324653"><ele>1314.3</ele></trkpt>
<trkpt lat="47.421935" lon="-121.324746"><ele>1313.7</ele></trkpt>
<trkpt lat="47.421650" lon="-121.324882"><ele>1307.0</ele></trkpt>
<trkpt lat="47.421520" lon="-121.324723"><ele>1304.9</ele></trkpt>
<trkpt lat="47.421474" lon="-121.324582"><ele>1302.3</ele></trkpt>
<trkpt lat="47.421496" lon="-121.324483"><ele>1300.6</ele></trkpt>
<trkpt lat="47.421426" lon="-121.324317"><ele>1295.0</ele></trkpt>
<trkpt lat="47.421346" lon="-121.324434"><ele>1295.1</ele></trkpt>
<trkpt lat="47.421255" lon="-121.324432"><ele>1291.0</ele></trkpt>
<trkpt lat="47.421226" lon="-121.323988"><ele>1284.6</ele></trkpt>
<trkpt lat="47.421281" lon="-121.323854"><ele>1283.2</ele></trkpt>
<trkpt lat="47.421253" lon="-121.323653"><ele>1278.4</ele></trkpt>
<trkpt lat="47.421311" lon="-121.323439"><ele>1273.1</ele></trkpt>
<trkpt lat="47.421067" lon="-121.323399"><ele>1263.6</ele></trkpt>
<trkpt lat="47.420805" lon="-121.323531"><ele>1259.1</ele></trkpt>
<trkpt lat="47.420650" lon="-121.323522"><ele>1255.1</ele></trkpt>
<trkpt lat="47.420591" lon="-121.323426"><ele>1250.9</ele></trkpt>
<trkpt lat="47.420635" lon="-121.323209"><ele>1250.8</ele></trkpt>
<trkpt lat="47.420722" lon="-121.323096"><ele>1248.6</ele></trkpt>
<trkpt lat="47.420954" lon="-121.323040"><ele>1245.0</ele></trkpt>
<trkpt lat="47.421270" lon="-121.322798"><ele>1234.8</ele></trkpt>
<trkpt lat="47.421445" lon="-121.322544"><ele>1233.7</ele></trkpt>
<trkpt lat="47.421837" lon="-121.322456"><ele>1226.3</ele></trkpt>
<trkpt lat="47.421966" lon="-121.322251"><ele>1225.9</ele></trkpt>
<trkpt lat="47.422138" lon="-121.322266"><ele>1221.4</ele></trkpt>
<trkpt lat="47.422267" lon="-121.322102"><ele>1218.6</ele></trkpt>
<trkpt lat="47.422359" lon="-121.322069"><ele>1215.4</ele></trkpt>
<trkpt lat="47.422395" lon="-121.321951"><ele>1209.7</ele></trkpt>
<trkpt lat="47.422445" lon="-121.321984"><ele>1207.6</ele></trkpt>
<trkpt lat="47.422436" lon="-121.321892"><ele>1210.9</ele></trkpt>
<trkpt lat="47.422526" lon="-121.321717"><ele>1209.3</ele></trkpt>
<trkpt lat="47.422630" lon="-121.321654"><ele>1203.1</ele></trkpt>
<trkpt lat="47.422620" lon="-121.321580"><ele>1203.2</ele></trkpt>
<trkpt lat="47.422484" lon="-121.321534"><ele>1199.8</ele></trkpt>
<trkpt lat="47.422410" lon="-121.321273"><ele>1193.8</ele></trkpt>
<trkpt lat="47.422488" lon="-121.321210"><ele>1191.8</ele></trkpt>
<trkpt lat="47.422496" lon="-121.321065"><ele>1189.9</ele></trkpt>
<trkpt lat="47.422641" lon="-121.320901"><ele>1187.3</ele></trkpt>
<trkpt lat="47.422662" lon="-121.320666"><ele>1182.5</ele></trkpt>
<trkpt lat="47.422936" lon="-121.320482"><ele>1175.7</ele></trkpt>
<trkpt lat="47.422903" lon="-121.320336"><ele>1168.9</ele></trkpt>
<trkpt lat="47.423093" lon="-121.320098"><ele>1163.2</ele></trkpt>
<trkpt lat="47.422972" lon="-121.320085"><ele>1163.6</ele></trkpt>
<trkpt lat="47.422818" lon="-121.319951"><ele>1158.6</ele></trkpt>
<trkpt lat="47.422838" lon="-121.319873"><ele>1157.4</ele></trkpt>
<trkpt lat="47.422902" lon="-121.319850"><ele>1156.5</ele></trkpt>
<trkpt lat="47.422916" lon="-121.319748"><ele>1149.2</ele></trkpt>
<trkpt lat="47.423005" lon="-121.319740"><ele>1144.5</ele></trkpt>
<trkpt lat="47.422988" lon="-121.319573"><ele>1144.3</ele></trkpt>
<trkpt lat="47.423031" lon="-121.319524"><ele>1144.9</ele></trkpt>
<trkpt lat="47.422764" lon="-121.319482"><ele>1138.0</ele></trkpt>
<trkpt lat="47.422636" lon="-121.319266"><ele>1129.3</ele></trkpt>
<trkpt lat="47.422869" lon="-121.318906"><ele>1118.5</ele></trkpt>
<trkpt lat="47.422668" lon="-121.318961"><ele>1114.2</ele></trkpt>
<trkpt lat="47.422729" lon="-121.318635"><ele>1108.4</ele></trkpt>
<trkpt lat="47.422820" lon="-121.318580"><ele>1107.2</ele></trkpt>
<trkpt lat="47.422618" lon="-121.318496"><ele>1099.1</ele></trkpt>
<trkpt lat="47.422795" lon="-121.318246"><ele>1093.3</ele></trkpt>
<trkpt lat="47.422718" lon="-121.318153"><ele>1092.4</ele></trkpt>
<trkpt lat="47.422662" lon="-121.317919"><ele>1081.9</ele></trkpt>
<trkpt lat="47.422723" lon="-121.317813"><ele>1079.0</ele></trkpt>
<trkpt lat="47.422719" lon="-121.317716"><ele>1077.3</ele></trkpt>
<trkpt lat="47.422625" lon="-121.317588"><ele>1073.6</ele></trkpt>
<trkpt lat="47.422543" lon="-121.317629"><ele>1072.0</ele></trkpt>
<trkpt lat="47.422498" lon="-121.317586"><ele>1070.7</ele></trkpt>
<trkpt lat="47.422572" lon="-121.317347"><ele>1065.7</ele></trkpt>
<trkpt lat="47.422519" lon="-121.317057"><ele>1054.1</ele></trkpt>
<trkpt lat="47.422571" lon="-121.317032"><ele>1054.9</ele></trkpt>
<trkpt lat="47.422530" lon="-121.317066"><ele>1059.1</ele></trkpt>
<trkpt lat="47.422566" lon="-121.317044"><ele>1058.7</ele></trkpt>
<trkpt lat="47.422557" lon="-121.316912"><ele>1056.8</ele></trkpt>
<trkpt lat="47.422492" lon="-121.316814"><ele>1056.0</ele></trkpt>
<trkpt lat="47.422447" lon="-121.316420"><ele>1048.8</ele></trkpt>
<trkpt lat="47.422472" lon="-121.316199"><ele>1046.8</ele></trkpt>
<trkpt lat="47.422390" lon="-121.315771"><ele>1045.4</ele></trkpt>
<trkpt lat="47.422435" lon="-121.315604"><ele>1039.2</ele></trkpt>
<trkpt lat="47.422620" lon="-121.315561"><ele>1045.4</ele></trkpt>
<trkpt lat="47.422882" lon="-121.315675"><ele>1050.4</ele></trkpt>
<trkpt lat="47.422729" lon="-121.315708"><ele>1048.1</ele></trkpt>
<trkpt lat="47.422606" lon="-121.315518"><ele>1045.2</ele></trkpt>
<trkpt lat="47.422639" lon="-121.315583"><ele>1044.7</ele></trkpt>
<trkpt lat="47.422543" lon="-121.315666"><ele>1044.3</ele></trkpt>
<trkpt lat="47.422313" lon="-121.315565"><ele>1042.2</ele></trkpt>
<trkpt lat="47.422174" lon="-121.315226"><ele>1040.1</ele></trkpt>
<trkpt lat="47.422231" lon="-121.314882"><ele>1037.9</ele></trkpt>
<trkpt lat="47.422164" lon="-121.314558"><ele>1038.6</ele></trkpt>
<trkpt lat="47.421974" lon="-121.314206"><ele>1034.0</ele></trkpt>
<trkpt lat="47.421761" lon="-121.314102"><ele>1030.7</ele></trkpt>
<trkpt lat="47.421688" lon="-121.313727"><ele>1027.9</ele></trkpt>
<trkpt lat="47.421492" lon="-121.313619"><ele>1023.5</ele></trkpt>
<trkpt lat="47.421267" lon="-121.313347"><ele>1020.8</ele></trkpt>
<trkpt lat="47.421207" lon="-121.313160"><ele>1020.5</ele></trkpt>
<trkpt lat="47.420776" lon="-121.313018"><ele>1013.6</ele></trkpt>
<trkpt lat="47.420740" lon="-121.312885"><ele>1013.0</ele></trkpt>
<trkpt lat="47.420610" lon="-121.312708"><ele>1015.8</ele></trkpt>
<trkpt lat="47.420627" lon="-121.312520"><ele>1014.9</ele></trkpt>
<trkpt lat="47.420467" lon="-121.312131"><ele>1011.5</ele></trkpt>
<trkpt lat="47.420412" lon="-121.311837"><ele>1012.6</ele></trkpt>
<trkpt lat="47.420308" lon="-121.311664"><ele>1012.4</ele></trkpt>
<trkpt lat="47.420070" lon="-121.311466"><ele>1010.3</ele></trkpt>
<trkpt lat="47.419748" lon="-121.311011"><ele>1006.6</ele></trkpt>
<trkpt lat="47.419483" lon="-121.310471"><ele>1002.9</ele></trkpt>
<trkpt lat="47.419520" lon="-121.310202"><ele>1001.4</ele></trkpt>
<trkpt lat="47.419315" lon="-121.309650"><ele>996.6</ele></trkpt>
<trkpt lat="47.419348" lon="-121.309481"><ele>997.4</ele></trkpt>
<trkpt lat="47.419310" lon="-121.309208"><ele>996.4</ele></trkpt>
<trkpt lat="47.419170" lon="-121.308986"><ele>996.3</ele></trkpt>
<trkpt lat="47.419134" lon="-121.308798"><ele>997.3</ele></trkpt>
<trkpt lat="47.418989" lon="-121.308629"><ele>997.8</ele></trkpt>
<trkpt lat="47.418809" lon="-121.308534"><ele>997.8</ele></trkpt>
<trkpt lat="47.418865" lon="-121.308377"><ele>999.9</ele></trkpt>
<trkpt lat="47.418811" lon="-121.308212"><ele>1001.5</ele></trkpt>
<trkpt lat="47.418579" lon="-121.308274"><ele>1000.9</ele></trkpt>
<trkpt lat="47.418386" lon="-121.308021"><ele>1000.5</ele></trkpt>
<trkpt lat="47.418082" lon="-121.307854"><ele>995.4</ele></trkpt>
<trkpt lat="47.418007" lon="-121.307639"><ele>994.3</ele></trkpt>
<trkpt lat="47.417956" lon="-121.307256"><ele>995.3</ele></trkpt>
<trkpt lat="47.417848" lon="-121.306989"><ele>992.6</ele></trkpt>
<trkpt lat="47.417679" lon="-121.306819"><ele>990.3</ele></trkpt>
<trkpt lat="47.417551" lon="-121.306374"><ele>994.6</ele></trkpt>
<trkpt lat="47.417486" lon="-121.306021"><ele>994.5</ele></trkpt>
<trkpt lat="47.417554" lon="-121.305770"><ele>996.2</ele></trkpt>
<trkpt lat="47.417564" lon="-121.305489"><ele>996.9</ele></trkpt>
<trkpt lat="47.417319" lon="-121.304967"><ele>992.0</ele></trkpt>
<trkpt lat="47.416922" lon="-121.304699"><ele>983.8</ele></trkpt>
<trkpt lat="47.416852" lon="-121.304509"><ele>980.9</ele></trkpt>
<trkpt lat="47.416856" lon="-121.304314"><ele>981.2</ele></trkpt>
<trkpt lat="47.416723" lon="-121.303904"><ele>985.2</ele></trkpt>
<trkpt lat="47.416502" lon="-121.303570"><ele>984.2</ele></trkpt>
<trkpt lat="47.416353" lon="-121.303173"><ele>984.5</ele></trkpt>
<trkpt lat="47.416041" lon="-121.302761"><ele>979.0</ele></trkpt>
<trkpt lat="47.416020" lon="-121.302058"><ele>979.9</ele></trkpt>
<trkpt lat="47.415816" lon="-121.301775"><ele>978.5</ele></trkpt>
<trkpt lat="47.415927" lon="-121.301040"><ele>975.7</ele></trkpt>
<trkpt lat="47.415790" lon="-121.300635"><ele>978.1</ele></trkpt>
<trkpt lat="47.415738" lon="-121.300068"><ele>978.2</ele></trkpt>
<trkpt lat="47.415637" lon="-121.299654"><ele>975.4</ele></trkpt>
<trkpt lat="47.415475" lon="-121.299499"><ele>975.2</ele></trkpt>
<trkpt lat="47.415347" lon="-121.299157"><ele>974.1</ele></trkpt>
<trkpt lat="47.415204" lon="-121.299103"><ele>973.9</ele></trkpt>
<trkpt lat="47.415004" lon="-121.298385"><ele>975.2</ele></trkpt>
<trkpt lat="47.414749" lon="-121.298244"><ele>974.4</ele></trkpt>
<trkpt lat="47.414694" lon="-121.297952"><ele>975.4</ele></trkpt>
<trkpt lat="47.414259" lon="-121.297389"><ele>975.4</ele></trkpt>
<trkpt lat="47.414102" lon="-121.297114"><ele>974.8</ele></trkpt>
<trkpt lat="47.413930" lon="-121.296655"><ele>973.6</ele></trkpt>
<trkpt lat="47.413788" lon="-121.296519"><ele>971.4</ele></trkpt>
<trkpt lat="47.413607" lon="-121.296177"><ele>974.4</ele></trkpt>
<trkpt lat="47.413478" lon="-121.296046"><ele>973.2</ele></trkpt>
<trkpt lat="47.413494" lon="-121.295872"><ele>973.2</ele></trkpt>
<trkpt lat="47.413338" lon="-121.295766"><ele>972.1</ele></trkpt>
<trkpt lat="47.412987" lon="-121.295167"><ele>968.4</ele></trkpt>
<trkpt lat="47.412924" lon="-121.294946"><ele>964.8</ele></trkpt>
<trkpt lat="47.412993" lon="-121.294570"><ele>963.6</ele></trkpt>
<trkpt lat="47.412778" lon="-121.293576"><ele>971.7</ele></trkpt>
<trkpt lat="47.412423" lon="-121.293489"><ele>970.2</ele></trkpt>
<trkpt lat="47.412221" lon="-121.293292"><ele>970.7</ele></trkpt>
<trkpt lat="47.411965" lon="-121.293194"><ele>967.4</ele></trkpt>
<trkpt lat="47.411764" lon="-121.292978"><ele>969.5</ele></trkpt>
<trkpt lat="47.411510" lon="-121.292852"><ele>967.0</ele></trkpt>
<trkpt lat="47.411367" lon="-121.292441"><ele>964.7</ele></trkpt>
<trkpt lat="47.411286" lon="-121.292332"><ele>963.6</ele></trkpt>
<trkpt lat="47.411230" lon="-121.292082"><ele>959.5</ele></trkpt>
<trkpt lat="47.411000" lon="-121.291830"><ele>956.8</ele></trkpt>
<trkpt lat="47.410806" lon="-121.291776"><ele>954.2</ele></trkpt>
<trkpt lat="47.410901" lon="-121.291795"><ele>955.8</ele></trkpt>
<trkpt lat="47.410945" lon="-121.291710"><ele>955.4</ele></trkpt>
<trkpt lat="47.410999" lon="-121.291534"><ele>955.9</ele></trkpt>
<trkpt lat="47.410937" lon="-121.291419"><ele>955.3</ele></trkpt>
<trkpt lat="47.410743" lon="-121.291437"><ele>952.1</ele></trkpt>
<trkpt lat="47.410515" lon="-121.291305"><ele>952.8</ele></trkpt>
<trkpt lat="47.410370" lon="-121.291137"><ele>951.7</ele></trkpt>
<trkpt lat="47.410280" lon="-121.291134"><ele>949.6</ele></trkpt>
<trkpt lat="47.410137" lon="-121.290979"><ele>949.0</ele></trkpt>
<trkpt lat="47.410059" lon="-121.290747"><ele>949.6</ele></trkpt>
<trkpt lat="47.410176" lon="-121.290672"><ele>949.3</ele></trkpt>
<trkpt lat="47.410385" lon="-121.290378"><ele>953.6</ele></trkpt>
<trkpt lat="47.410407" lon="-121.290212"><ele>953.5</ele></trkpt>
<trkpt lat="47.410361" lon="-121.290070"><ele>953.2</ele></trkpt>
<trkpt lat="47.410285" lon="-121.290035"><ele>952.3</ele></trkpt>
<trkpt lat="47.410190" lon="-121.289844"><ele>953.4</ele></trkpt>
<trkpt lat="47.409784" lon="-121.289424"><ele>949.5</ele></trkpt>
<trkpt lat="47.409666" lon="-121.289221"><ele>946.1</ele></trkpt>
<trkpt lat="47.409447" lon="-121.289055"><ele>943.5</ele></trkpt>
<trkpt lat="47.409382" lon="-121.288901"><ele>942.9</ele></trkpt>
<trkpt lat="47.409280" lon="-121.288894"><ele>943.0</ele></trkpt>
<trkpt lat="47.409207" lon="-121.288778"><ele>942.5</ele></trkpt>
<trkpt lat="47.409156" lon="-121.288498"><ele>939.8</ele></trkpt>
<trkpt lat="47.408810" lon="-121.288316"><ele>942.5</ele></trkpt>
<trkpt lat="47.408332" lon="-121.287928"><ele>939.3</ele></trkpt>
<trkpt lat="47.408076" lon="-121.287352"><ele>938.5</ele></trkpt>
<trkpt lat="47.407490" lon="-121.287096"><ele>932.0</ele></trkpt>
<trkpt lat="47.407422" lon="-121.287013"><ele>934.1</ele></trkpt>
<trkpt lat="47.407326" lon="-121.287066"><ele>935.8</ele></trkpt>
<trkpt lat="47.406968" lon="-121.286736"><ele>932.4</ele></trkpt>
<trkpt lat="47.406841" lon="-121.286740"><ele>933.8</ele></trkpt>
<trkpt lat="47.406526" lon="-121.286588"><ele>931.9</ele></trkpt>
<trkpt lat="47.405844" lon="-121.286730"><ele>927.3</ele></trkpt>
<trkpt lat="47.405695" lon="-121.286636"><ele>924.9</ele></trkpt>
<trkpt lat="47.404884" lon="-121.286482"><ele>911.8</ele></trkpt>
<trkpt lat="47.404747" lon="-121.286621"><ele>910.8</ele></trkpt>
<trkpt lat="47.404648" lon="-121.286598"><ele>909.8</ele></trkpt>
<trkpt lat="47.404391" lon="-121.286058"><ele>908.1</ele></trkpt>
<trkpt lat="47.404280" lon="-121.285958"><ele>908.3</ele></trkpt>
<trkpt lat="47.404122" lon="-121.285926"><ele>907.5</ele></trkpt>
<trkpt lat="47.403923" lon="-121.285654"><ele>905.2</ele></trkpt>
<trkpt lat="47.403784" lon="-121.285578"><ele>904.5</ele></trkpt>
<trkpt lat="47.403595" lon="-121.285356"><ele>906.6</ele></trkpt>
<trkpt lat="47.403323" lon="-121.284949"><ele>901.2</ele></trkpt>
<trkpt lat="47.403135" lon="-121.284767"><ele>896.7</ele></trkpt>
<trkpt lat="47.402736" lon="-121.283919"><ele>892.7</ele></trkpt>
<trkpt lat="47.402514" lon="-121.283755"><ele>891.8</ele></trkpt>
<trkpt lat="47.402169" lon="-121.283349"><ele>884.0</ele></trkpt>
<trkpt lat="47.401892" lon="-121.282838"><ele>875.5</ele></trkpt>
<trkpt lat="47.401673" lon="-121.282738"><ele>871.7</ele></trkpt>
<trkpt lat="47.401549" lon="-121.282471"><ele>866.2</ele></trkpt>
<trkpt lat="47.401519" lon="-121.283016"><ele>857.9</ele></trkpt>
<trkpt lat="47.401358" lon="-121.283305"><ele>853.1</ele></trkpt>
<trkpt lat="47.401259" lon="-121.283346"><ele>851.5</ele></trkpt>
<trkpt lat="47.401071" lon="-121.283641"><ele>848.6</ele></trkpt>
<trkpt lat="47.400930" lon="-121.283589"><ele>847.3</ele></trkpt>
<trkpt lat="47.400883" lon="-121.283639"><ele>845.8</ele></trkpt>
<trkpt lat="47.400867" lon="-121.283593"><ele>846.3</ele></trkpt>
<trkpt lat="47.400832" lon="-121.283831"><ele>845.8</ele></trkpt>
<trkpt lat="47.400706" lon="-121.283957"><ele>845.1</ele></trkpt>
<trkpt lat="47.400554" lon="-121.283693"><ele>841.0</ele></trkpt>
<trkpt lat="47.400511" lon="-121.283461"><ele>839.2</ele></trkpt>
<trkpt lat="47.400499" lon="-121.283516"><ele>828.8</ele></trkpt>
</trkseg></trk>
</gpx>
