<?xml version="1.0" encoding="UTF-8"?>
<gpx version="1.1" creator="The Lost Trailhead" xmlns="http://www.topografix.com/GPX/1/1" xmlns:xsi="http://www.w3.org/2001/XMLSchema-instance" xsi:schemaLocation="http://www.topografix.com/GPX/1/1 http://www.topografix.com/GPX/1/1/gpx.xsd">
<metadata><name>Kendall Katwalk</name><desc>The Lost Trailhead, thelosttrailhead.com/hikes/kendall-katwalk. Conditions change. Use at your own risk.</desc><link href="https://thelosttrailhead.com/hikes/kendall-katwalk"><text>Kendall Katwalk on The Lost Trailhead</text></link></metadata>
<trk><name>Kendall Katwalk</name><link href="https://thelosttrailhead.com/hikes/kendall-katwalk"><text>Kendall Katwalk on The Lost Trailhead</text></link><trkseg>
<trkpt lat="47.428071" lon="-121.413534"><ele>941.9</ele></trkpt>
<trkpt lat="47.428096" lon="-121.413482"><ele>922.3</ele></trkpt>
<trkpt lat="47.428060" lon="-121.413547"><ele>924.3</ele></trkpt>
<trkpt lat="47.427896" lon="-121.413433"><ele>922.3</ele></trkpt>
<trkpt lat="47.427842" lon="-121.413481"><ele>926.1</ele></trkpt>
<trkpt lat="47.427571" lon="-121.413322"><ele>928.3</ele></trkpt>
<trkpt lat="47.427550" lon="-121.413077"><ele>925.7</ele></trkpt>
<trkpt lat="47.427495" lon="-121.413068"><ele>925.8</ele></trkpt>
<trkpt lat="47.427221" lon="-121.412553"><ele>933.8</ele></trkpt>
<trkpt lat="47.427159" lon="-121.411973"><ele>933.9</ele></trkpt>
<trkpt lat="47.427300" lon="-121.411611"><ele>934.4</ele></trkpt>
<trkpt lat="47.427075" lon="-121.411397"><ele>936.1</ele></trkpt>
<trkpt lat="47.427039" lon="-121.411053"><ele>937.7</ele></trkpt>
<trkpt lat="47.427078" lon="-121.410541"><ele>940.8</ele></trkpt>
<trkpt lat="47.427024" lon="-121.410429"><ele>942.1</ele></trkpt>
<trkpt lat="47.426862" lon="-121.410300"><ele>944.7</ele></trkpt>
<trkpt lat="47.426813" lon="-121.410126"><ele>945.3</ele></trkpt>
<trkpt lat="47.426833" lon="-121.409626"><ele>947.5</ele></trkpt>
<trkpt lat="47.426904" lon="-121.409490"><ele>949.2</ele></trkpt>
<trkpt lat="47.426931" lon="-121.409284"><ele>951.0</ele></trkpt>
<trkpt lat="47.426904" lon="-121.408759"><ele>954.3</ele></trkpt>
<trkpt lat="47.426372" lon="-121.408384"><ele>957.3</ele></trkpt>
<trkpt lat="47.425709" lon="-121.407135"><ele>969.0</ele></trkpt>
<trkpt lat="47.425268" lon="-121.406800"><ele>972.3</ele></trkpt>
<trkpt lat="47.424990" lon="-121.406456"><ele>974.7</ele></trkpt>
<trkpt lat="47.424385" lon="-121.405950"><ele>980.7</ele></trkpt>
<trkpt lat="47.423631" lon="-121.405040"><ele>990.8</ele></trkpt>
<trkpt lat="47.424068" lon="-121.405091"><ele>997.8</ele></trkpt>
<trkpt lat="47.424528" lon="-121.405291"><ele>1001.7</ele></trkpt>
<trkpt lat="47.426005" lon="-121.405357"><ele>1019.7</ele></trkpt>
<trkpt lat="47.426441" lon="-121.405809"><ele>1022.2</ele></trkpt>
<trkpt lat="47.428346" lon="-121.406558"><ele>1042.9</ele></trkpt>
<trkpt lat="47.428697" lon="-121.406859"><ele>1047.6</ele></trkpt>
<trkpt lat="47.430135" lon="-121.407490"><ele>1065.4</ele></trkpt>
<trkpt lat="47.430898" lon="-121.407427"><ele>1072.8</ele></trkpt>
<trkpt lat="47.431171" lon="-121.407291"><ele>1078.3</ele></trkpt>
<trkpt lat="47.431417" lon="-121.407324"><ele>1082.4</ele></trkpt>
<trkpt lat="47.431802" lon="-121.407131"><ele>1085.9</ele></trkpt>
<trkpt lat="47.432135" lon="-121.407173"><ele>1091.3</ele></trkpt>
<trkpt lat="47.432728" lon="-121.406895"><ele>1099.8</ele></trkpt>
<trkpt lat="47.433032" lon="-121.406657"><ele>1101.7</ele></trkpt>
<trkpt lat="47.433056" lon="-121.406571"><ele>1103.2</ele></trkpt>
<trkpt lat="47.433008" lon="-121.406531"><ele>1104.5</ele></trkpt>
<trkpt lat="47.432072" lon="-121.406295"><ele>1112.3</ele></trkpt>
<trkpt lat="47.431548" lon="-121.406459"><ele>1117.4</ele></trkpt>
<trkpt lat="47.431275" lon="-121.406237"><ele>1119.7</ele></trkpt>
<trkpt lat="47.431020" lon="-121.406349"><ele>1125.2</ele></trkpt>
<trkpt lat="47.430822" lon="-121.406322"><ele>1124.7</ele></trkpt>
<trkpt lat="47.430599" lon="-121.406238"><ele>1124.8</ele></trkpt>
<trkpt lat="47.430330" lon="-121.405929"><ele>1128.4</ele></trkpt>
<trkpt lat="47.429673" lon="-121.405529"><ele>1136.6</ele></trkpt>
<trkpt lat="47.430252" lon="-121.405797"><ele>1143.3</ele></trkpt>
<trkpt lat="47.430375" lon="-121.405764"><ele>1144.5</ele></trkpt>
<trkpt lat="47.430831" lon="-121.405872"><ele>1146.6</ele></trkpt>
<trkpt lat="47.431347" lon="-121.405692"><ele>1151.2</ele></trkpt>
<trkpt lat="47.431817" lon="-121.405331"><ele>1156.7</ele></trkpt>
<trkpt lat="47.432252" lon="-121.405129"><ele>1164.2</ele></trkpt>
<trkpt lat="47.432698" lon="-121.404544"><ele>1168.3</ele></trkpt>
<trkpt lat="47.433217" lon="-121.403724"><ele>1172.5</ele></trkpt>
<trkpt lat="47.433342" lon="-121.403291"><ele>1177.0</ele></trkpt>
<trkpt lat="47.433605" lon="-121.402905"><ele>1180.4</ele></trkpt>
<trkpt lat="47.433922" lon="-121.402032"><ele>1186.5</ele></trkpt>
<trkpt lat="47.434227" lon="-121.401737"><ele>1183.9</ele></trkpt>
<trkpt lat="47.434378" lon="-121.401484"><ele>1182.7</ele></trkpt>
<trkpt lat="47.434726" lon="-121.401228"><ele>1179.8</ele></trkpt>
<trkpt lat="47.435108" lon="-121.400750"><ele>1175.3</ele></trkpt>
<trkpt lat="47.435423" lon="-121.399933"><ele>1168.6</ele></trkpt>
<trkpt lat="47.436301" lon="-121.399189"><ele>1155.3</ele></trkpt>
<trkpt lat="47.436559" lon="-121.399164"><ele>1154.3</ele></trkpt>
<trkpt lat="47.436801" lon="-121.398939"><ele>1157.0</ele></trkpt>
<trkpt lat="47.437303" lon="-121.398788"><ele>1154.1</ele></trkpt>
<trkpt lat="47.438069" lon="-121.398418"><ele>1147.6</ele></trkpt>
<trkpt lat="47.438606" lon="-121.397967"><ele>1154.8</ele></trkpt>
<trkpt lat="47.439125" lon="-121.397709"><ele>1162.8</ele></trkpt>
<trkpt lat="47.439443" lon="-121.397315"><ele>1166.0</ele></trkpt>
<trkpt lat="47.439622" lon="-121.397300"><ele>1166.9</ele></trkpt>
<trkpt lat="47.439724" lon="-121.397150"><ele>1158.6</ele></trkpt>
<trkpt lat="47.440814" lon="-121.396350"><ele>1186.4</ele></trkpt>
<trkpt lat="47.441081" lon="-121.396014"><ele>1188.4</ele></trkpt>
<trkpt lat="47.442053" lon="-121.395055"><ele>1205.1</ele></trkpt>
<trkpt lat="47.442448" lon="-121.394881"><ele>1209.9</ele></trkpt>
<trkpt lat="47.442613" lon="-121.394697"><ele>1209.7</ele></trkpt>
<trkpt lat="47.443084" lon="-121.394384"><ele>1212.7</ele></trkpt>
<trkpt lat="47.443319" lon="-121.394121"><ele>1213.8</ele></trkpt>
<trkpt lat="47.443707" lon="-121.393450"><ele>1221.4</ele></trkpt>
<trkpt lat="47.444013" lon="-121.393220"><ele>1223.8</ele></trkpt>
<trkpt lat="47.443807" lon="-121.393154"><ele>1226.5</ele></trkpt>
<trkpt lat="47.443231" lon="-121.393502"><ele>1238.5</ele></trkpt>
<trkpt lat="47.442377" lon="-121.393625"><ele>1246.6</ele></trkpt>
<trkpt lat="47.441595" lon="-121.393917"><ele>1257.5</ele></trkpt>
<trkpt lat="47.441429" lon="-121.394045"><ele>1257.5</ele></trkpt>
<trkpt lat="47.440420" lon="-121.394340"><ele>1272.6</ele></trkpt>
<trkpt lat="47.439795" lon="-121.394604"><ele>1278.1</ele></trkpt>
<trkpt lat="47.439392" lon="-121.394336"><ele>1284.1</ele></trkpt>
<trkpt lat="47.438739" lon="-121.394251"><ele>1289.3</ele></trkpt>
<trkpt lat="47.438420" lon="-121.394284"><ele>1291.8</ele></trkpt>
<trkpt lat="47.438144" lon="-121.394044"><ele>1298.5</ele></trkpt>
<trkpt lat="47.438109" lon="-121.394136"><ele>1300.2</ele></trkpt>
<trkpt lat="47.438145" lon="-121.394052"><ele>1296.3</ele></trkpt>
<trkpt lat="47.438067" lon="-121.393929"><ele>1299.6</ele></trkpt>
<trkpt lat="47.437464" lon="-121.393777"><ele>1305.9</ele></trkpt>
<trkpt lat="47.437116" lon="-121.393763"><ele>1311.0</ele></trkpt>
<trkpt lat="47.436972" lon="-121.393921"><ele>1310.3</ele></trkpt>
<trkpt lat="47.436845" lon="-121.393958"><ele>1309.6</ele></trkpt>
<trkpt lat="47.436739" lon="-121.393857"><ele>1309.0</ele></trkpt>
<trkpt lat="47.436711" lon="-121.393595"><ele>1311.1</ele></trkpt>
<trkpt lat="47.436571" lon="-121.393707"><ele>1312.0</ele></trkpt>
<trkpt lat="47.436069" lon="-121.393874"><ele>1318.6</ele></trkpt>
<trkpt lat="47.435725" lon="-121.394077"><ele>1324.6</ele></trkpt>
<trkpt lat="47.435362" lon="-121.394556"><ele>1332.3</ele></trkpt>
<trkpt lat="47.435146" lon="-121.394931"><ele>1335.9</ele></trkpt>
<trkpt lat="47.434911" lon="-121.395195"><ele>1339.7</ele></trkpt>
<trkpt lat="47.434727" lon="-121.395583"><ele>1343.8</ele></trkpt>
<trkpt lat="47.434671" lon="-121.395932"><ele>1346.6</ele></trkpt>
<trkpt lat="47.434683" lon="-121.396184"><ele>1346.3</ele></trkpt>
<trkpt lat="47.434513" lon="-121.396461"><ele>1349.0</ele></trkpt>
<trkpt lat="47.434512" lon="-121.396662"><ele>1350.6</ele></trkpt>
<trkpt lat="47.434418" lon="-121.396861"><ele>1353.5</ele></trkpt>
<trkpt lat="47.434175" lon="-121.396944"><ele>1359.6</ele></trkpt>
<trkpt lat="47.434052" lon="-121.397169"><ele>1361.5</ele></trkpt>
<trkpt lat="47.433626" lon="-121.397268"><ele>1364.6</ele></trkpt>
<trkpt lat="47.433059" lon="-121.397535"><ele>1377.6</ele></trkpt>
<trkpt lat="47.433004" lon="-121.397679"><ele>1378.7</ele></trkpt>
<trkpt lat="47.433124" lon="-121.397960"><ele>1380.0</ele></trkpt>
<trkpt lat="47.433142" lon="-121.398196"><ele>1380.2</ele></trkpt>
<trkpt lat="47.432905" lon="-121.398494"><ele>1385.1</ele></trkpt>
<trkpt lat="47.432844" lon="-121.398721"><ele>1387.5</ele></trkpt>
<trkpt lat="47.432853" lon="-121.398423"><ele>1390.4</ele></trkpt>
<trkpt lat="47.432778" lon="-121.398086"><ele>1392.9</ele></trkpt>
<trkpt lat="47.432527" lon="-121.397942"><ele>1397.7</ele></trkpt>
<trkpt lat="47.432565" lon="-121.397922"><ele>1397.7</ele></trkpt>
<trkpt lat="47.432509" lon="-121.397838"><ele>1400.2</ele></trkpt>
<trkpt lat="47.432456" lon="-121.397501"><ele>1404.7</ele></trkpt>
<trkpt lat="47.432746" lon="-121.397077"><ele>1407.9</ele></trkpt>
<trkpt lat="47.432824" lon="-121.396662"><ele>1408.8</ele></trkpt>
<trkpt lat="47.433019" lon="-121.396156"><ele>1412.6</ele></trkpt>
<trkpt lat="47.433077" lon="-121.395218"><ele>1422.1</ele></trkpt>
<trkpt lat="47.433558" lon="-121.394544"><ele>1432.2</ele></trkpt>
<trkpt lat="47.433554" lon="-121.394364"><ele>1432.5</ele></trkpt>
<trkpt lat="47.433415" lon="-121.393922"><ele>1437.1</ele></trkpt>
<trkpt lat="47.433504" lon="-121.393779"><ele>1436.3</ele></trkpt>
<trkpt lat="47.433449" lon="-121.393622"><ele>1438.3</ele></trkpt>
<trkpt lat="47.433449" lon="-121.393435"><ele>1440.8</ele></trkpt>
<trkpt lat="47.433523" lon="-121.393285"><ele>1442.9</ele></trkpt>
<trkpt lat="47.433736" lon="-121.393166"><ele>1447.7</ele></trkpt>
<trkpt lat="47.433818" lon="-121.393040"><ele>1447.3</ele></trkpt>
<trkpt lat="47.433714" lon="-121.392642"><ele>1446.0</ele></trkpt>
<trkpt lat="47.433702" lon="-121.392244"><ele>1443.9</ele></trkpt>
<trkpt lat="47.434103" lon="-121.391516"><ele>1446.4</ele></trkpt>
<trkpt lat="47.434165" lon="-121.391229"><ele>1450.2</ele></trkpt>
<trkpt lat="47.434139" lon="-121.391017"><ele>1449.8</ele></trkpt>
<trkpt lat="47.434204" lon="-121.391038"><ele>1450.2</ele></trkpt>
<trkpt lat="47.434250" lon="-121.390961"><ele>1450.8</ele></trkpt>
<trkpt lat="47.434226" lon="-121.390788"><ele>1451.5</ele></trkpt>
<trkpt lat="47.434011" lon="-121.390353"><ele>1457.3</ele></trkpt>
<trkpt lat="47.434203" lon="-121.390519"><ele>1460.5</ele></trkpt>
<trkpt lat="47.434285" lon="-121.390509"><ele>1461.5</ele></trkpt>
<trkpt lat="47.434315" lon="-121.390439"><ele>1462.4</ele></trkpt>
<trkpt lat="47.434139" lon="-121.390229"><ele>1466.2</ele></trkpt>
<trkpt lat="47.434111" lon="-121.389918"><ele>1470.6</ele></trkpt>
<trkpt lat="47.434239" lon="-121.389715"><ele>1472.7</ele></trkpt>
<trkpt lat="47.434219" lon="-121.389677"><ele>1467.6</ele></trkpt>
<trkpt lat="47.434333" lon="-121.389617"><ele>1471.2</ele></trkpt>
<trkpt lat="47.434355" lon="-121.389549"><ele>1472.8</ele></trkpt>
<trkpt lat="47.434248" lon="-121.389355"><ele>1476.4</ele></trkpt>
<trkpt lat="47.434149" lon="-121.388788"><ele>1477.9</ele></trkpt>
<trkpt lat="47.434029" lon="-121.388462"><ele>1478.8</ele></trkpt>
<trkpt lat="47.433949" lon="-121.388062"><ele>1483.5</ele></trkpt>
<trkpt lat="47.433956" lon="-121.387812"><ele>1486.1</ele></trkpt>
<trkpt lat="47.434050" lon="-121.387461"><ele>1485.6</ele></trkpt>
<trkpt lat="47.434249" lon="-121.387132"><ele>1485.7</ele></trkpt>
<trkpt lat="47.434600" lon="-121.386294"><ele>1489.6</ele></trkpt>
<trkpt lat="47.434778" lon="-121.385986"><ele>1490.1</ele></trkpt>
<trkpt lat="47.435148" lon="-121.385753"><ele>1489.4</ele></trkpt>
<trkpt lat="47.435251" lon="-121.385379"><ele>1489.4</ele></trkpt>
<trkpt lat="47.435371" lon="-121.385250"><ele>1484.9</ele></trkpt>
<trkpt lat="47.436014" lon="-121.385105"><ele>1484.0</ele></trkpt>
<trkpt lat="47.436367" lon="-121.384900"><ele>1488.5</ele></trkpt>
<trkpt lat="47.436839" lon="-121.384851"><ele>1493.2</ele></trkpt>
<trkpt lat="47.436964" lon="-121.384972"><ele>1494.6</ele></trkpt>
<trkpt lat="47.437669" lon="-121.385205"><ele>1501.1</ele></trkpt>
<trkpt lat="47.438176" lon="-121.385551"><ele>1507.1</ele></trkpt>
<trkpt lat="47.438579" lon="-121.385677"><ele>1511.2</ele></trkpt>
<trkpt lat="47.438853" lon="-121.385918"><ele>1515.0</ele></trkpt>
<trkpt lat="47.439251" lon="-121.385972"><ele>1519.0</ele></trkpt>
<trkpt lat="47.439486" lon="-121.386304"><ele>1521.5</ele></trkpt>
<trkpt lat="47.439645" lon="-121.386422"><ele>1523.8</ele></trkpt>
<trkpt lat="47.440220" lon="-121.386561"><ele>1530.7</ele></trkpt>
<trkpt lat="47.440545" lon="-121.386525"><ele>1534.5</ele></trkpt>
<trkpt lat="47.440794" lon="-121.386758"><ele>1537.8</ele></trkpt>
<trkpt lat="47.441469" lon="-121.387117"><ele>1547.4</ele></trkpt>
<trkpt lat="47.441766" lon="-121.387393"><ele>1552.3</ele></trkpt>
<trkpt lat="47.442184" lon="-121.387538"><ele>1556.2</ele></trkpt>
<trkpt lat="47.442306" lon="-121.387639"><ele>1558.9</ele></trkpt>
<trkpt lat="47.443332" lon="-121.387762"><ele>1574.6</ele></trkpt>
<trkpt lat="47.444604" lon="-121.387687"><ele>1591.2</ele></trkpt>
<trkpt lat="47.444825" lon="-121.387772"><ele>1593.4</ele></trkpt>
<trkpt lat="47.444849" lon="-121.387749"><ele>1591.3</ele></trkpt>
<trkpt lat="47.444708" lon="-121.387597"><ele>1595.4</ele></trkpt>
<trkpt lat="47.444321" lon="-121.387399"><ele>1601.4</ele></trkpt>
<trkpt lat="47.444071" lon="-121.387197"><ele>1608.4</ele></trkpt>
<trkpt lat="47.443602" lon="-121.387022"><ele>1614.6</ele></trkpt>
<trkpt lat="47.443953" lon="-121.386919"><ele>1622.1</ele></trkpt>
<trkpt lat="47.444752" lon="-121.387041"><ele>1632.3</ele></trkpt>
<trkpt lat="47.445044" lon="-121.386966"><ele>1638.3</ele></trkpt>
<trkpt lat="47.445897" lon="-121.385864"><ele>1654.1</ele></trkpt>
<trkpt lat="47.446219" lon="-121.385600"><ele>1659.3</ele></trkpt>
<trkpt lat="47.446598" lon="-121.385479"><ele>1666.0</ele></trkpt>
<trkpt lat="47.446752" lon="-121.384743"><ele>1666.7</ele></trkpt>
<trkpt lat="47.446832" lon="-121.383837"><ele>1662.9</ele></trkpt>
<trkpt lat="47.446885" lon="-121.383670"><ele>1662.4</ele></trkpt>
<trkpt lat="47.447076" lon="-121.383371"><ele>1660.7</ele></trkpt>
<trkpt lat="47.447080" lon="-121.383124"><ele>1659.5</ele></trkpt>
<trkpt lat="47.447053" lon="-121.383128"><ele>1658.9</ele></trkpt>
<trkpt lat="47.447232" lon="-121.383042"><ele>1659.5</ele></trkpt>
<trkpt lat="47.447383" lon="-121.382798"><ele>1658.8</ele></trkpt>
<trkpt lat="47.447841" lon="-121.382487"><ele>1655.7</ele></trkpt>
<trkpt lat="47.448216" lon="-121.381189"><ele>1652.8</ele></trkpt>
<trkpt lat="47.448416" lon="-121.381057"><ele>1650.3</ele></trkpt>
<trkpt lat="47.448796" lon="-121.381134"><ele>1645.2</ele></trkpt>
<trkpt lat="47.449207" lon="-121.380978"><ele>1640.8</ele></trkpt>
<trkpt lat="47.449580" lon="-121.380405"><ele>1642.3</ele></trkpt>
<trkpt lat="47.449999" lon="-121.380052"><ele>1646.0</ele></trkpt>
<trkpt lat="47.450065" lon="-121.379783"><ele>1645.3</ele></trkpt>
<trkpt lat="47.450374" lon="-121.379415"><ele>1646.1</ele></trkpt>
<trkpt lat="47.451120" lon="-121.379278"><ele>1655.8</ele></trkpt>
<trkpt lat="47.451309" lon="-121.379115"><ele>1658.7</ele></trkpt>
<trkpt lat="47.451550" lon="-121.378735"><ele>1657.2</ele></trkpt>
<trkpt lat="47.451642" lon="-121.378727"><ele>1658.1</ele></trkpt>
<trkpt lat="47.452144" lon="-121.378405"><ele>1658.6</ele></trkpt>
<trkpt lat="47.452571" lon="-121.378292"><ele>1660.8</ele></trkpt>
<trkpt lat="47.452728" lon="-121.378163"><ele>1661.3</ele></trkpt>
<trkpt lat="47.453378" lon="-121.377940"><ele>1656.9</ele></trkpt>
<trkpt lat="47.454373" lon="-121.377119"><ele>1653.2</ele></trkpt>
<trkpt lat="47.454558" lon="-121.376862"><ele>1652.4</ele></trkpt>
<trkpt lat="47.454829" lon="-121.376331"><ele>1649.7</ele></trkpt>
<trkpt lat="47.454780" lon="-121.375972"><ele>1647.5</ele></trkpt>
<trkpt lat="47.454631" lon="-121.375585"><ele>1647.5</ele></trkpt>
<trkpt lat="47.454675" lon="-121.375278"><ele>1646.9</ele></trkpt>
<trkpt lat="47.454631" lon="-121.375585"><ele>1647.5</ele></trkpt>
<trkpt lat="47.454780" lon="-121.375972"><ele>1647.5</ele></trkpt>
<trkpt lat="47.454829" lon="-121.376331"><ele>1649.7</ele></trkpt>
<trkpt lat="47.454558" lon="-121.376862"><ele>1652.4</ele></trkpt>
<trkpt lat="47.454373" lon="-121.377119"><ele>1653.2</ele></trkpt>
<trkpt lat="47.453378" lon="-121.377940"><ele>1656.9</ele></trkpt>
<trkpt lat="47.452728" lon="-121.378163"><ele>1661.3</ele></trkpt>
<trkpt lat="47.452571" lon="-121.378292"><ele>1660.8</ele></trkpt>
<trkpt lat="47.452144" lon="-121.378405"><ele>1658.6</ele></trkpt>
<trkpt lat="47.451642" lon="-121.378727"><ele>1658.1</ele></trkpt>
<trkpt lat="47.451550" lon="-121.378735"><ele>1657.2</ele></trkpt>
<trkpt lat="47.451309" lon="-121.379115"><ele>1658.7</ele></trkpt>
<trkpt lat="47.451120" lon="-121.379278"><ele>1655.8</ele></trkpt>
<trkpt lat="47.450374" lon="-121.379415"><ele>1646.1</ele></trkpt>
<trkpt lat="47.450065" lon="-121.379783"><ele>1645.3</ele></trkpt>
<trkpt lat="47.449999" lon="-121.380052"><ele>1646.0</ele></trkpt>
<trkpt lat="47.449580" lon="-121.380405"><ele>1642.3</ele></trkpt>
<trkpt lat="47.449207" lon="-121.380978"><ele>1640.8</ele></trkpt>
<trkpt lat="47.448796" lon="-121.381134"><ele>1645.2</ele></trkpt>
<trkpt lat="47.448416" lon="-121.381057"><ele>1650.3</ele></trkpt>
<trkpt lat="47.448216" lon="-121.381189"><ele>1652.8</ele></trkpt>
<trkpt lat="47.447841" lon="-121.382487"><ele>1655.7</ele></trkpt>
<trkpt lat="47.447383" lon="-121.382798"><ele>1658.8</ele></trkpt>
<trkpt lat="47.447232" lon="-121.383042"><ele>1659.5</ele></trkpt>
<trkpt lat="47.447053" lon="-121.383128"><ele>1658.9</ele></trkpt>
<trkpt lat="47.447080" lon="-121.383124"><ele>1659.5</ele></trkpt>
<trkpt lat="47.447076" lon="-121.383371"><ele>1660.7</ele></trkpt>
<trkpt lat="47.446885" lon="-121.383670"><ele>1662.4</ele></trkpt>
<trkpt lat="47.446832" lon="-121.383837"><ele>1662.9</ele></trkpt>
<trkpt lat="47.446752" lon="-121.384743"><ele>1666.7</ele></trkpt>
<trkpt lat="47.446598" lon="-121.385479"><ele>1666.0</ele></trkpt>
<trkpt lat="47.446219" lon="-121.385600"><ele>1659.3</ele></trkpt>
<trkpt lat="47.445897" lon="-121.385864"><ele>1654.1</ele></trkpt>
<trkpt lat="47.445044" lon="-121.386966"><ele>1638.3</ele></trkpt>
<trkpt lat="47.444752" lon="-121.387041"><ele>1632.3</ele></trkpt>
<trkpt lat="47.443953" lon="-121.386919"><ele>1622.1</ele></trkpt>
<trkpt lat="47.443602" lon="-121.387022"><ele>1614.6</ele></trkpt>
<trkpt lat="47.444071" lon="-121.387197"><ele>1608.4</ele></trkpt>
<trkpt lat="47.444321" lon="-121.387399"><ele>1601.4</ele></trkpt>
<trkpt lat="47.444708" lon="-121.387597"><ele>1595.4</ele></trkpt>
<trkpt lat="47.444849" lon="-121.387749"><ele>1591.3</ele></trkpt>
<trkpt lat="47.444825" lon="-121.387772"><ele>1593.4</ele></trkpt>
<trkpt lat="47.444604" lon="-121.387687"><ele>1591.2</ele></trkpt>
<trkpt lat="47.443332" lon="-121.387762"><ele>1574.6</ele></trkpt>
<trkpt lat="47.442306" lon="-121.387639"><ele>1558.9</ele></trkpt>
<trkpt lat="47.442184" lon="-121.387538"><ele>1556.2</ele></trkpt>
<trkpt lat="47.441766" lon="-121.387393"><ele>1552.3</ele></trkpt>
<trkpt lat="47.441469" lon="-121.387117"><ele>1547.4</ele></trkpt>
<trkpt lat="47.440794" lon="-121.386758"><ele>1537.8</ele></trkpt>
<trkpt lat="47.440545" lon="-121.386525"><ele>1534.5</ele></trkpt>
<trkpt lat="47.440220" lon="-121.386561"><ele>1530.7</ele></trkpt>
<trkpt lat="47.439645" lon="-121.386422"><ele>1523.8</ele></trkpt>
<trkpt lat="47.439486" lon="-121.386304"><ele>1521.5</ele></trkpt>
<trkpt lat="47.439251" lon="-121.385972"><ele>1519.0</ele></trkpt>
<trkpt lat="47.438853" lon="-121.385918"><ele>1515.0</ele></trkpt>
<trkpt lat="47.438579" lon="-121.385677"><ele>1511.2</ele></trkpt>
<trkpt lat="47.438176" lon="-121.385551"><ele>1507.1</ele></trkpt>
<trkpt lat="47.437669" lon="-121.385205"><ele>1501.1</ele></trkpt>
<trkpt lat="47.436964" lon="-121.384972"><ele>1494.6</ele></trkpt>
<trkpt lat="47.436839" lon="-121.384851"><ele>1493.2</ele></trkpt>
<trkpt lat="47.436367" lon="-121.384900"><ele>1488.5</ele></trkpt>
<trkpt lat="47.436014" lon="-121.385105"><ele>1484.0</ele></trkpt>
<trkpt lat="47.435371" lon="-121.385250"><ele>1484.9</ele></trkpt>
<trkpt lat="47.435251" lon="-121.385379"><ele>1489.4</ele></trkpt>
<trkpt lat="47.435148" lon="-121.385753"><ele>1489.4</ele></trkpt>
<trkpt lat="47.434778" lon="-121.385986"><ele>1490.1</ele></trkpt>
<trkpt lat="47.434600" lon="-121.386294"><ele>1489.6</ele></trkpt>
<trkpt lat="47.434249" lon="-121.387132"><ele>1485.7</ele></trkpt>
<trkpt lat="47.434050" lon="-121.387461"><ele>1485.6</ele></trkpt>
<trkpt lat="47.433956" lon="-121.387812"><ele>1486.1</ele></trkpt>
<trkpt lat="47.433949" lon="-121.388062"><ele>1483.5</ele></trkpt>
<trkpt lat="47.434029" lon="-121.388462"><ele>1478.8</ele></trkpt>
<trkpt lat="47.434149" lon="-121.388788"><ele>1477.9</ele></trkpt>
<trkpt lat="47.434248" lon="-121.389355"><ele>1476.4</ele></trkpt>
<trkpt lat="47.434355" lon="-121.389549"><ele>1472.8</ele></trkpt>
<trkpt lat="47.434333" lon="-121.389617"><ele>1471.2</ele></trkpt>
<trkpt lat="47.434219" lon="-121.389677"><ele>1467.6</ele></trkpt>
<trkpt lat="47.434239" lon="-121.389715"><ele>1472.7</ele></trkpt>
<trkpt lat="47.434111" lon="-121.389918"><ele>1470.6</ele></trkpt>
<trkpt lat="47.434139" lon="-121.390229"><ele>1466.2</ele></trkpt>
<trkpt lat="47.434315" lon="-121.390439"><ele>1462.4</ele></trkpt>
<trkpt lat="47.434285" lon="-121.390509"><ele>1461.5</ele></trkpt>
<trkpt lat="47.434203" lon="-121.390519"><ele>1460.5</ele></trkpt>
<trkpt lat="47.434011" lon="-121.390353"><ele>1457.3</ele></trkpt>
<trkpt lat="47.434226" lon="-121.390788"><ele>1451.5</ele></trkpt>
<trkpt lat="47.434250" lon="-121.390961"><ele>1450.8</ele></trkpt>
<trkpt lat="47.434204" lon="-121.391038"><ele>1450.2</ele></trkpt>
<trkpt lat="47.434139" lon="-121.391017"><ele>1449.8</ele></trkpt>
<trkpt lat="47.434165" lon="-121.391229"><ele>1450.2</ele></trkpt>
<trkpt lat="47.434103" lon="-121.391516"><ele>1446.4</ele></trkpt>
<trkpt lat="47.433702" lon="-121.392244"><ele>1443.9</ele></trkpt>
<trkpt lat="47.433714" lon="-121.392642"><ele>1446.0</ele></trkpt>
<trkpt lat="47.433818" lon="-121.393040"><ele>1447.3</ele></trkpt>
<trkpt lat="47.433736" lon="-121.393166"><ele>1447.7</ele></trkpt>
<trkpt lat="47.433523" lon="-121.393285"><ele>1442.9</ele></trkpt>
<trkpt lat="47.433449" lon="-121.393435"><ele>1440.8</ele></trkpt>
<trkpt lat="47.433449" lon="-121.393622"><ele>1438.3</ele></trkpt>
<trkpt lat="47.433504" lon="-121.393779"><ele>1436.3</ele></trkpt>
<trkpt lat="47.433415" lon="-121.393922"><ele>1437.1</ele></trkpt>
<trkpt lat="47.433554" lon="-121.394364"><ele>1432.5</ele></trkpt>
<trkpt lat="47.433558" lon="-121.394544"><ele>1432.2</ele></trkpt>
<trkpt lat="47.433077" lon="-121.395218"><ele>1422.1</ele></trkpt>
<trkpt lat="47.433019" lon="-121.396156"><ele>1412.6</ele></trkpt>
<trkpt lat="47.432824" lon="-121.396662"><ele>1408.8</ele></trkpt>
<trkpt lat="47.432746" lon="-121.397077"><ele>1407.9</ele></trkpt>
<trkpt lat="47.432456" lon="-121.397501"><ele>1404.7</ele></trkpt>
<trkpt lat="47.432509" lon="-121.397838"><ele>1400.2</ele></trkpt>
<trkpt lat="47.432565" lon="-121.397922"><ele>1397.7</ele></trkpt>
<trkpt lat="47.432527" lon="-121.397942"><ele>1397.7</ele></trkpt>
<trkpt lat="47.432778" lon="-121.398086"><ele>1392.9</ele></trkpt>
<trkpt lat="47.432853" lon="-121.398423"><ele>1390.4</ele></trkpt>
<trkpt lat="47.432844" lon="-121.398721"><ele>1387.5</ele></trkpt>
<trkpt lat="47.432905" lon="-121.398494"><ele>1385.1</ele></trkpt>
<trkpt lat="47.433142" lon="-121.398196"><ele>1380.2</ele></trkpt>
<trkpt lat="47.433124" lon="-121.397960"><ele>1380.0</ele></trkpt>
<trkpt lat="47.433004" lon="-121.397679"><ele>1378.7</ele></trkpt>
<trkpt lat="47.433059" lon="-121.397535"><ele>1377.6</ele></trkpt>
<trkpt lat="47.433626" lon="-121.397268"><ele>1364.6</ele></trkpt>
<trkpt lat="47.434052" lon="-121.397169"><ele>1361.5</ele></trkpt>
<trkpt lat="47.434175" lon="-121.396944"><ele>1359.6</ele></trkpt>
<trkpt lat="47.434418" lon="-121.396861"><ele>1353.5</ele></trkpt>
<trkpt lat="47.434512" lon="-121.396662"><ele>1350.6</ele></trkpt>
<trkpt lat="47.434513" lon="-121.396461"><ele>1349.0</ele></trkpt>
<trkpt lat="47.434683" lon="-121.396184"><ele>1346.3</ele></trkpt>
<trkpt lat="47.434671" lon="-121.395932"><ele>1346.6</ele></trkpt>
<trkpt lat="47.434727" lon="-121.395583"><ele>1343.8</ele></trkpt>
<trkpt lat="47.434911" lon="-121.395195"><ele>1339.7</ele></trkpt>
<trkpt lat="47.435146" lon="-121.394931"><ele>1335.9</ele></trkpt>
<trkpt lat="47.435362" lon="-121.394556"><ele>1332.3</ele></trkpt>
<trkpt lat="47.435725" lon="-121.394077"><ele>1324.6</ele></trkpt>
<trkpt lat="47.436069" lon="-121.393874"><ele>1318.6</ele></trkpt>
<trkpt lat="47.436571" lon="-121.393707"><ele>1312.0</ele></trkpt>
<trkpt lat="47.436711" lon="-121.393595"><ele>1311.1</ele></trkpt>
<trkpt lat="47.436739" lon="-121.393857"><ele>1309.0</ele></trkpt>
<trkpt lat="47.436845" lon="-121.393958"><ele>1309.6</ele></trkpt>
<trkpt lat="47.436972" lon="-121.393921"><ele>1310.3</ele></trkpt>
<trkpt lat="47.437116" lon="-121.393763"><ele>1311.0</ele></trkpt>
<trkpt lat="47.437464" lon="-121.393777"><ele>1305.9</ele></trkpt>
<trkpt lat="47.438067" lon="-121.393929"><ele>1299.6</ele></trkpt>
<trkpt lat="47.438145" lon="-121.394052"><ele>1296.3</ele></trkpt>
<trkpt lat="47.438109" lon="-121.394136"><ele>1300.2</ele></trkpt>
<trkpt lat="47.438144" lon="-121.394044"><ele>1298.5</ele></trkpt>
<trkpt lat="47.438420" lon="-121.394284"><ele>1291.8</ele></trkpt>
<trkpt lat="47.438739" lon="-121.394251"><ele>1289.3</ele></trkpt>
<trkpt lat="47.439392" lon="-121.394336"><ele>1284.1</ele></trkpt>
<trkpt lat="47.439795" lon="-121.394604"><ele>1278.1</ele></trkpt>
<trkpt lat="47.440420" lon="-121.394340"><ele>1272.6</ele></trkpt>
<trkpt lat="47.441429" lon="-121.394045"><ele>1257.5</ele></trkpt>
<trkpt lat="47.441595" lon="-121.393917"><ele>1257.5</ele></trkpt>
<trkpt lat="47.442377" lon="-121.393625"><ele>1246.6</ele></trkpt>
<trkpt lat="47.443231" lon="-121.393502"><ele>1238.5</ele></trkpt>
<trkpt lat="47.443807" lon="-121.393154"><ele>1226.5</ele></trkpt>
<trkpt lat="47.444013" lon="-121.393220"><ele>1223.8</ele></trkpt>
<trkpt lat="47.443707" lon="-121.393450"><ele>1221.4</ele></trkpt>
<trkpt lat="47.443319" lon="-121.394121"><ele>1213.8</ele></trkpt>
<trkpt lat="47.443084" lon="-121.394384"><ele>1212.7</ele></trkpt>
<trkpt lat="47.442613" lon="-121.394697"><ele>1209.7</ele></trkpt>
<trkpt lat="47.442448" lon="-121.394881"><ele>1209.9</ele></trkpt>
<trkpt lat="47.442053" lon="-121.395055"><ele>1205.1</ele></trkpt>
<trkpt lat="47.441081" lon="-121.396014"><ele>1188.4</ele></trkpt>
<trkpt lat="47.440814" lon="-121.396350"><ele>1186.4</ele></trkpt>
<trkpt lat="47.439724" lon="-121.397150"><ele>1158.6</ele></trkpt>
<trkpt lat="47.439622" lon="-121.397300"><ele>1166.9</ele></trkpt>
<trkpt lat="47.439443" lon="-121.397315"><ele>1166.0</ele></trkpt>
<trkpt lat="47.439125" lon="-121.397709"><ele>1162.8</ele></trkpt>
<trkpt lat="47.438606" lon="-121.397967"><ele>1154.8</ele></trkpt>
<trkpt lat="47.438069" lon="-121.398418"><ele>1147.6</ele></trkpt>
<trkpt lat="47.437303" lon="-121.398788"><ele>1154.1</ele></trkpt>
<trkpt lat="47.436801" lon="-121.398939"><ele>1157.0</ele></trkpt>
<trkpt lat="47.436559" lon="-121.399164"><ele>1154.3</ele></trkpt>
<trkpt lat="47.436301" lon="-121.399189"><ele>1155.3</ele></trkpt>
<trkpt lat="47.435423" lon="-121.399933"><ele>1168.6</ele></trkpt>
<trkpt lat="47.435108" lon="-121.400750"><ele>1175.3</ele></trkpt>
<trkpt lat="47.434726" lon="-121.401228"><ele>1179.8</ele></trkpt>
<trkpt lat="47.434378" lon="-121.401484"><ele>1182.7</ele></trkpt>
<trkpt lat="47.434227" lon="-121.401737"><ele>1183.9</ele></trkpt>
<trkpt lat="47.433922" lon="-121.402032"><ele>1186.5</ele></trkpt>
<trkpt lat="47.433605" lon="-121.402905"><ele>1180.4</ele></trkpt>
<trkpt lat="47.433342" lon="-121.403291"><ele>1177.0</ele></trkpt>
<trkpt lat="47.433217" lon="-121.403724"><ele>1172.5</ele></trkpt>
<trkpt lat="47.432698" lon="-121.404544"><ele>1168.3</ele></trkpt>
<trkpt lat="47.432252" lon="-121.405129"><ele>1164.2</ele></trkpt>
<trkpt lat="47.431817" lon="-121.405331"><ele>1156.7</ele></trkpt>
<trkpt lat="47.431347" lon="-121.405692"><ele>1151.2</ele></trkpt>
<trkpt lat="47.430831" lon="-121.405872"><ele>1146.6</ele></trkpt>
<trkpt lat="47.430375" lon="-121.405764"><ele>1144.5</ele></trkpt>
<trkpt lat="47.430252" lon="-121.405797"><ele>1143.3</ele></trkpt>
<trkpt lat="47.429673" lon="-121.405529"><ele>1136.6</ele></trkpt>
<trkpt lat="47.430330" lon="-121.405929"><ele>1128.4</ele></trkpt>
<trkpt lat="47.430599" lon="-121.406238"><ele>1124.8</ele></trkpt>
<trkpt lat="47.430822" lon="-121.406322"><ele>1124.7</ele></trkpt>
<trkpt lat="47.431020" lon="-121.406349"><ele>1125.2</ele></trkpt>
<trkpt lat="47.431275" lon="-121.406237"><ele>1119.7</ele></trkpt>
<trkpt lat="47.431548" lon="-121.406459"><ele>1117.4</ele></trkpt>
<trkpt lat="47.432072" lon="-121.406295"><ele>1112.3</ele></trkpt>
<trkpt lat="47.433008" lon="-121.406531"><ele>1104.5</ele></trkpt>
<trkpt lat="47.433056" lon="-121.406571"><ele>1103.2</ele></trkpt>
<trkpt lat="47.433032" lon="-121.406657"><ele>1101.7</ele></trkpt>
<trkpt lat="47.432728" lon="-121.406895"><ele>1099.8</ele></trkpt>
<trkpt lat="47.432135" lon="-121.407173"><ele>1091.3</ele></trkpt>
<trkpt lat="47.431802" lon="-121.407131"><ele>1085.9</ele></trkpt>
<trkpt lat="47.431417" lon="-121.407324"><ele>1082.4</ele></trkpt>
<trkpt lat="47.431171" lon="-121.407291"><ele>1078.3</ele></trkpt>
<trkpt lat="47.430898" lon="-121.407427"><ele>1072.8</ele></trkpt>
<trkpt lat="47.430135" lon="-121.407490"><ele>1065.4</ele></trkpt>
<trkpt lat="47.428697" lon="-121.406859"><ele>1047.6</ele></trkpt>
<trkpt lat="47.428346" lon="-121.406558"><ele>1042.9</ele></trkpt>
<trkpt lat="47.426441" lon="-121.405809"><ele>1022.2</ele></trkpt>
<trkpt lat="47.426005" lon="-121.405357"><ele>1019.7</ele></trkpt>
<trkpt lat="47.424528" lon="-121.405291"><ele>1001.7</ele></trkpt>
<trkpt lat="47.424068" lon="-121.405091"><ele>997.8</ele></trkpt>
<trkpt lat="47.423631" lon="-121.405040"><ele>990.8</ele></trkpt>
<trkpt lat="47.424385" lon="-121.405950"><ele>980.7</ele></trkpt>
<trkpt lat="47.424990" lon="-121.406456"><ele>974.7</ele></trkpt>
<trkpt lat="47.425268" lon="-121.406800"><ele>972.3</ele></trkpt>
<trkpt lat="47.425709" lon="-121.407135"><ele>969.0</ele></trkpt>
<trkpt lat="47.426372" lon="-121.408384"><ele>957.3</ele></trkpt>
<trkpt lat="47.426904" lon="-121.408759"><ele>954.3</ele></trkpt>
<trkpt lat="47.426931" lon="-121.409284"><ele>951.0</ele></trkpt>
<trkpt lat="47.426904" lon="-121.409490"><ele>949.2</ele></trkpt>
<trkpt lat="47.426833" lon="-121.409626"><ele>947.5</ele></trkpt>
<trkpt lat="47.426813" lon="-121.410126"><ele>945.3</ele></trkpt>
<trkpt lat="47.426862" lon="-121.410300"><ele>944.7</ele></trkpt>
<trkpt lat="47.427024" lon="-121.410429"><ele>942.1</ele></trkpt>
<trkpt lat="47.427078" lon="-121.410541"><ele>940.8</ele></trkpt>
<trkpt lat="47.427039" lon="-121.411053"><ele>937.7</ele></trkpt>
<trkpt lat="47.427075" lon="-121.411397"><ele>936.1</ele></trkpt>
<trkpt lat="47.427300" lon="-121.411611"><ele>934.4</ele></trkpt>
<trkpt lat="47.427159" lon="-121.411973"><ele>933.9</ele></trkpt>
<trkpt lat="47.427221" lon="-121.412553"><ele>933.8</ele></trkpt>
<trkpt lat="47.427495" lon="-121.413068"><ele>925.8</ele></trkpt>
<trkpt lat="47.427550" lon="-121.413077"><ele>925.7</ele></trkpt>
<trkpt lat="47.427571" lon="-121.413322"><ele>928.3</ele></trkpt>
<trkpt lat="47.427842" lon="-121.413481"><ele>926.1</ele></trkpt>
<trkpt lat="47.427896" lon="-121.413433"><ele>922.3</ele></trkpt>
<trkpt lat="47.428060" lon="-121.413547"><ele>924.3</ele></trkpt>
<trkpt lat="47.428096" lon="-121.413482"><ele>922.3</ele></trkpt>
<trkpt lat="47.428071" lon="-121.413534"><ele>941.9</ele></trkpt>
</trkseg></trk>
</gpx>
