<?xml version="1.0" encoding="UTF-8"?>
<gpx version="1.1" creator="The Lost Trailhead" xmlns="http://www.topografix.com/GPX/1/1" xmlns:xsi="http://www.w3.org/2001/XMLSchema-instance" xsi:schemaLocation="http://www.topografix.com/GPX/1/1 http://www.topografix.com/GPX/1/1/gpx.xsd">
<metadata><name>Annette Lake</name><desc>The Lost Trailhead, thelosttrailhead.com/hikes/annette-lake. Conditions change. Use at your own risk.</desc><link href="https://thelosttrailhead.com/hikes/annette-lake"><text>Annette Lake on The Lost Trailhead</text></link></metadata>
<trk><name>Annette Lake</name><link href="https://thelosttrailhead.com/hikes/annette-lake"><text>Annette Lake on The Lost Trailhead</text></link><trkseg>
<trkpt lat="47.392757" lon="-121.474260"><ele>591.6</ele></trkpt>
<trkpt lat="47.392812" lon="-121.473931"><ele>595.4</ele></trkpt>
<trkpt lat="47.392394" lon="-121.474314"><ele>600.1</ele></trkpt>
<trkpt lat="47.392188" lon="-121.474087"><ele>604.3</ele></trkpt>
<trkpt lat="47.391981" lon="-121.474026"><ele>607.7</ele></trkpt>
<trkpt lat="47.391713" lon="-121.474068"><ele>611.8</ele></trkpt>
<trkpt lat="47.391793" lon="-121.474137"><ele>614.3</ele></trkpt>
<trkpt lat="47.391458" lon="-121.474186"><ele>619.8</ele></trkpt>
<trkpt lat="47.391372" lon="-121.474288"><ele>621.3</ele></trkpt>
<trkpt lat="47.391389" lon="-121.474396"><ele>623.5</ele></trkpt>
<trkpt lat="47.391172" lon="-121.474189"><ele>628.2</ele></trkpt>
<trkpt lat="47.390893" lon="-121.474179"><ele>632.6</ele></trkpt>
<trkpt lat="47.390845" lon="-121.474130"><ele>633.5</ele></trkpt>
<trkpt lat="47.390873" lon="-121.474208"><ele>633.3</ele></trkpt>
<trkpt lat="47.390859" lon="-121.474112"><ele>633.8</ele></trkpt>
<trkpt lat="47.390698" lon="-121.473953"><ele>634.1</ele></trkpt>
<trkpt lat="47.390781" lon="-121.473739"><ele>635.5</ele></trkpt>
<trkpt lat="47.390917" lon="-121.473623"><ele>637.1</ele></trkpt>
<trkpt lat="47.390950" lon="-121.473521"><ele>637.5</ele></trkpt>
<trkpt lat="47.390844" lon="-121.473246"><ele>643.6</ele></trkpt>
<trkpt lat="47.390814" lon="-121.472832"><ele>642.5</ele></trkpt>
<trkpt lat="47.390650" lon="-121.472516"><ele>649.2</ele></trkpt>
<trkpt lat="47.390647" lon="-121.471793"><ele>656.7</ele></trkpt>
<trkpt lat="47.390589" lon="-121.471580"><ele>661.0</ele></trkpt>
<trkpt lat="47.390614" lon="-121.471523"><ele>662.0</ele></trkpt>
<trkpt lat="47.390468" lon="-121.471592"><ele>664.3</ele></trkpt>
<trkpt lat="47.390347" lon="-121.471812"><ele>664.1</ele></trkpt>
<trkpt lat="47.390220" lon="-121.472204"><ele>667.0</ele></trkpt>
<trkpt lat="47.390156" lon="-121.472236"><ele>667.8</ele></trkpt>
<trkpt lat="47.390121" lon="-121.472140"><ele>670.8</ele></trkpt>
<trkpt lat="47.390175" lon="-121.471318"><ele>677.7</ele></trkpt>
<trkpt lat="47.390147" lon="-121.471205"><ele>679.3</ele></trkpt>
<trkpt lat="47.389811" lon="-121.471828"><ele>685.6</ele></trkpt>
<trkpt lat="47.389364" lon="-121.472030"><ele>691.8</ele></trkpt>
<trkpt lat="47.389021" lon="-121.472365"><ele>695.1</ele></trkpt>
<trkpt lat="47.388857" lon="-121.472342"><ele>699.4</ele></trkpt>
<trkpt lat="47.388711" lon="-121.472027"><ele>700.6</ele></trkpt>
<trkpt lat="47.388588" lon="-121.471473"><ele>704.7</ele></trkpt>
<trkpt lat="47.388271" lon="-121.471096"><ele>710.1</ele></trkpt>
<trkpt lat="47.387459" lon="-121.470497"><ele>718.4</ele></trkpt>
<trkpt lat="47.387244" lon="-121.470543"><ele>718.4</ele></trkpt>
<trkpt lat="47.387049" lon="-121.470722"><ele>720.1</ele></trkpt>
<trkpt lat="47.386729" lon="-121.470705"><ele>721.5</ele></trkpt>
<trkpt lat="47.386696" lon="-121.470802"><ele>721.9</ele></trkpt>
<trkpt lat="47.386356" lon="-121.470546"><ele>726.7</ele></trkpt>
<trkpt lat="47.386167" lon="-121.470494"><ele>728.7</ele></trkpt>
<trkpt lat="47.385804" lon="-121.470676"><ele>732.7</ele></trkpt>
<trkpt lat="47.385677" lon="-121.470802"><ele>734.2</ele></trkpt>
<trkpt lat="47.385755" lon="-121.470597"><ele>737.6</ele></trkpt>
<trkpt lat="47.385457" lon="-121.470734"><ele>741.3</ele></trkpt>
<trkpt lat="47.385218" lon="-121.470540"><ele>744.8</ele></trkpt>
<trkpt lat="47.384937" lon="-121.470437"><ele>745.7</ele></trkpt>
<trkpt lat="47.384819" lon="-121.470442"><ele>746.0</ele></trkpt>
<trkpt lat="47.384762" lon="-121.470536"><ele>745.8</ele></trkpt>
<trkpt lat="47.384000" lon="-121.470232"><ele>753.8</ele></trkpt>
<trkpt lat="47.383812" lon="-121.470250"><ele>755.0</ele></trkpt>
<trkpt lat="47.383506" lon="-121.470148"><ele>760.5</ele></trkpt>
<trkpt lat="47.383268" lon="-121.470188"><ele>762.7</ele></trkpt>
<trkpt lat="47.382837" lon="-121.470139"><ele>768.5</ele></trkpt>
<trkpt lat="47.382757" lon="-121.470261"><ele>769.5</ele></trkpt>
<trkpt lat="47.382750" lon="-121.470215"><ele>771.5</ele></trkpt>
<trkpt lat="47.382590" lon="-121.470220"><ele>773.2</ele></trkpt>
<trkpt lat="47.382360" lon="-121.470331"><ele>776.2</ele></trkpt>
<trkpt lat="47.382096" lon="-121.470743"><ele>778.0</ele></trkpt>
<trkpt lat="47.381694" lon="-121.471022"><ele>785.4</ele></trkpt>
<trkpt lat="47.381380" lon="-121.470930"><ele>790.6</ele></trkpt>
<trkpt lat="47.381245" lon="-121.471067"><ele>794.4</ele></trkpt>
<trkpt lat="47.381010" lon="-121.471154"><ele>799.8</ele></trkpt>
<trkpt lat="47.380952" lon="-121.471261"><ele>801.6</ele></trkpt>
<trkpt lat="47.380833" lon="-121.471217"><ele>803.3</ele></trkpt>
<trkpt lat="47.380509" lon="-121.471287"><ele>809.6</ele></trkpt>
<trkpt lat="47.380180" lon="-121.471077"><ele>811.9</ele></trkpt>
<trkpt lat="47.379853" lon="-121.471318"><ele>816.0</ele></trkpt>
<trkpt lat="47.379479" lon="-121.471354"><ele>822.7</ele></trkpt>
<trkpt lat="47.379215" lon="-121.471509"><ele>826.3</ele></trkpt>
<trkpt lat="47.379224" lon="-121.471556"><ele>827.2</ele></trkpt>
<trkpt lat="47.378828" lon="-121.471501"><ele>832.6</ele></trkpt>
<trkpt lat="47.378056" lon="-121.471755"><ele>843.0</ele></trkpt>
<trkpt lat="47.377885" lon="-121.471715"><ele>848.3</ele></trkpt>
<trkpt lat="47.377790" lon="-121.471788"><ele>849.8</ele></trkpt>
<trkpt lat="47.377862" lon="-121.471787"><ele>851.0</ele></trkpt>
<trkpt lat="47.378058" lon="-121.471589"><ele>856.6</ele></trkpt>
<trkpt lat="47.378528" lon="-121.470881"><ele>865.7</ele></trkpt>
<trkpt lat="47.378854" lon="-121.470633"><ele>873.7</ele></trkpt>
<trkpt lat="47.379068" lon="-121.470261"><ele>880.8</ele></trkpt>
<trkpt lat="47.379116" lon="-121.470057"><ele>883.8</ele></trkpt>
<trkpt lat="47.379110" lon="-121.469993"><ele>885.7</ele></trkpt>
<trkpt lat="47.379019" lon="-121.469930"><ele>888.3</ele></trkpt>
<trkpt lat="47.378723" lon="-121.469918"><ele>894.7</ele></trkpt>
<trkpt lat="47.378485" lon="-121.469952"><ele>899.5</ele></trkpt>
<trkpt lat="47.378383" lon="-121.470074"><ele>901.3</ele></trkpt>
<trkpt lat="47.378958" lon="-121.469394"><ele>913.4</ele></trkpt>
<trkpt lat="47.379007" lon="-121.469260"><ele>915.6</ele></trkpt>
<trkpt lat="47.378937" lon="-121.469211"><ele>916.4</ele></trkpt>
<trkpt lat="47.378429" lon="-121.469122"><ele>928.2</ele></trkpt>
<trkpt lat="47.378230" lon="-121.469232"><ele>932.7</ele></trkpt>
<trkpt lat="47.378151" lon="-121.469208"><ele>936.4</ele></trkpt>
<trkpt lat="47.377958" lon="-121.469395"><ele>939.6</ele></trkpt>
<trkpt lat="47.378038" lon="-121.469331"><ele>941.4</ele></trkpt>
<trkpt lat="47.378274" lon="-121.468789"><ele>946.3</ele></trkpt>
<trkpt lat="47.378313" lon="-121.468644"><ele>948.6</ele></trkpt>
<trkpt lat="47.378276" lon="-121.468568"><ele>950.7</ele></trkpt>
<trkpt lat="47.378190" lon="-121.468559"><ele>952.7</ele></trkpt>
<trkpt lat="47.378073" lon="-121.468649"><ele>955.5</ele></trkpt>
<trkpt lat="47.378033" lon="-121.468714"><ele>956.4</ele></trkpt>
<trkpt lat="47.378061" lon="-121.468749"><ele>956.3</ele></trkpt>
<trkpt lat="47.378043" lon="-121.468690"><ele>956.3</ele></trkpt>
<trkpt lat="47.377874" lon="-121.468780"><ele>960.7</ele></trkpt>
<trkpt lat="47.377727" lon="-121.468914"><ele>964.4</ele></trkpt>
<trkpt lat="47.377700" lon="-121.469022"><ele>965.5</ele></trkpt>
<trkpt lat="47.378083" lon="-121.468185"><ele>972.9</ele></trkpt>
<trkpt lat="47.378106" lon="-121.468028"><ele>973.5</ele></trkpt>
<trkpt lat="47.378234" lon="-121.467832"><ele>975.5</ele></trkpt>
<trkpt lat="47.378245" lon="-121.467777"><ele>976.5</ele></trkpt>
<trkpt lat="47.378192" lon="-121.467730"><ele>977.3</ele></trkpt>
<trkpt lat="47.378068" lon="-121.467785"><ele>979.8</ele></trkpt>
<trkpt lat="47.377988" lon="-121.467956"><ele>981.7</ele></trkpt>
<trkpt lat="47.377897" lon="-121.467982"><ele>983.7</ele></trkpt>
<trkpt lat="47.377567" lon="-121.468309"><ele>992.9</ele></trkpt>
<trkpt lat="47.377226" lon="-121.468529"><ele>995.9</ele></trkpt>
<trkpt lat="47.376807" lon="-121.468576"><ele>1000.8</ele></trkpt>
<trkpt lat="47.376216" lon="-121.468929"><ele>1003.8</ele></trkpt>
<trkpt lat="47.375789" lon="-121.468862"><ele>1008.5</ele></trkpt>
<trkpt lat="47.375356" lon="-121.469125"><ele>1013.0</ele></trkpt>
<trkpt lat="47.375215" lon="-121.469154"><ele>1017.5</ele></trkpt>
<trkpt lat="47.375137" lon="-121.469253"><ele>1019.6</ele></trkpt>
<trkpt lat="47.375055" lon="-121.469519"><ele>1020.5</ele></trkpt>
<trkpt lat="47.374888" lon="-121.469701"><ele>1021.4</ele></trkpt>
<trkpt lat="47.374649" lon="-121.469868"><ele>1025.1</ele></trkpt>
<trkpt lat="47.374317" lon="-121.469998"><ele>1028.3</ele></trkpt>
<trkpt lat="47.373590" lon="-121.470609"><ele>1036.7</ele></trkpt>
<trkpt lat="47.373199" lon="-121.471163"><ele>1043.9</ele></trkpt>
<trkpt lat="47.372282" lon="-121.471831"><ele>1057.9</ele></trkpt>
<trkpt lat="47.372433" lon="-121.471595"><ele>1062.1</ele></trkpt>
<trkpt lat="47.372641" lon="-121.471037"><ele>1069.6</ele></trkpt>
<trkpt lat="47.372920" lon="-121.470532"><ele>1076.5</ele></trkpt>
<trkpt lat="47.372458" lon="-121.470781"><ele>1082.3</ele></trkpt>
<trkpt lat="47.372297" lon="-121.471006"><ele>1084.7</ele></trkpt>
<trkpt lat="47.372104" lon="-121.471136"><ele>1089.3</ele></trkpt>
<trkpt lat="47.371790" lon="-121.471071"><ele>1092.9</ele></trkpt>
<trkpt lat="47.371651" lon="-121.471204"><ele>1094.8</ele></trkpt>
<trkpt lat="47.371193" lon="-121.471414"><ele>1104.9</ele></trkpt>
<trkpt lat="47.371057" lon="-121.471531"><ele>1107.2</ele></trkpt>
<trkpt lat="47.371079" lon="-121.471603"><ele>1108.0</ele></trkpt>
<trkpt lat="47.370991" lon="-121.471591"><ele>1108.9</ele></trkpt>
<trkpt lat="47.371001" lon="-121.471659"><ele>1108.9</ele></trkpt>
<trkpt lat="47.370861" lon="-121.471631"><ele>1112.6</ele></trkpt>
<trkpt lat="47.370661" lon="-121.471746"><ele>1115.1</ele></trkpt>
<trkpt lat="47.370294" lon="-121.471760"><ele>1123.1</ele></trkpt>
<trkpt lat="47.370104" lon="-121.471844"><ele>1125.4</ele></trkpt>
<trkpt lat="47.369746" lon="-121.472154"><ele>1127.3</ele></trkpt>
<trkpt lat="47.369656" lon="-121.472313"><ele>1125.9</ele></trkpt>
<trkpt lat="47.368917" lon="-121.472656"><ele>1126.3</ele></trkpt>
<trkpt lat="47.368567" lon="-121.473048"><ele>1120.3</ele></trkpt>
<trkpt lat="47.368083" lon="-121.473427"><ele>1114.6</ele></trkpt>
<trkpt lat="47.367448" lon="-121.473553"><ele>1112.5</ele></trkpt>
<trkpt lat="47.367098" lon="-121.473750"><ele>1109.5</ele></trkpt>
<trkpt lat="47.366505" lon="-121.473903"><ele>1105.7</ele></trkpt>
<trkpt lat="47.366073" lon="-121.474163"><ele>1102.4</ele></trkpt>
<trkpt lat="47.365517" lon="-121.474715"><ele>1099.2</ele></trkpt>
<trkpt lat="47.365131" lon="-121.474997"><ele>1098.2</ele></trkpt>
<trkpt lat="47.364729" lon="-121.475155"><ele>1098.3</ele></trkpt>
<trkpt lat="47.364032" lon="-121.475641"><ele>1105.2</ele></trkpt>
<trkpt lat="47.363553" lon="-121.476239"><ele>1106.0</ele></trkpt>
<trkpt lat="47.363100" lon="-121.476275"><ele>1108.6</ele></trkpt>
<trkpt lat="47.362172" lon="-121.475950"><ele>1112.0</ele></trkpt>
<trkpt lat="47.360965" lon="-121.475429"><ele>1110.6</ele></trkpt>
<trkpt lat="47.360787" lon="-121.475155"><ele>1108.4</ele></trkpt>
<trkpt lat="47.360552" lon="-121.474963"><ele>1107.6</ele></trkpt>
<trkpt lat="47.360354" lon="-121.475190"><ele>1106.2</ele></trkpt>
<trkpt lat="47.360328" lon="-121.475439"><ele>1106.0</ele></trkpt>
<trkpt lat="47.360281" lon="-121.475472"><ele>1104.9</ele></trkpt>
<trkpt lat="47.360104" lon="-121.475950"><ele>1107.1</ele></trkpt>
<trkpt lat="47.359887" lon="-121.476187"><ele>1106.6</ele></trkpt>
<trkpt lat="47.359698" lon="-121.476266"><ele>1105.4</ele></trkpt>
<trkpt lat="47.359634" lon="-121.476227"><ele>1104.3</ele></trkpt>
<trkpt lat="47.359659" lon="-121.476308"><ele>1104.3</ele></trkpt>
<trkpt lat="47.359570" lon="-121.476365"><ele>1105.0</ele></trkpt>
<trkpt lat="47.359539" lon="-121.476297"><ele>1103.5</ele></trkpt>
<trkpt lat="47.359570" lon="-121.476365"><ele>1105.0</ele></trkpt>
<trkpt lat="47.359659" lon="-121.476308"><ele>1104.3</ele></trkpt>
<trkpt lat="47.359634" lon="-121.476227"><ele>1104.3</ele></trkpt>
<trkpt lat="47.359698" lon="-121.476266"><ele>1105.4</ele></trkpt>
<trkpt lat="47.359887" lon="-121.476187"><ele>1106.6</ele></trkpt>
<trkpt lat="47.360104" lon="-121.475950"><ele>1107.1</ele></trkpt>
<trkpt lat="47.360281" lon="-121.475472"><ele>1104.9</ele></trkpt>
<trkpt lat="47.360328" lon="-121.475439"><ele>1106.0</ele></trkpt>
<trkpt lat="47.360354" lon="-121.475190"><ele>1106.2</ele></trkpt>
<trkpt lat="47.360552" lon="-121.474963"><ele>1107.6</ele></trkpt>
<trkpt lat="47.360787" lon="-121.475155"><ele>1108.4</ele></trkpt>
<trkpt lat="47.360965" lon="-121.475429"><ele>1110.6</ele></trkpt>
<trkpt lat="47.362172" lon="-121.475950"><ele>1112.0</ele></trkpt>
<trkpt lat="47.363100" lon="-121.476275"><ele>1108.6</ele></trkpt>
<trkpt lat="47.363553" lon="-121.476239"><ele>1106.0</ele></trkpt>
<trkpt lat="47.364032" lon="-121.475641"><ele>1105.2</ele></trkpt>
<trkpt lat="47.364729" lon="-121.475155"><ele>1098.3</ele></trkpt>
<trkpt lat="47.365131" lon="-121.474997"><ele>1098.2</ele></trkpt>
<trkpt lat="47.365517" lon="-121.474715"><ele>1099.2</ele></trkpt>
<trkpt lat="47.366073" lon="-121.474163"><ele>1102.4</ele></trkpt>
<trkpt lat="47.366505" lon="-121.473903"><ele>1105.7</ele></trkpt>
<trkpt lat="47.367098" lon="-121.473750"><ele>1109.5</ele></trkpt>
<trkpt lat="47.367448" lon="-121.473553"><ele>1112.5</ele></trkpt>
<trkpt lat="47.368083" lon="-121.473427"><ele>1114.6</ele></trkpt>
<trkpt lat="47.368567" lon="-121.473048"><ele>1120.3</ele></trkpt>
<trkpt lat="47.368917" lon="-121.472656"><ele>1126.3</ele></trkpt>
<trkpt lat="47.369656" lon="-121.472313"><ele>1125.9</ele></trkpt>
<trkpt lat="47.369746" lon="-121.472154"><ele>1127.3</ele></trkpt>
<trkpt lat="47.370104" lon="-121.471844"><ele>1125.4</ele></trkpt>
<trkpt lat="47.370294" lon="-121.471760"><ele>1123.1</ele></trkpt>
<trkpt lat="47.370661" lon="-121.471746"><ele>1115.1</ele></trkpt>
<trkpt lat="47.370861" lon="-121.471631"><ele>1112.6</ele></trkpt>
<trkpt lat="47.371001" lon="-121.471659"><ele>1108.9</ele></trkpt>
<trkpt lat="47.370991" lon="-121.471591"><ele>1108.9</ele></trkpt>
<trkpt lat="47.371079" lon="-121.471603"><ele>1108.0</ele></trkpt>
<trkpt lat="47.371057" lon="-121.471531"><ele>1107.2</ele></trkpt>
<trkpt lat="47.371193" lon="-121.471414"><ele>1104.9</ele></trkpt>
<trkpt lat="47.371651" lon="-121.471204"><ele>1094.8</ele></trkpt>
<trkpt lat="47.371790" lon="-121.471071"><ele>1092.9</ele></trkpt>
<trkpt lat="47.372104" lon="-121.471136"><ele>1089.3</ele></trkpt>
<trkpt lat="47.372297" lon="-121.471006"><ele>1084.7</ele></trkpt>
<trkpt lat="47.372458" lon="-121.470781"><ele>1082.3</ele></trkpt>
<trkpt lat="47.372920" lon="-121.470532"><ele>1076.5</ele></trkpt>
<trkpt lat="47.372641" lon="-121.471037"><ele>1069.6</ele></trkpt>
<trkpt lat="47.372433" lon="-121.471595"><ele>1062.1</ele></trkpt>
<trkpt lat="47.372282" lon="-121.471831"><ele>1057.9</ele></trkpt>
<trkpt lat="47.373199" lon="-121.471163"><ele>1043.9</ele></trkpt>
<trkpt lat="47.373590" lon="-121.470609"><ele>1036.7</ele></trkpt>
<trkpt lat="47.374317" lon="-121.469998"><ele>1028.3</ele></trkpt>
<trkpt lat="47.374649" lon="-121.469868"><ele>1025.1</ele></trkpt>
<trkpt lat="47.374888" lon="-121.469701"><ele>1021.4</ele></trkpt>
<trkpt lat="47.375055" lon="-121.469519"><ele>1020.5</ele></trkpt>
<trkpt lat="47.375137" lon="-121.469253"><ele>1019.6</ele></trkpt>
<trkpt lat="47.375215" lon="-121.469154"><ele>1017.5</ele></trkpt>
<trkpt lat="47.375356" lon="-121.469125"><ele>1013.0</ele></trkpt>
<trkpt lat="47.375789" lon="-121.468862"><ele>1008.5</ele></trkpt>
<trkpt lat="47.376216" lon="-121.468929"><ele>1003.8</ele></trkpt>
<trkpt lat="47.376807" lon="-121.468576"><ele>1000.8</ele></trkpt>
<trkpt lat="47.377226" lon="-121.468529"><ele>995.9</ele></trkpt>
<trkpt lat="47.377567" lon="-121.468309"><ele>992.9</ele></trkpt>
<trkpt lat="47.377897" lon="-121.467982"><ele>983.7</ele></trkpt>
<trkpt lat="47.377988" lon="-121.467956"><ele>981.7</ele></trkpt>
<trkpt lat="47.378068" lon="-121.467785"><ele>979.8</ele></trkpt>
<trkpt lat="47.378192" lon="-121.467730"><ele>977.3</ele></trkpt>
<trkpt lat="47.378245" lon="-121.467777"><ele>976.5</ele></trkpt>
<trkpt lat="47.378234" lon="-121.467832"><ele>975.5</ele></trkpt>
<trkpt lat="47.378106" lon="-121.468028"><ele>973.5</ele></trkpt>
<trkpt lat="47.378083" lon="-121.468185"><ele>972.9</ele></trkpt>
<trkpt lat="47.377700" lon="-121.469022"><ele>965.5</ele></trkpt>
<trkpt lat="47.377727" lon="-121.468914"><ele>964.4</ele></trkpt>
<trkpt lat="47.377874" lon="-121.468780"><ele>960.7</ele></trkpt>
<trkpt lat="47.378043" lon="-121.468690"><ele>956.3</ele></trkpt>
<trkpt lat="47.378061" lon="-121.468749"><ele>956.3</ele></trkpt>
<trkpt lat="47.378033" lon="-121.468714"><ele>956.4</ele></trkpt>
<trkpt lat="47.378073" lon="-121.468649"><ele>955.5</ele></trkpt>
<trkpt lat="47.378190" lon="-121.468559"><ele>952.7</ele></trkpt>
<trkpt lat="47.378276" lon="-121.468568"><ele>950.7</ele></trkpt>
<trkpt lat="47.378313" lon="-121.468644"><ele>948.6</ele></trkpt>
<trkpt lat="47.378274" lon="-121.468789"><ele>946.3</ele></trkpt>
<trkpt lat="47.378038" lon="-121.469331"><ele>941.4</ele></trkpt>
<trkpt lat="47.377958" lon="-121.469395"><ele>939.6</ele></trkpt>
<trkpt lat="47.378151" lon="-121.469208"><ele>936.4</ele></trkpt>
<trkpt lat="47.378230" lon="-121.469232"><ele>932.7</ele></trkpt>
<trkpt lat="47.378429" lon="-121.469122"><ele>928.2</ele></trkpt>
<trkpt lat="47.378937" lon="-121.469211"><ele>916.4</ele></trkpt>
<trkpt lat="47.379007" lon="-121.469260"><ele>915.6</ele></trkpt>
<trkpt lat="47.378958" lon="-121.469394"><ele>913.4</ele></trkpt>
<trkpt lat="47.378383" lon="-121.470074"><ele>901.3</ele></trkpt>
<trkpt lat="47.378485" lon="-121.469952"><ele>899.5</ele></trkpt>
<trkpt lat="47.378723" lon="-121.469918"><ele>894.7</ele></trkpt>
<trkpt lat="47.379019" lon="-121.469930"><ele>888.3</ele></trkpt>
<trkpt lat="47.379110" lon="-121.469993"><ele>885.7</ele></trkpt>
<trkpt lat="47.379116" lon="-121.470057"><ele>883.8</ele></trkpt>
<trkpt lat="47.379068" lon="-121.470261"><ele>880.8</ele></trkpt>
<trkpt lat="47.378854" lon="-121.470633"><ele>873.7</ele></trkpt>
<trkpt lat="47.378528" lon="-121.470881"><ele>865.7</ele></trkpt>
<trkpt lat="47.378058" lon="-121.471589"><ele>856.6</ele></trkpt>
<trkpt lat="47.377862" lon="-121.471787"><ele>851.0</ele></trkpt>
<trkpt lat="47.377790" lon="-121.471788"><ele>849.8</ele></trkpt>
<trkpt lat="47.377885" lon="-121.471715"><ele>848.3</ele></trkpt>
<trkpt lat="47.378056" lon="-121.471755"><ele>843.0</ele></trkpt>
<trkpt lat="47.378828" lon="-121.471501"><ele>832.6</ele></trkpt>
<trkpt lat="47.379224" lon="-121.471556"><ele>827.2</ele></trkpt>
<trkpt lat="47.379215" lon="-121.471509"><ele>826.3</ele></trkpt>
<trkpt lat="47.379479" lon="-121.471354"><ele>822.7</ele></trkpt>
<trkpt lat="47.379853" lon="-121.471318"><ele>816.0</ele></trkpt>
<trkpt lat="47.380180" lon="-121.471077"><ele>811.9</ele></trkpt>
<trkpt lat="47.380509" lon="-121.471287"><ele>809.6</ele></trkpt>
<trkpt lat="47.380833" lon="-121.471217"><ele>803.3</ele></trkpt>
<trkpt lat="47.380952" lon="-121.471261"><ele>801.6</ele></trkpt>
<trkpt lat="47.381010" lon="-121.471154"><ele>799.8</ele></trkpt>
<trkpt lat="47.381245" lon="-121.471067"><ele>794.4</ele></trkpt>
<trkpt lat="47.381380" lon="-121.470930"><ele>790.6</ele></trkpt>
<trkpt lat="47.381694" lon="-121.471022"><ele>785.4</ele></trkpt>
<trkpt lat="47.382096" lon="-121.470743"><ele>778.0</ele></trkpt>
<trkpt lat="47.382360" lon="-121.470331"><ele>776.2</ele></trkpt>
<trkpt lat="47.382590" lon="-121.470220"><ele>773.2</ele></trkpt>
<trkpt lat="47.382750" lon="-121.470215"><ele>771.5</ele></trkpt>
<trkpt lat="47.382757" lon="-121.470261"><ele>769.5</ele></trkpt>
<trkpt lat="47.382837" lon="-121.470139"><ele>768.5</ele></trkpt>
<trkpt lat="47.383268" lon="-121.470188"><ele>762.7</ele></trkpt>
<trkpt lat="47.383506" lon="-121.470148"><ele>760.5</ele></trkpt>
<trkpt lat="47.383812" lon="-121.470250"><ele>755.0</ele></trkpt>
<trkpt lat="47.384000" lon="-121.470232"><ele>753.8</ele></trkpt>
<trkpt lat="47.384762" lon="-121.470536"><ele>745.8</ele></trkpt>
<trkpt lat="47.384819" lon="-121.470442"><ele>746.0</ele></trkpt>
<trkpt lat="47.384937" lon="-121.470437"><ele>745.7</ele></trkpt>
<trkpt lat="47.385218" lon="-121.470540"><ele>744.8</ele></trkpt>
<trkpt lat="47.385457" lon="-121.470734"><ele>741.3</ele></trkpt>
<trkpt lat="47.385755" lon="-121.470597"><ele>737.6</ele></trkpt>
<trkpt lat="47.385677" lon="-121.470802"><ele>734.2</ele></trkpt>
<trkpt lat="47.385804" lon="-121.470676"><ele>732.7</ele></trkpt>
<trkpt lat="47.386167" lon="-121.470494"><ele>728.7</ele></trkpt>
<trkpt lat="47.386356" lon="-121.470546"><ele>726.7</ele></trkpt>
<trkpt lat="47.386696" lon="-121.470802"><ele>721.9</ele></trkpt>
<trkpt lat="47.386729" lon="-121.470705"><ele>721.5</ele></trkpt>
<trkpt lat="47.387049" lon="-121.470722"><ele>720.1</ele></trkpt>
<trkpt lat="47.387244" lon="-121.470543"><ele>718.4</ele></trkpt>
<trkpt lat="47.387459" lon="-121.470497"><ele>718.4</ele></trkpt>
<trkpt lat="47.388271" lon="-121.471096"><ele>710.1</ele></trkpt>
<trkpt lat="47.388588" lon="-121.471473"><ele>704.7</ele></trkpt>
<trkpt lat="47.388711" lon="-121.472027"><ele>700.6</ele></trkpt>
<trkpt lat="47.388857" lon="-121.472342"><ele>699.4</ele></trkpt>
<trkpt lat="47.389021" lon="-121.472365"><ele>695.1</ele></trkpt>
<trkpt lat="47.389364" lon="-121.472030"><ele>691.8</ele></trkpt>
<trkpt lat="47.389811" lon="-121.471828"><ele>685.6</ele></trkpt>
<trkpt lat="47.390147" lon="-121.471205"><ele>679.3</ele></trkpt>
<trkpt lat="47.390175" lon="-121.471318"><ele>677.7</ele></trkpt>
<trkpt lat="47.390121" lon="-121.472140"><ele>670.8</ele></trkpt>
<trkpt lat="47.390156" lon="-121.472236"><ele>667.8</ele></trkpt>
<trkpt lat="47.390220" lon="-121.472204"><ele>667.0</ele></trkpt>
<trkpt lat="47.390347" lon="-121.471812"><ele>664.1</ele></trkpt>
<trkpt lat="47.390468" lon="-121.471592"><ele>664.3</ele></trkpt>
<trkpt lat="47.390614" lon="-121.471523"><ele>662.0</ele></trkpt>
<trkpt lat="47.390589" lon="-121.471580"><ele>661.0</ele></trkpt>
<trkpt lat="47.390647" lon="-121.471793"><ele>656.7</ele></trkpt>
<trkpt lat="47.390650" lon="-121.472516"><ele>649.2</ele></trkpt>
<trkpt lat="47.390814" lon="-121.472832"><ele>642.5</ele></trkpt>
<trkpt lat="47.390844" lon="-121.473246"><ele>643.6</ele></trkpt>
<trkpt lat="47.390950" lon="-121.473521"><ele>637.5</ele></trkpt>
<trkpt lat="47.390917" lon="-121.473623"><ele>637.1</ele></trkpt>
<trkpt lat="47.390781" lon="-121.473739"><ele>635.5</ele></trkpt>
<trkpt lat="47.390698" lon="-121.473953"><ele>634.1</ele></trkpt>
<trkpt lat="47.390859" lon="-121.474112"><ele>633.8</ele></trkpt>
<trkpt lat="47.390873" lon="-121.474208"><ele>633.3</ele></trkpt>
<trkpt lat="47.390845" lon="-121.474130"><ele>633.5</ele></trkpt>
<trkpt lat="47.390893" lon="-121.474179"><ele>632.6</ele></trkpt>
<trkpt lat="47.391172" lon="-121.474189"><ele>628.2</ele></trkpt>
<trkpt lat="47.391389" lon="-121.474396"><ele>623.5</ele></trkpt>
<trkpt lat="47.391372" lon="-121.474288"><ele>621.3</ele></trkpt>
<trkpt lat="47.391458" lon="-121.474186"><ele>619.8</ele></trkpt>
<trkpt lat="47.391793" lon="-121.474137"><ele>614.3</ele></trkpt>
<trkpt lat="47.391713" lon="-121.474068"><ele>611.8</ele></trkpt>
<trkpt lat="47.391981" lon="-121.474026"><ele>607.7</ele></trkpt>
<trkpt lat="47.392188" lon="-121.474087"><ele>604.3</ele></trkpt>
<trkpt lat="47.392394" lon="-121.474314"><ele>600.1</ele></trkpt>
<trkpt lat="47.392812" lon="-121.473931"><ele>595.4</ele></trkpt>
<trkpt lat="47.392757" lon="-121.474260"><ele>591.6</ele></trkpt>
</trkseg></trk>
</gpx>
