<?xml version="1.0" encoding="UTF-8"?>
<gpx version="1.1" creator="The Lost Trailhead" xmlns="http://www.topografix.com/GPX/1/1" xmlns:xsi="http://www.w3.org/2001/XMLSchema-instance" xsi:schemaLocation="http://www.topografix.com/GPX/1/1 http://www.topografix.com/GPX/1/1/gpx.xsd">
<metadata><name>Mt. Si — Winter</name><desc>The Lost Trailhead, thelosttrailhead.com/hikes/mt-si-winter. Conditions change. Use at your own risk.</desc><link href="https://thelosttrailhead.com/hikes/mt-si-winter"><text>Mt. Si — Winter on The Lost Trailhead</text></link></metadata>
<trk><name>Mt. Si — Winter</name><link href="https://thelosttrailhead.com/hikes/mt-si-winter"><text>Mt. Si — Winter on The Lost Trailhead</text></link><trkseg>
<trkpt lat="47.488047" lon="-121.723127"><ele>207.5</ele></trkpt>
<trkpt lat="47.488668" lon="-121.723220"><ele>208.3</ele></trkpt>
<trkpt lat="47.488987" lon="-121.722983"><ele>210.5</ele></trkpt>
<trkpt lat="47.489205" lon="-121.723183"><ele>211.8</ele></trkpt>
<trkpt lat="47.489351" lon="-121.723231"><ele>213.1</ele></trkpt>
<trkpt lat="47.489668" lon="-121.723073"><ele>218.5</ele></trkpt>
<trkpt lat="47.489781" lon="-121.723220"><ele>224.0</ele></trkpt>
<trkpt lat="47.489833" lon="-121.723738"><ele>231.7</ele></trkpt>
<trkpt lat="47.489887" lon="-121.723810"><ele>233.0</ele></trkpt>
<trkpt lat="47.490152" lon="-121.723400"><ele>240.5</ele></trkpt>
<trkpt lat="47.490282" lon="-121.722988"><ele>241.5</ele></trkpt>
<trkpt lat="47.490376" lon="-121.722911"><ele>236.2</ele></trkpt>
<trkpt lat="47.490628" lon="-121.723654"><ele>257.5</ele></trkpt>
<trkpt lat="47.490880" lon="-121.723845"><ele>267.0</ele></trkpt>
<trkpt lat="47.490993" lon="-121.724042"><ele>269.0</ele></trkpt>
<trkpt lat="47.491032" lon="-121.725928"><ele>285.2</ele></trkpt>
<trkpt lat="47.490999" lon="-121.726865"><ele>292.2</ele></trkpt>
<trkpt lat="47.491073" lon="-121.726913"><ele>289.9</ele></trkpt>
<trkpt lat="47.491140" lon="-121.726806"><ele>289.3</ele></trkpt>
<trkpt lat="47.491204" lon="-121.726798"><ele>296.4</ele></trkpt>
<trkpt lat="47.491394" lon="-121.727462"><ele>312.4</ele></trkpt>
<trkpt lat="47.491482" lon="-121.728189"><ele>322.9</ele></trkpt>
<trkpt lat="47.491538" lon="-121.728320"><ele>330.5</ele></trkpt>
<trkpt lat="47.491688" lon="-121.728398"><ele>341.2</ele></trkpt>
<trkpt lat="47.491704" lon="-121.728458"><ele>340.9</ele></trkpt>
<trkpt lat="47.491826" lon="-121.728290"><ele>345.5</ele></trkpt>
<trkpt lat="47.491933" lon="-121.727973"><ele>349.8</ele></trkpt>
<trkpt lat="47.492206" lon="-121.727742"><ele>354.2</ele></trkpt>
<trkpt lat="47.492520" lon="-121.727035"><ele>366.4</ele></trkpt>
<trkpt lat="47.492692" lon="-121.726872"><ele>371.5</ele></trkpt>
<trkpt lat="47.492625" lon="-121.727542"><ele>376.9</ele></trkpt>
<trkpt lat="47.492654" lon="-121.727788"><ele>380.8</ele></trkpt>
<trkpt lat="47.492724" lon="-121.728044"><ele>388.3</ele></trkpt>
<trkpt lat="47.492887" lon="-121.728136"><ele>396.0</ele></trkpt>
<trkpt lat="47.492993" lon="-121.728376"><ele>398.1</ele></trkpt>
<trkpt lat="47.493070" lon="-121.728883"><ele>402.7</ele></trkpt>
<trkpt lat="47.493107" lon="-121.729564"><ele>412.8</ele></trkpt>
<trkpt lat="47.493321" lon="-121.730212"><ele>414.5</ele></trkpt>
<trkpt lat="47.493351" lon="-121.730564"><ele>425.7</ele></trkpt>
<trkpt lat="47.493327" lon="-121.731031"><ele>432.2</ele></trkpt>
<trkpt lat="47.493241" lon="-121.731461"><ele>432.3</ele></trkpt>
<trkpt lat="47.493170" lon="-121.732591"><ele>444.3</ele></trkpt>
<trkpt lat="47.493032" lon="-121.733297"><ele>452.4</ele></trkpt>
<trkpt lat="47.492778" lon="-121.734000"><ele>461.9</ele></trkpt>
<trkpt lat="47.492200" lon="-121.735127"><ele>469.8</ele></trkpt>
<trkpt lat="47.492143" lon="-121.735405"><ele>472.2</ele></trkpt>
<trkpt lat="47.492140" lon="-121.735363"><ele>474.0</ele></trkpt>
<trkpt lat="47.492046" lon="-121.735373"><ele>473.4</ele></trkpt>
<trkpt lat="47.492131" lon="-121.735423"><ele>471.3</ele></trkpt>
<trkpt lat="47.492324" lon="-121.736027"><ele>482.4</ele></trkpt>
<trkpt lat="47.492477" lon="-121.736751"><ele>493.4</ele></trkpt>
<trkpt lat="47.492626" lon="-121.736408"><ele>503.1</ele></trkpt>
<trkpt lat="47.492732" lon="-121.735575"><ele>508.7</ele></trkpt>
<trkpt lat="47.492940" lon="-121.735197"><ele>514.0</ele></trkpt>
<trkpt lat="47.493128" lon="-121.735108"><ele>523.1</ele></trkpt>
<trkpt lat="47.493298" lon="-121.735195"><ele>525.0</ele></trkpt>
<trkpt lat="47.493456" lon="-121.735403"><ele>534.2</ele></trkpt>
<trkpt lat="47.493496" lon="-121.735528"><ele>535.3</ele></trkpt>
<trkpt lat="47.493394" lon="-121.735603"><ele>529.6</ele></trkpt>
<trkpt lat="47.493487" lon="-121.735732"><ele>535.8</ele></trkpt>
<trkpt lat="47.494427" lon="-121.734354"><ele>560.6</ele></trkpt>
<trkpt lat="47.495018" lon="-121.733081"><ele>578.0</ele></trkpt>
<trkpt lat="47.495492" lon="-121.732196"><ele>592.4</ele></trkpt>
<trkpt lat="47.495681" lon="-121.731935"><ele>596.6</ele></trkpt>
<trkpt lat="47.495913" lon="-121.731824"><ele>606.4</ele></trkpt>
<trkpt lat="47.495953" lon="-121.731747"><ele>598.6</ele></trkpt>
<trkpt lat="47.495939" lon="-121.731786"><ele>602.6</ele></trkpt>
<trkpt lat="47.496198" lon="-121.731793"><ele>614.1</ele></trkpt>
<trkpt lat="47.496796" lon="-121.731379"><ele>627.2</ele></trkpt>
<trkpt lat="47.496884" lon="-121.731447"><ele>629.6</ele></trkpt>
<trkpt lat="47.496852" lon="-121.731496"><ele>631.6</ele></trkpt>
<trkpt lat="47.496955" lon="-121.731919"><ele>639.5</ele></trkpt>
<trkpt lat="47.496677" lon="-121.732822"><ele>636.4</ele></trkpt>
<trkpt lat="47.496650" lon="-121.733098"><ele>644.2</ele></trkpt>
<trkpt lat="47.496705" lon="-121.733206"><ele>641.1</ele></trkpt>
<trkpt lat="47.496574" lon="-121.733781"><ele>642.7</ele></trkpt>
<trkpt lat="47.496575" lon="-121.733945"><ele>644.2</ele></trkpt>
<trkpt lat="47.496661" lon="-121.734012"><ele>647.2</ele></trkpt>
<trkpt lat="47.496757" lon="-121.733954"><ele>648.6</ele></trkpt>
<trkpt lat="47.496883" lon="-121.733695"><ele>655.4</ele></trkpt>
<trkpt lat="47.496939" lon="-121.733679"><ele>659.6</ele></trkpt>
<trkpt lat="47.497231" lon="-121.733070"><ele>666.3</ele></trkpt>
<trkpt lat="47.497449" lon="-121.732890"><ele>666.8</ele></trkpt>
<trkpt lat="47.497000" lon="-121.734775"><ele>687.8</ele></trkpt>
<trkpt lat="47.497013" lon="-121.735019"><ele>689.0</ele></trkpt>
<trkpt lat="47.496795" lon="-121.736623"><ele>718.2</ele></trkpt>
<trkpt lat="47.496788" lon="-121.736864"><ele>721.9</ele></trkpt>
<trkpt lat="47.496867" lon="-121.737213"><ele>726.0</ele></trkpt>
<trkpt lat="47.496951" lon="-121.737154"><ele>735.2</ele></trkpt>
<trkpt lat="47.497046" lon="-121.736789"><ele>739.5</ele></trkpt>
<trkpt lat="47.497222" lon="-121.736372"><ele>748.8</ele></trkpt>
<trkpt lat="47.497550" lon="-121.735838"><ele>759.1</ele></trkpt>
<trkpt lat="47.497887" lon="-121.735096"><ele>763.3</ele></trkpt>
<trkpt lat="47.498230" lon="-121.735078"><ele>771.3</ele></trkpt>
<trkpt lat="47.498480" lon="-121.735199"><ele>774.7</ele></trkpt>
<trkpt lat="47.498145" lon="-121.735357"><ele>783.5</ele></trkpt>
<trkpt lat="47.497964" lon="-121.735684"><ele>784.9</ele></trkpt>
<trkpt lat="47.497788" lon="-121.736411"><ele>795.4</ele></trkpt>
<trkpt lat="47.497822" lon="-121.736439"><ele>795.1</ele></trkpt>
<trkpt lat="47.497675" lon="-121.736755"><ele>800.5</ele></trkpt>
<trkpt lat="47.497694" lon="-121.737215"><ele>805.4</ele></trkpt>
<trkpt lat="47.497781" lon="-121.737405"><ele>804.9</ele></trkpt>
<trkpt lat="47.497798" lon="-121.737261"><ele>804.7</ele></trkpt>
<trkpt lat="47.497832" lon="-121.737365"><ele>806.3</ele></trkpt>
<trkpt lat="47.497791" lon="-121.737426"><ele>810.3</ele></trkpt>
<trkpt lat="47.497815" lon="-121.736906"><ele>810.6</ele></trkpt>
<trkpt lat="47.498236" lon="-121.736506"><ele>825.9</ele></trkpt>
<trkpt lat="47.498313" lon="-121.736490"><ele>826.9</ele></trkpt>
<trkpt lat="47.498372" lon="-121.736552"><ele>827.1</ele></trkpt>
<trkpt lat="47.498261" lon="-121.736612"><ele>828.9</ele></trkpt>
<trkpt lat="47.498149" lon="-121.736793"><ele>831.4</ele></trkpt>
<trkpt lat="47.498135" lon="-121.736917"><ele>833.5</ele></trkpt>
<trkpt lat="47.498178" lon="-121.736965"><ele>833.6</ele></trkpt>
<trkpt lat="47.498330" lon="-121.736863"><ele>839.2</ele></trkpt>
<trkpt lat="47.498491" lon="-121.737127"><ele>846.8</ele></trkpt>
<trkpt lat="47.498674" lon="-121.737171"><ele>852.4</ele></trkpt>
<trkpt lat="47.498582" lon="-121.737254"><ele>851.8</ele></trkpt>
<trkpt lat="47.498399" lon="-121.737208"><ele>851.8</ele></trkpt>
<trkpt lat="47.498349" lon="-121.737290"><ele>851.0</ele></trkpt>
<trkpt lat="47.498530" lon="-121.737484"><ele>858.6</ele></trkpt>
<trkpt lat="47.498753" lon="-121.737490"><ele>865.6</ele></trkpt>
<trkpt lat="47.498570" lon="-121.737620"><ele>867.5</ele></trkpt>
<trkpt lat="47.498538" lon="-121.737697"><ele>868.6</ele></trkpt>
<trkpt lat="47.498565" lon="-121.737749"><ele>870.9</ele></trkpt>
<trkpt lat="47.499277" lon="-121.737745"><ele>890.0</ele></trkpt>
<trkpt lat="47.499506" lon="-121.737684"><ele>897.3</ele></trkpt>
<trkpt lat="47.499705" lon="-121.737546"><ele>893.6</ele></trkpt>
<trkpt lat="47.499718" lon="-121.737590"><ele>890.4</ele></trkpt>
<trkpt lat="47.499400" lon="-121.738015"><ele>903.9</ele></trkpt>
<trkpt lat="47.498923" lon="-121.738420"><ele>911.0</ele></trkpt>
<trkpt lat="47.498885" lon="-121.738884"><ele>915.7</ele></trkpt>
<trkpt lat="47.498933" lon="-121.739003"><ele>917.9</ele></trkpt>
<trkpt lat="47.498985" lon="-121.738997"><ele>919.4</ele></trkpt>
<trkpt lat="47.499038" lon="-121.738841"><ele>921.0</ele></trkpt>
<trkpt lat="47.499143" lon="-121.738737"><ele>925.0</ele></trkpt>
<trkpt lat="47.499859" lon="-121.738673"><ele>942.8</ele></trkpt>
<trkpt lat="47.500066" lon="-121.738553"><ele>946.8</ele></trkpt>
<trkpt lat="47.500252" lon="-121.738532"><ele>950.4</ele></trkpt>
<trkpt lat="47.500390" lon="-121.738620"><ele>951.4</ele></trkpt>
<trkpt lat="47.500688" lon="-121.738975"><ele>964.9</ele></trkpt>
<trkpt lat="47.501039" lon="-121.738988"><ele>971.7</ele></trkpt>
<trkpt lat="47.500814" lon="-121.739227"><ele>978.5</ele></trkpt>
<trkpt lat="47.500315" lon="-121.739412"><ele>986.0</ele></trkpt>
<trkpt lat="47.500165" lon="-121.739621"><ele>987.8</ele></trkpt>
<trkpt lat="47.500185" lon="-121.739755"><ele>989.2</ele></trkpt>
<trkpt lat="47.500335" lon="-121.739778"><ele>994.3</ele></trkpt>
<trkpt lat="47.500875" lon="-121.740068"><ele>1009.1</ele></trkpt>
<trkpt lat="47.501298" lon="-121.739923"><ele>1014.3</ele></trkpt>
<trkpt lat="47.501731" lon="-121.740006"><ele>1024.8</ele></trkpt>
<trkpt lat="47.501952" lon="-121.739919"><ele>1023.4</ele></trkpt>
<trkpt lat="47.501969" lon="-121.739866"><ele>1024.7</ele></trkpt>
<trkpt lat="47.502146" lon="-121.739873"><ele>1027.2</ele></trkpt>
<trkpt lat="47.502406" lon="-121.739773"><ele>1033.2</ele></trkpt>
<trkpt lat="47.502552" lon="-121.739661"><ele>1040.0</ele></trkpt>
<trkpt lat="47.502918" lon="-121.739033"><ele>1052.5</ele></trkpt>
<trkpt lat="47.503097" lon="-121.738535"><ele>1056.6</ele></trkpt>
<trkpt lat="47.503462" lon="-121.738268"><ele>1066.4</ele></trkpt>
<trkpt lat="47.503556" lon="-121.738023"><ele>1071.0</ele></trkpt>
<trkpt lat="47.503692" lon="-121.737922"><ele>1073.1</ele></trkpt>
<trkpt lat="47.503708" lon="-121.737854"><ele>1075.2</ele></trkpt>
<trkpt lat="47.503846" lon="-121.737844"><ele>1077.5</ele></trkpt>
<trkpt lat="47.503690" lon="-121.738103"><ele>1081.2</ele></trkpt>
<trkpt lat="47.503621" lon="-121.738629"><ele>1089.1</ele></trkpt>
<trkpt lat="47.503507" lon="-121.738985"><ele>1096.4</ele></trkpt>
<trkpt lat="47.503405" lon="-121.740489"><ele>1112.7</ele></trkpt>
<trkpt lat="47.503438" lon="-121.740617"><ele>1114.9</ele></trkpt>
<trkpt lat="47.503660" lon="-121.740576"><ele>1119.9</ele></trkpt>
<trkpt lat="47.503759" lon="-121.740252"><ele>1125.5</ele></trkpt>
<trkpt lat="47.503819" lon="-121.740183"><ele>1128.0</ele></trkpt>
<trkpt lat="47.503869" lon="-121.740686"><ele>1129.7</ele></trkpt>
<trkpt lat="47.504079" lon="-121.740736"><ele>1137.5</ele></trkpt>
<trkpt lat="47.504299" lon="-121.740518"><ele>1146.7</ele></trkpt>
<trkpt lat="47.504437" lon="-121.740046"><ele>1156.0</ele></trkpt>
<trkpt lat="47.504669" lon="-121.739671"><ele>1166.8</ele></trkpt>
<trkpt lat="47.504722" lon="-121.739619"><ele>1168.8</ele></trkpt>
<trkpt lat="47.504806" lon="-121.739750"><ele>1174.3</ele></trkpt>
<trkpt lat="47.504873" lon="-121.739754"><ele>1176.0</ele></trkpt>
<trkpt lat="47.504904" lon="-121.739694"><ele>1176.4</ele></trkpt>
<trkpt lat="47.504877" lon="-121.739583"><ele>1176.0</ele></trkpt>
<trkpt lat="47.505019" lon="-121.739497"><ele>1183.4</ele></trkpt>
<trkpt lat="47.505067" lon="-121.739510"><ele>1186.0</ele></trkpt>
<trkpt lat="47.505069" lon="-121.739585"><ele>1187.0</ele></trkpt>
<trkpt lat="47.505067" lon="-121.739510"><ele>1186.0</ele></trkpt>
<trkpt lat="47.505019" lon="-121.739497"><ele>1183.4</ele></trkpt>
<trkpt lat="47.504877" lon="-121.739583"><ele>1176.0</ele></trkpt>
<trkpt lat="47.504904" lon="-121.739694"><ele>1176.4</ele></trkpt>
<trkpt lat="47.504873" lon="-121.739754"><ele>1176.0</ele></trkpt>
<trkpt lat="47.504806" lon="-121.739750"><ele>1174.3</ele></trkpt>
<trkpt lat="47.504722" lon="-121.739619"><ele>1168.8</ele></trkpt>
<trkpt lat="47.504669" lon="-121.739671"><ele>1166.8</ele></trkpt>
<trkpt lat="47.504437" lon="-121.740046"><ele>1156.0</ele></trkpt>
<trkpt lat="47.504299" lon="-121.740518"><ele>1146.7</ele></trkpt>
<trkpt lat="47.504079" lon="-121.740736"><ele>1137.5</ele></trkpt>
<trkpt lat="47.503869" lon="-121.740686"><ele>1129.7</ele></trkpt>
<trkpt lat="47.503819" lon="-121.740183"><ele>1128.0</ele></trkpt>
<trkpt lat="47.503759" lon="-121.740252"><ele>1125.5</ele></trkpt>
<trkpt lat="47.503660" lon="-121.740576"><ele>1119.9</ele></trkpt>
<trkpt lat="47.503438" lon="-121.740617"><ele>1114.9</ele></trkpt>
<trkpt lat="47.503405" lon="-121.740489"><ele>1112.7</ele></trkpt>
<trkpt lat="47.503507" lon="-121.738985"><ele>1096.4</ele></trkpt>
<trkpt lat="47.503621" lon="-121.738629"><ele>1089.1</ele></trkpt>
<trkpt lat="47.503690" lon="-121.738103"><ele>1081.2</ele></trkpt>
<trkpt lat="47.503846" lon="-121.737844"><ele>1077.5</ele></trkpt>
<trkpt lat="47.503708" lon="-121.737854"><ele>1075.2</ele></trkpt>
<trkpt lat="47.503692" lon="-121.737922"><ele>1073.1</ele></trkpt>
<trkpt lat="47.503556" lon="-121.738023"><ele>1071.0</ele></trkpt>
<trkpt lat="47.503462" lon="-121.738268"><ele>1066.4</ele></trkpt>
<trkpt lat="47.503097" lon="-121.738535"><ele>1056.6</ele></trkpt>
<trkpt lat="47.502918" lon="-121.739033"><ele>1052.5</ele></trkpt>
<trkpt lat="47.502552" lon="-121.739661"><ele>1040.0</ele></trkpt>
<trkpt lat="47.502406" lon="-121.739773"><ele>1033.2</ele></trkpt>
<trkpt lat="47.502146" lon="-121.739873"><ele>1027.2</ele></trkpt>
<trkpt lat="47.501969" lon="-121.739866"><ele>1024.7</ele></trkpt>
<trkpt lat="47.501952" lon="-121.739919"><ele>1023.4</ele></trkpt>
<trkpt lat="47.501731" lon="-121.740006"><ele>1024.8</ele></trkpt>
<trkpt lat="47.501298" lon="-121.739923"><ele>1014.3</ele></trkpt>
<trkpt lat="47.500875" lon="-121.740068"><ele>1009.1</ele></trkpt>
<trkpt lat="47.500335" lon="-121.739778"><ele>994.3</ele></trkpt>
<trkpt lat="47.500185" lon="-121.739755"><ele>989.2</ele></trkpt>
<trkpt lat="47.500165" lon="-121.739621"><ele>987.8</ele></trkpt>
<trkpt lat="47.500315" lon="-121.739412"><ele>986.0</ele></trkpt>
<trkpt lat="47.500814" lon="-121.739227"><ele>978.5</ele></trkpt>
<trkpt lat="47.501039" lon="-121.738988"><ele>971.7</ele></trkpt>
<trkpt lat="47.500688" lon="-121.738975"><ele>964.9</ele></trkpt>
<trkpt lat="47.500390" lon="-121.738620"><ele>951.4</ele></trkpt>
<trkpt lat="47.500252" lon="-121.738532"><ele>950.4</ele></trkpt>
<trkpt lat="47.500066" lon="-121.738553"><ele>946.8</ele></trkpt>
<trkpt lat="47.499859" lon="-121.738673"><ele>942.8</ele></trkpt>
<trkpt lat="47.499143" lon="-121.738737"><ele>925.0</ele></trkpt>
<trkpt lat="47.499038" lon="-121.738841"><ele>921.0</ele></trkpt>
<trkpt lat="47.498985" lon="-121.738997"><ele>919.4</ele></trkpt>
<trkpt lat="47.498933" lon="-121.739003"><ele>917.9</ele></trkpt>
<trkpt lat="47.498885" lon="-121.738884"><ele>915.7</ele></trkpt>
<trkpt lat="47.498923" lon="-121.738420"><ele>911.0</ele></trkpt>
<trkpt lat="47.499400" lon="-121.738015"><ele>903.9</ele></trkpt>
<trkpt lat="47.499718" lon="-121.737590"><ele>890.4</ele></trkpt>
<trkpt lat="47.499705" lon="-121.737546"><ele>893.6</ele></trkpt>
<trkpt lat="47.499506" lon="-121.737684"><ele>897.3</ele></trkpt>
<trkpt lat="47.499277" lon="-121.737745"><ele>890.0</ele></trkpt>
<trkpt lat="47.498565" lon="-121.737749"><ele>870.9</ele></trkpt>
<trkpt lat="47.498538" lon="-121.737697"><ele>868.6</ele></trkpt>
<trkpt lat="47.498570" lon="-121.737620"><ele>867.5</ele></trkpt>
<trkpt lat="47.498753" lon="-121.737490"><ele>865.6</ele></trkpt>
<trkpt lat="47.498530" lon="-121.737484"><ele>858.6</ele></trkpt>
<trkpt lat="47.498349" lon="-121.737290"><ele>851.0</ele></trkpt>
<trkpt lat="47.498399" lon="-121.737208"><ele>851.8</ele></trkpt>
<trkpt lat="47.498582" lon="-121.737254"><ele>851.8</ele></trkpt>
<trkpt lat="47.498674" lon="-121.737171"><ele>852.4</ele></trkpt>
<trkpt lat="47.498491" lon="-121.737127"><ele>846.8</ele></trkpt>
<trkpt lat="47.498330" lon="-121.736863"><ele>839.2</ele></trkpt>
<trkpt lat="47.498178" lon="-121.736965"><ele>833.6</ele></trkpt>
<trkpt lat="47.498135" lon="-121.736917"><ele>833.5</ele></trkpt>
<trkpt lat="47.498149" lon="-121.736793"><ele>831.4</ele></trkpt>
<trkpt lat="47.498261" lon="-121.736612"><ele>828.9</ele></trkpt>
<trkpt lat="47.498372" lon="-121.736552"><ele>827.1</ele></trkpt>
<trkpt lat="47.498313" lon="-121.736490"><ele>826.9</ele></trkpt>
<trkpt lat="47.498236" lon="-121.736506"><ele>825.9</ele></trkpt>
<trkpt lat="47.497815" lon="-121.736906"><ele>810.6</ele></trkpt>
<trkpt lat="47.497791" lon="-121.737426"><ele>810.3</ele></trkpt>
<trkpt lat="47.497832" lon="-121.737365"><ele>806.3</ele></trkpt>
<trkpt lat="47.497798" lon="-121.737261"><ele>804.7</ele></trkpt>
<trkpt lat="47.497781" lon="-121.737405"><ele>804.9</ele></trkpt>
<trkpt lat="47.497694" lon="-121.737215"><ele>805.4</ele></trkpt>
<trkpt lat="47.497675" lon="-121.736755"><ele>800.5</ele></trkpt>
<trkpt lat="47.497822" lon="-121.736439"><ele>795.1</ele></trkpt>
<trkpt lat="47.497788" lon="-121.736411"><ele>795.4</ele></trkpt>
<trkpt lat="47.497964" lon="-121.735684"><ele>784.9</ele></trkpt>
<trkpt lat="47.498145" lon="-121.735357"><ele>783.5</ele></trkpt>
<trkpt lat="47.498480" lon="-121.735199"><ele>774.7</ele></trkpt>
<trkpt lat="47.498230" lon="-121.735078"><ele>771.3</ele></trkpt>
<trkpt lat="47.497887" lon="-121.735096"><ele>763.3</ele></trkpt>
<trkpt lat="47.497550" lon="-121.735838"><ele>759.1</ele></trkpt>
<trkpt lat="47.497222" lon="-121.736372"><ele>748.8</ele></trkpt>
<trkpt lat="47.497046" lon="-121.736789"><ele>739.5</ele></trkpt>
<trkpt lat="47.496951" lon="-121.737154"><ele>735.2</ele></trkpt>
<trkpt lat="47.496867" lon="-121.737213"><ele>726.0</ele></trkpt>
<trkpt lat="47.496788" lon="-121.736864"><ele>721.9</ele></trkpt>
<trkpt lat="47.496795" lon="-121.736623"><ele>718.2</ele></trkpt>
<trkpt lat="47.497013" lon="-121.735019"><ele>689.0</ele></trkpt>
<trkpt lat="47.497000" lon="-121.734775"><ele>687.8</ele></trkpt>
<trkpt lat="47.497449" lon="-121.732890"><ele>666.8</ele></trkpt>
<trkpt lat="47.497231" lon="-121.733070"><ele>666.3</ele></trkpt>
<trkpt lat="47.496939" lon="-121.733679"><ele>659.6</ele></trkpt>
<trkpt lat="47.496883" lon="-121.733695"><ele>655.4</ele></trkpt>
<trkpt lat="47.496757" lon="-121.733954"><ele>648.6</ele></trkpt>
<trkpt lat="47.496661" lon="-121.734012"><ele>647.2</ele></trkpt>
<trkpt lat="47.496575" lon="-121.733945"><ele>644.2</ele></trkpt>
<trkpt lat="47.496574" lon="-121.733781"><ele>642.7</ele></trkpt>
<trkpt lat="47.496705" lon="-121.733206"><ele>641.1</ele></trkpt>
<trkpt lat="47.496650" lon="-121.733098"><ele>644.2</ele></trkpt>
<trkpt lat="47.496677" lon="-121.732822"><ele>636.4</ele></trkpt>
<trkpt lat="47.496955" lon="-121.731919"><ele>639.5</ele></trkpt>
<trkpt lat="47.496852" lon="-121.731496"><ele>631.6</ele></trkpt>
<trkpt lat="47.496884" lon="-121.731447"><ele>629.6</ele></trkpt>
<trkpt lat="47.496796" lon="-121.731379"><ele>627.2</ele></trkpt>
<trkpt lat="47.496198" lon="-121.731793"><ele>614.1</ele></trkpt>
<trkpt lat="47.495939" lon="-121.731786"><ele>602.6</ele></trkpt>
<trkpt lat="47.495953" lon="-121.731747"><ele>598.6</ele></trkpt>
<trkpt lat="47.495913" lon="-121.731824"><ele>606.4</ele></trkpt>
<trkpt lat="47.495681" lon="-121.731935"><ele>596.6</ele></trkpt>
<trkpt lat="47.495492" lon="-121.732196"><ele>592.4</ele></trkpt>
<trkpt lat="47.495018" lon="-121.733081"><ele>578.0</ele></trkpt>
<trkpt lat="47.494427" lon="-121.734354"><ele>560.6</ele></trkpt>
<trkpt lat="47.493487" lon="-121.735732"><ele>535.8</ele></trkpt>
<trkpt lat="47.493394" lon="-121.735603"><ele>529.6</ele></trkpt>
<trkpt lat="47.493496" lon="-121.735528"><ele>535.3</ele></trkpt>
<trkpt lat="47.493456" lon="-121.735403"><ele>534.2</ele></trkpt>
<trkpt lat="47.493298" lon="-121.735195"><ele>525.0</ele></trkpt>
<trkpt lat="47.493128" lon="-121.735108"><ele>523.1</ele></trkpt>
<trkpt lat="47.492940" lon="-121.735197"><ele>514.0</ele></trkpt>
<trkpt lat="47.492732" lon="-121.735575"><ele>508.7</ele></trkpt>
<trkpt lat="47.492626" lon="-121.736408"><ele>503.1</ele></trkpt>
<trkpt lat="47.492477" lon="-121.736751"><ele>493.4</ele></trkpt>
<trkpt lat="47.492324" lon="-121.736027"><ele>482.4</ele></trkpt>
<trkpt lat="47.492131" lon="-121.735423"><ele>471.3</ele></trkpt>
<trkpt lat="47.492046" lon="-121.735373"><ele>473.4</ele></trkpt>
<trkpt lat="47.492140" lon="-121.735363"><ele>474.0</ele></trkpt>
<trkpt lat="47.492143" lon="-121.735405"><ele>472.2</ele></trkpt>
<trkpt lat="47.492200" lon="-121.735127"><ele>469.8</ele></trkpt>
<trkpt lat="47.492778" lon="-121.734000"><ele>461.9</ele></trkpt>
<trkpt lat="47.493032" lon="-121.733297"><ele>452.4</ele></trkpt>
<trkpt lat="47.493170" lon="-121.732591"><ele>444.3</ele></trkpt>
<trkpt lat="47.493241" lon="-121.731461"><ele>432.3</ele></trkpt>
<trkpt lat="47.493327" lon="-121.731031"><ele>432.2</ele></trkpt>
<trkpt lat="47.493351" lon="-121.730564"><ele>425.7</ele></trkpt>
<trkpt lat="47.493321" lon="-121.730212"><ele>414.5</ele></trkpt>
<trkpt lat="47.493107" lon="-121.729564"><ele>412.8</ele></trkpt>
<trkpt lat="47.493070" lon="-121.728883"><ele>402.7</ele></trkpt>
<trkpt lat="47.492993" lon="-121.728376"><ele>398.1</ele></trkpt>
<trkpt lat="47.492887" lon="-121.728136"><ele>396.0</ele></trkpt>
<trkpt lat="47.492724" lon="-121.728044"><ele>388.3</ele></trkpt>
<trkpt lat="47.492654" lon="-121.727788"><ele>380.8</ele></trkpt>
<trkpt lat="47.492625" lon="-121.727542"><ele>376.9</ele></trkpt>
<trkpt lat="47.492692" lon="-121.726872"><ele>371.5</ele></trkpt>
<trkpt lat="47.492520" lon="-121.727035"><ele>366.4</ele></trkpt>
<trkpt lat="47.492206" lon="-121.727742"><ele>354.2</ele></trkpt>
<trkpt lat="47.491933" lon="-121.727973"><ele>349.8</ele></trkpt>
<trkpt lat="47.491826" lon="-121.728290"><ele>345.5</ele></trkpt>
<trkpt lat="47.491704" lon="-121.728458"><ele>340.9</ele></trkpt>
<trkpt lat="47.491688" lon="-121.728398"><ele>341.2</ele></trkpt>
<trkpt lat="47.491538" lon="-121.728320"><ele>330.5</ele></trkpt>
<trkpt lat="47.491482" lon="-121.728189"><ele>322.9</ele></trkpt>
<trkpt lat="47.491394" lon="-121.727462"><ele>312.4</ele></trkpt>
<trkpt lat="47.491204" lon="-121.726798"><ele>296.4</ele></trkpt>
<trkpt lat="47.491140" lon="-121.726806"><ele>289.3</ele></trkpt>
<trkpt lat="47.491073" lon="-121.726913"><ele>289.9</ele></trkpt>
<trkpt lat="47.490999" lon="-121.726865"><ele>292.2</ele></trkpt>
<trkpt lat="47.491032" lon="-121.725928"><ele>285.2</ele></trkpt>
<trkpt lat="47.490993" lon="-121.724042"><ele>269.0</ele></trkpt>
<trkpt lat="47.490880" lon="-121.723845"><ele>267.0</ele></trkpt>
<trkpt lat="47.490628" lon="-121.723654"><ele>257.5</ele></trkpt>
<trkpt lat="47.490376" lon="-121.722911"><ele>236.2</ele></trkpt>
<trkpt lat="47.490282" lon="-121.722988"><ele>241.5</ele></trkpt>
<trkpt lat="47.490152" lon="-121.723400"><ele>240.5</ele></trkpt>
<trkpt lat="47.489887" lon="-121.723810"><ele>233.0</ele></trkpt>
<trkpt lat="47.489833" lon="-121.723738"><ele>231.7</ele></trkpt>
<trkpt lat="47.489781" lon="-121.723220"><ele>224.0</ele></trkpt>
<trkpt lat="47.489668" lon="-121.723073"><ele>218.5</ele></trkpt>
<trkpt lat="47.489351" lon="-121.723231"><ele>213.1</ele></trkpt>
<trkpt lat="47.489205" lon="-121.723183"><ele>211.8</ele></trkpt>
<trkpt lat="47.488987" lon="-121.722983"><ele>210.5</ele></trkpt>
<trkpt lat="47.488668" lon="-121.723220"><ele>208.3</ele></trkpt>
<trkpt lat="47.488047" lon="-121.723127"><ele>207.5</ele></trkpt>
</trkseg></trk>
</gpx>
