<?xml version="1.0" encoding="UTF-8"?>
<gpx version="1.1" creator="The Lost Trailhead" xmlns="http://www.topografix.com/GPX/1/1" xmlns:xsi="http://www.w3.org/2001/XMLSchema-instance" xsi:schemaLocation="http://www.topografix.com/GPX/1/1 http://www.topografix.com/GPX/1/1/gpx.xsd">
<metadata><name>Bandera Mountain</name><desc>The Lost Trailhead, thelosttrailhead.com/hikes/bandera-mountain. Conditions change. Use at your own risk.</desc><link href="https://thelosttrailhead.com/hikes/bandera-mountain"><text>Bandera Mountain on The Lost Trailhead</text></link></metadata>
<trk><name>Bandera Mountain</name><link href="https://thelosttrailhead.com/hikes/bandera-mountain"><text>Bandera Mountain on The Lost Trailhead</text></link><trkseg>
<trkpt lat="47.424392" lon="-121.582950"><ele>653.8</ele></trkpt>
<trkpt lat="47.424546" lon="-121.583141"><ele>654.2</ele></trkpt>
<trkpt lat="47.424739" lon="-121.583537"><ele>655.9</ele></trkpt>
<trkpt lat="47.424806" lon="-121.583532"><ele>654.7</ele></trkpt>
<trkpt lat="47.424793" lon="-121.583617"><ele>654.1</ele></trkpt>
<trkpt lat="47.424856" lon="-121.583571"><ele>654.6</ele></trkpt>
<trkpt lat="47.425844" lon="-121.584429"><ele>667.9</ele></trkpt>
<trkpt lat="47.426492" lon="-121.585534"><ele>672.5</ele></trkpt>
<trkpt lat="47.426613" lon="-121.586262"><ele>676.0</ele></trkpt>
<trkpt lat="47.426699" lon="-121.586496"><ele>677.2</ele></trkpt>
<trkpt lat="47.426788" lon="-121.586565"><ele>677.9</ele></trkpt>
<trkpt lat="47.426882" lon="-121.586429"><ele>679.6</ele></trkpt>
<trkpt lat="47.426920" lon="-121.586275"><ele>682.6</ele></trkpt>
<trkpt lat="47.426904" lon="-121.585851"><ele>692.0</ele></trkpt>
<trkpt lat="47.426734" lon="-121.585169"><ele>693.7</ele></trkpt>
<trkpt lat="47.426487" lon="-121.584788"><ele>693.4</ele></trkpt>
<trkpt lat="47.426049" lon="-121.583641"><ele>700.9</ele></trkpt>
<trkpt lat="47.425680" lon="-121.583020"><ele>704.4</ele></trkpt>
<trkpt lat="47.425383" lon="-121.582192"><ele>709.6</ele></trkpt>
<trkpt lat="47.425283" lon="-121.581368"><ele>722.8</ele></trkpt>
<trkpt lat="47.425291" lon="-121.581015"><ele>727.3</ele></trkpt>
<trkpt lat="47.425377" lon="-121.580578"><ele>731.6</ele></trkpt>
<trkpt lat="47.425514" lon="-121.580201"><ele>735.0</ele></trkpt>
<trkpt lat="47.425558" lon="-121.579684"><ele>744.4</ele></trkpt>
<trkpt lat="47.425102" lon="-121.578854"><ele>750.8</ele></trkpt>
<trkpt lat="47.425061" lon="-121.578807"><ele>751.3</ele></trkpt>
<trkpt lat="47.425049" lon="-121.578859"><ele>748.5</ele></trkpt>
<trkpt lat="47.425029" lon="-121.578766"><ele>747.2</ele></trkpt>
<trkpt lat="47.424633" lon="-121.578368"><ele>757.5</ele></trkpt>
<trkpt lat="47.424449" lon="-121.578035"><ele>759.6</ele></trkpt>
<trkpt lat="47.424320" lon="-121.577578"><ele>766.0</ele></trkpt>
<trkpt lat="47.424249" lon="-121.577071"><ele>771.6</ele></trkpt>
<trkpt lat="47.424146" lon="-121.576830"><ele>774.5</ele></trkpt>
<trkpt lat="47.424093" lon="-121.576766"><ele>775.6</ele></trkpt>
<trkpt lat="47.423917" lon="-121.576808"><ele>777.5</ele></trkpt>
<trkpt lat="47.423412" lon="-121.577143"><ele>784.2</ele></trkpt>
<trkpt lat="47.423241" lon="-121.577186"><ele>786.8</ele></trkpt>
<trkpt lat="47.422932" lon="-121.576946"><ele>789.2</ele></trkpt>
<trkpt lat="47.422575" lon="-121.576556"><ele>796.6</ele></trkpt>
<trkpt lat="47.422447" lon="-121.576345"><ele>797.8</ele></trkpt>
<trkpt lat="47.422339" lon="-121.575699"><ele>802.1</ele></trkpt>
<trkpt lat="47.422194" lon="-121.575283"><ele>804.1</ele></trkpt>
<trkpt lat="47.421789" lon="-121.574662"><ele>812.0</ele></trkpt>
<trkpt lat="47.421381" lon="-121.573899"><ele>821.5</ele></trkpt>
<trkpt lat="47.420973" lon="-121.573324"><ele>829.9</ele></trkpt>
<trkpt lat="47.420410" lon="-121.572785"><ele>840.1</ele></trkpt>
<trkpt lat="47.420194" lon="-121.572365"><ele>844.3</ele></trkpt>
<trkpt lat="47.419997" lon="-121.572119"><ele>849.2</ele></trkpt>
<trkpt lat="47.419525" lon="-121.571635"><ele>855.1</ele></trkpt>
<trkpt lat="47.419054" lon="-121.571301"><ele>860.4</ele></trkpt>
<trkpt lat="47.418796" lon="-121.571003"><ele>865.5</ele></trkpt>
<trkpt lat="47.418438" lon="-121.570516"><ele>864.9</ele></trkpt>
<trkpt lat="47.418397" lon="-121.570521"><ele>866.2</ele></trkpt>
<trkpt lat="47.417982" lon="-121.569836"><ele>883.6</ele></trkpt>
<trkpt lat="47.417912" lon="-121.569276"><ele>887.8</ele></trkpt>
<trkpt lat="47.417898" lon="-121.568349"><ele>899.5</ele></trkpt>
<trkpt lat="47.417758" lon="-121.567958"><ele>897.8</ele></trkpt>
<trkpt lat="47.417628" lon="-121.567207"><ele>907.1</ele></trkpt>
<trkpt lat="47.417651" lon="-121.565880"><ele>930.7</ele></trkpt>
<trkpt lat="47.417465" lon="-121.564892"><ele>944.8</ele></trkpt>
<trkpt lat="47.417475" lon="-121.564540"><ele>950.1</ele></trkpt>
<trkpt lat="47.417441" lon="-121.564527"><ele>947.0</ele></trkpt>
<trkpt lat="47.417759" lon="-121.563901"><ele>965.0</ele></trkpt>
<trkpt lat="47.417875" lon="-121.563551"><ele>971.9</ele></trkpt>
<trkpt lat="47.417894" lon="-121.563445"><ele>973.4</ele></trkpt>
<trkpt lat="47.417850" lon="-121.563435"><ele>973.8</ele></trkpt>
<trkpt lat="47.418086" lon="-121.562957"><ele>984.0</ele></trkpt>
<trkpt lat="47.418085" lon="-121.562788"><ele>985.7</ele></trkpt>
<trkpt lat="47.417957" lon="-121.562503"><ele>985.7</ele></trkpt>
<trkpt lat="47.417939" lon="-121.562076"><ele>993.3</ele></trkpt>
<trkpt lat="47.417826" lon="-121.561892"><ele>1001.6</ele></trkpt>
<trkpt lat="47.417523" lon="-121.561644"><ele>1009.4</ele></trkpt>
<trkpt lat="47.417414" lon="-121.561580"><ele>1005.5</ele></trkpt>
<trkpt lat="47.417393" lon="-121.561616"><ele>1004.7</ele></trkpt>
<trkpt lat="47.417318" lon="-121.561479"><ele>1011.1</ele></trkpt>
<trkpt lat="47.417120" lon="-121.561366"><ele>1016.5</ele></trkpt>
<trkpt lat="47.416958" lon="-121.561140"><ele>1020.8</ele></trkpt>
<trkpt lat="47.416744" lon="-121.560460"><ele>1026.0</ele></trkpt>
<trkpt lat="47.416673" lon="-121.560403"><ele>1025.9</ele></trkpt>
<trkpt lat="47.416612" lon="-121.560008"><ele>1032.9</ele></trkpt>
<trkpt lat="47.416417" lon="-121.559332"><ele>1042.2</ele></trkpt>
<trkpt lat="47.416319" lon="-121.559242"><ele>1040.7</ele></trkpt>
<trkpt lat="47.415997" lon="-121.559364"><ele>1047.5</ele></trkpt>
<trkpt lat="47.415762" lon="-121.559197"><ele>1048.7</ele></trkpt>
<trkpt lat="47.415152" lon="-121.558374"><ele>1061.3</ele></trkpt>
<trkpt lat="47.414926" lon="-121.557937"><ele>1070.3</ele></trkpt>
<trkpt lat="47.414872" lon="-121.557736"><ele>1072.3</ele></trkpt>
<trkpt lat="47.415004" lon="-121.557989"><ele>1076.4</ele></trkpt>
<trkpt lat="47.415119" lon="-121.558103"><ele>1077.2</ele></trkpt>
<trkpt lat="47.415581" lon="-121.558287"><ele>1083.3</ele></trkpt>
<trkpt lat="47.415295" lon="-121.557808"><ele>1095.8</ele></trkpt>
<trkpt lat="47.415162" lon="-121.557271"><ele>1107.9</ele></trkpt>
<trkpt lat="47.415032" lon="-121.557000"><ele>1110.4</ele></trkpt>
<trkpt lat="47.414940" lon="-121.556527"><ele>1115.2</ele></trkpt>
<trkpt lat="47.414869" lon="-121.556430"><ele>1113.5</ele></trkpt>
<trkpt lat="47.414972" lon="-121.556514"><ele>1115.8</ele></trkpt>
<trkpt lat="47.415212" lon="-121.556896"><ele>1121.7</ele></trkpt>
<trkpt lat="47.415735" lon="-121.557464"><ele>1133.6</ele></trkpt>
<trkpt lat="47.415936" lon="-121.557478"><ele>1136.7</ele></trkpt>
<trkpt lat="47.416668" lon="-121.557209"><ele>1148.6</ele></trkpt>
<trkpt lat="47.416677" lon="-121.557275"><ele>1147.3</ele></trkpt>
<trkpt lat="47.417131" lon="-121.557333"><ele>1153.7</ele></trkpt>
<trkpt lat="47.417748" lon="-121.557773"><ele>1167.9</ele></trkpt>
<trkpt lat="47.418103" lon="-121.558260"><ele>1175.2</ele></trkpt>
<trkpt lat="47.418254" lon="-121.558353"><ele>1178.6</ele></trkpt>
<trkpt lat="47.419063" lon="-121.558170"><ele>1197.8</ele></trkpt>
<trkpt lat="47.419405" lon="-121.558262"><ele>1202.5</ele></trkpt>
<trkpt lat="47.419462" lon="-121.558227"><ele>1199.0</ele></trkpt>
<trkpt lat="47.419529" lon="-121.558326"><ele>1203.7</ele></trkpt>
<trkpt lat="47.419803" lon="-121.558475"><ele>1215.9</ele></trkpt>
<trkpt lat="47.420266" lon="-121.558495"><ele>1222.6</ele></trkpt>
<trkpt lat="47.420338" lon="-121.558450"><ele>1226.2</ele></trkpt>
<trkpt lat="47.419991" lon="-121.557969"><ele>1235.7</ele></trkpt>
<trkpt lat="47.419695" lon="-121.557667"><ele>1242.4</ele></trkpt>
<trkpt lat="47.419611" lon="-121.557405"><ele>1247.1</ele></trkpt>
<trkpt lat="47.419480" lon="-121.557246"><ele>1250.1</ele></trkpt>
<trkpt lat="47.418998" lon="-121.556847"><ele>1258.6</ele></trkpt>
<trkpt lat="47.418724" lon="-121.556779"><ele>1261.6</ele></trkpt>
<trkpt lat="47.418640" lon="-121.556626"><ele>1264.4</ele></trkpt>
<trkpt lat="47.418687" lon="-121.556603"><ele>1267.5</ele></trkpt>
<trkpt lat="47.418663" lon="-121.556545"><ele>1269.2</ele></trkpt>
<trkpt lat="47.418733" lon="-121.556605"><ele>1269.9</ele></trkpt>
<trkpt lat="47.418762" lon="-121.556368"><ele>1279.7</ele></trkpt>
<trkpt lat="47.418898" lon="-121.556332"><ele>1286.6</ele></trkpt>
<trkpt lat="47.418953" lon="-121.556259"><ele>1290.9</ele></trkpt>
<trkpt lat="47.418940" lon="-121.556186"><ele>1294.2</ele></trkpt>
<trkpt lat="47.419137" lon="-121.556089"><ele>1304.7</ele></trkpt>
<trkpt lat="47.419279" lon="-121.555937"><ele>1316.5</ele></trkpt>
<trkpt lat="47.419282" lon="-121.555756"><ele>1326.8</ele></trkpt>
<trkpt lat="47.419319" lon="-121.555607"><ele>1335.5</ele></trkpt>
<trkpt lat="47.419393" lon="-121.555542"><ele>1340.9</ele></trkpt>
<trkpt lat="47.419392" lon="-121.555406"><ele>1347.0</ele></trkpt>
<trkpt lat="47.419601" lon="-121.555372"><ele>1354.9</ele></trkpt>
<trkpt lat="47.419630" lon="-121.555203"><ele>1362.8</ele></trkpt>
<trkpt lat="47.419724" lon="-121.555080"><ele>1372.3</ele></trkpt>
<trkpt lat="47.419716" lon="-121.554905"><ele>1380.8</ele></trkpt>
<trkpt lat="47.419802" lon="-121.554772"><ele>1386.7</ele></trkpt>
<trkpt lat="47.419770" lon="-121.554575"><ele>1394.6</ele></trkpt>
<trkpt lat="47.419881" lon="-121.554305"><ele>1405.7</ele></trkpt>
<trkpt lat="47.419673" lon="-121.553777"><ele>1420.2</ele></trkpt>
<trkpt lat="47.419723" lon="-121.553610"><ele>1425.6</ele></trkpt>
<trkpt lat="47.419708" lon="-121.553516"><ele>1427.7</ele></trkpt>
<trkpt lat="47.419580" lon="-121.553401"><ele>1429.4</ele></trkpt>
<trkpt lat="47.418994" lon="-121.552332"><ele>1446.4</ele></trkpt>
<trkpt lat="47.418697" lon="-121.551330"><ele>1470.0</ele></trkpt>
<trkpt lat="47.418628" lon="-121.551309"><ele>1470.2</ele></trkpt>
<trkpt lat="47.418544" lon="-121.550697"><ele>1493.8</ele></trkpt>
<trkpt lat="47.418612" lon="-121.550618"><ele>1499.6</ele></trkpt>
<trkpt lat="47.418621" lon="-121.550522"><ele>1501.2</ele></trkpt>
<trkpt lat="47.418524" lon="-121.550378"><ele>1507.5</ele></trkpt>
<trkpt lat="47.418668" lon="-121.550188"><ele>1515.7</ele></trkpt>
<trkpt lat="47.418526" lon="-121.549898"><ele>1524.7</ele></trkpt>
<trkpt lat="47.418563" lon="-121.549706"><ele>1532.3</ele></trkpt>
<trkpt lat="47.418541" lon="-121.549528"><ele>1537.8</ele></trkpt>
<trkpt lat="47.418204" lon="-121.548306"><ele>1561.2</ele></trkpt>
<trkpt lat="47.418225" lon="-121.548155"><ele>1564.4</ele></trkpt>
<trkpt lat="47.418181" lon="-121.547842"><ele>1570.4</ele></trkpt>
<trkpt lat="47.418083" lon="-121.547667"><ele>1575.2</ele></trkpt>
<trkpt lat="47.417968" lon="-121.547645"><ele>1573.4</ele></trkpt>
<trkpt lat="47.418083" lon="-121.547667"><ele>1575.2</ele></trkpt>
<trkpt lat="47.418181" lon="-121.547842"><ele>1570.4</ele></trkpt>
<trkpt lat="47.418225" lon="-121.548155"><ele>1564.4</ele></trkpt>
<trkpt lat="47.418204" lon="-121.548306"><ele>1561.2</ele></trkpt>
<trkpt lat="47.418541" lon="-121.549528"><ele>1537.8</ele></trkpt>
<trkpt lat="47.418563" lon="-121.549706"><ele>1532.3</ele></trkpt>
<trkpt lat="47.418526" lon="-121.549898"><ele>1524.7</ele></trkpt>
<trkpt lat="47.418668" lon="-121.550188"><ele>1515.7</ele></trkpt>
<trkpt lat="47.418524" lon="-121.550378"><ele>1507.5</ele></trkpt>
<trkpt lat="47.418621" lon="-121.550522"><ele>1501.2</ele></trkpt>
<trkpt lat="47.418612" lon="-121.550618"><ele>1499.6</ele></trkpt>
<trkpt lat="47.418544" lon="-121.550697"><ele>1493.8</ele></trkpt>
<trkpt lat="47.418628" lon="-121.551309"><ele>1470.2</ele></trkpt>
<trkpt lat="47.418697" lon="-121.551330"><ele>1470.0</ele></trkpt>
<trkpt lat="47.418994" lon="-121.552332"><ele>1446.4</ele></trkpt>
<trkpt lat="47.419580" lon="-121.553401"><ele>1429.4</ele></trkpt>
<trkpt lat="47.419708" lon="-121.553516"><ele>1427.7</ele></trkpt>
<trkpt lat="47.419723" lon="-121.553610"><ele>1425.6</ele></trkpt>
<trkpt lat="47.419673" lon="-121.553777"><ele>1420.2</ele></trkpt>
<trkpt lat="47.419881" lon="-121.554305"><ele>1405.7</ele></trkpt>
<trkpt lat="47.419770" lon="-121.554575"><ele>1394.6</ele></trkpt>
<trkpt lat="47.419802" lon="-121.554772"><ele>1386.7</ele></trkpt>
<trkpt lat="47.419716" lon="-121.554905"><ele>1380.8</ele></trkpt>
<trkpt lat="47.419724" lon="-121.555080"><ele>1372.3</ele></trkpt>
<trkpt lat="47.419630" lon="-121.555203"><ele>1362.8</ele></trkpt>
<trkpt lat="47.419601" lon="-121.555372"><ele>1354.9</ele></trkpt>
<trkpt lat="47.419392" lon="-121.555406"><ele>1347.0</ele></trkpt>
<trkpt lat="47.419393" lon="-121.555542"><ele>1340.9</ele></trkpt>
<trkpt lat="47.419319" lon="-121.555607"><ele>1335.5</ele></trkpt>
<trkpt lat="47.419282" lon="-121.555756"><ele>1326.8</ele></trkpt>
<trkpt lat="47.419279" lon="-121.555937"><ele>1316.5</ele></trkpt>
<trkpt lat="47.419137" lon="-121.556089"><ele>1304.7</ele></trkpt>
<trkpt lat="47.418940" lon="-121.556186"><ele>1294.2</ele></trkpt>
<trkpt lat="47.418953" lon="-121.556259"><ele>1290.9</ele></trkpt>
<trkpt lat="47.418898" lon="-121.556332"><ele>1286.6</ele></trkpt>
<trkpt lat="47.418762" lon="-121.556368"><ele>1279.7</ele></trkpt>
<trkpt lat="47.418733" lon="-121.556605"><ele>1269.9</ele></trkpt>
<trkpt lat="47.418663" lon="-121.556545"><ele>1269.2</ele></trkpt>
<trkpt lat="47.418687" lon="-121.556603"><ele>1267.5</ele></trkpt>
<trkpt lat="47.418640" lon="-121.556626"><ele>1264.4</ele></trkpt>
<trkpt lat="47.418724" lon="-121.556779"><ele>1261.6</ele></trkpt>
<trkpt lat="47.418998" lon="-121.556847"><ele>1258.6</ele></trkpt>
<trkpt lat="47.419480" lon="-121.557246"><ele>1250.1</ele></trkpt>
<trkpt lat="47.419611" lon="-121.557405"><ele>1247.1</ele></trkpt>
<trkpt lat="47.419695" lon="-121.557667"><ele>1242.4</ele></trkpt>
<trkpt lat="47.419991" lon="-121.557969"><ele>1235.7</ele></trkpt>
<trkpt lat="47.420338" lon="-121.558450"><ele>1226.2</ele></trkpt>
<trkpt lat="47.420266" lon="-121.558495"><ele>1222.6</ele></trkpt>
<trkpt lat="47.419803" lon="-121.558475"><ele>1215.9</ele></trkpt>
<trkpt lat="47.419529" lon="-121.558326"><ele>1203.7</ele></trkpt>
<trkpt lat="47.419462" lon="-121.558227"><ele>1199.0</ele></trkpt>
<trkpt lat="47.419405" lon="-121.558262"><ele>1202.5</ele></trkpt>
<trkpt lat="47.419063" lon="-121.558170"><ele>1197.8</ele></trkpt>
<trkpt lat="47.418254" lon="-121.558353"><ele>1178.6</ele></trkpt>
<trkpt lat="47.418103" lon="-121.558260"><ele>1175.2</ele></trkpt>
<trkpt lat="47.417748" lon="-121.557773"><ele>1167.9</ele></trkpt>
<trkpt lat="47.417131" lon="-121.557333"><ele>1153.7</ele></trkpt>
<trkpt lat="47.416677" lon="-121.557275"><ele>1147.3</ele></trkpt>
<trkpt lat="47.416668" lon="-121.557209"><ele>1148.6</ele></trkpt>
<trkpt lat="47.415936" lon="-121.557478"><ele>1136.7</ele></trkpt>
<trkpt lat="47.415735" lon="-121.557464"><ele>1133.6</ele></trkpt>
<trkpt lat="47.415212" lon="-121.556896"><ele>1121.7</ele></trkpt>
<trkpt lat="47.414972" lon="-121.556514"><ele>1115.8</ele></trkpt>
<trkpt lat="47.414869" lon="-121.556430"><ele>1113.5</ele></trkpt>
<trkpt lat="47.414940" lon="-121.556527"><ele>1115.2</ele></trkpt>
<trkpt lat="47.415032" lon="-121.557000"><ele>1110.4</ele></trkpt>
<trkpt lat="47.415162" lon="-121.557271"><ele>1107.9</ele></trkpt>
<trkpt lat="47.415295" lon="-121.557808"><ele>1095.8</ele></trkpt>
<trkpt lat="47.415581" lon="-121.558287"><ele>1083.3</ele></trkpt>
<trkpt lat="47.415119" lon="-121.558103"><ele>1077.2</ele></trkpt>
<trkpt lat="47.415004" lon="-121.557989"><ele>1076.4</ele></trkpt>
<trkpt lat="47.414872" lon="-121.557736"><ele>1072.3</ele></trkpt>
<trkpt lat="47.414926" lon="-121.557937"><ele>1070.3</ele></trkpt>
<trkpt lat="47.415152" lon="-121.558374"><ele>1061.3</ele></trkpt>
<trkpt lat="47.415762" lon="-121.559197"><ele>1048.7</ele></trkpt>
<trkpt lat="47.415997" lon="-121.559364"><ele>1047.5</ele></trkpt>
<trkpt lat="47.416319" lon="-121.559242"><ele>1040.7</ele></trkpt>
<trkpt lat="47.416417" lon="-121.559332"><ele>1042.2</ele></trkpt>
<trkpt lat="47.416612" lon="-121.560008"><ele>1032.9</ele></trkpt>
<trkpt lat="47.416673" lon="-121.560403"><ele>1025.9</ele></trkpt>
<trkpt lat="47.416744" lon="-121.560460"><ele>1026.0</ele></trkpt>
<trkpt lat="47.416958" lon="-121.561140"><ele>1020.8</ele></trkpt>
<trkpt lat="47.417120" lon="-121.561366"><ele>1016.5</ele></trkpt>
<trkpt lat="47.417318" lon="-121.561479"><ele>1011.1</ele></trkpt>
<trkpt lat="47.417393" lon="-121.561616"><ele>1004.7</ele></trkpt>
<trkpt lat="47.417414" lon="-121.561580"><ele>1005.5</ele></trkpt>
<trkpt lat="47.417523" lon="-121.561644"><ele>1009.4</ele></trkpt>
<trkpt lat="47.417826" lon="-121.561892"><ele>1001.6</ele></trkpt>
<trkpt lat="47.417939" lon="-121.562076"><ele>993.3</ele></trkpt>
<trkpt lat="47.417957" lon="-121.562503"><ele>985.7</ele></trkpt>
<trkpt lat="47.418085" lon="-121.562788"><ele>985.7</ele></trkpt>
<trkpt lat="47.418086" lon="-121.562957"><ele>984.0</ele></trkpt>
<trkpt lat="47.417850" lon="-121.563435"><ele>973.8</ele></trkpt>
<trkpt lat="47.417894" lon="-121.563445"><ele>973.4</ele></trkpt>
<trkpt lat="47.417875" lon="-121.563551"><ele>971.9</ele></trkpt>
<trkpt lat="47.417759" lon="-121.563901"><ele>965.0</ele></trkpt>
<trkpt lat="47.417441" lon="-121.564527"><ele>947.0</ele></trkpt>
<trkpt lat="47.417475" lon="-121.564540"><ele>950.1</ele></trkpt>
<trkpt lat="47.417465" lon="-121.564892"><ele>944.8</ele></trkpt>
<trkpt lat="47.417651" lon="-121.565880"><ele>930.7</ele></trkpt>
<trkpt lat="47.417628" lon="-121.567207"><ele>907.1</ele></trkpt>
<trkpt lat="47.417758" lon="-121.567958"><ele>897.8</ele></trkpt>
<trkpt lat="47.417898" lon="-121.568349"><ele>899.5</ele></trkpt>
<trkpt lat="47.417912" lon="-121.569276"><ele>887.8</ele></trkpt>
<trkpt lat="47.417982" lon="-121.569836"><ele>883.6</ele></trkpt>
<trkpt lat="47.418397" lon="-121.570521"><ele>866.2</ele></trkpt>
<trkpt lat="47.418438" lon="-121.570516"><ele>864.9</ele></trkpt>
<trkpt lat="47.418796" lon="-121.571003"><ele>865.5</ele></trkpt>
<trkpt lat="47.419054" lon="-121.571301"><ele>860.4</ele></trkpt>
<trkpt lat="47.419525" lon="-121.571635"><ele>855.1</ele></trkpt>
<trkpt lat="47.419997" lon="-121.572119"><ele>849.2</ele></trkpt>
<trkpt lat="47.420194" lon="-121.572365"><ele>844.3</ele></trkpt>
<trkpt lat="47.420410" lon="-121.572785"><ele>840.1</ele></trkpt>
<trkpt lat="47.420973" lon="-121.573324"><ele>829.9</ele></trkpt>
<trkpt lat="47.421381" lon="-121.573899"><ele>821.5</ele></trkpt>
<trkpt lat="47.421789" lon="-121.574662"><ele>812.0</ele></trkpt>
<trkpt lat="47.422194" lon="-121.575283"><ele>804.1</ele></trkpt>
<trkpt lat="47.422339" lon="-121.575699"><ele>802.1</ele></trkpt>
<trkpt lat="47.422447" lon="-121.576345"><ele>797.8</ele></trkpt>
<trkpt lat="47.422575" lon="-121.576556"><ele>796.6</ele></trkpt>
<trkpt lat="47.422932" lon="-121.576946"><ele>789.2</ele></trkpt>
<trkpt lat="47.423241" lon="-121.577186"><ele>786.8</ele></trkpt>
<trkpt lat="47.423412" lon="-121.577143"><ele>784.2</ele></trkpt>
<trkpt lat="47.423917" lon="-121.576808"><ele>777.5</ele></trkpt>
<trkpt lat="47.424093" lon="-121.576766"><ele>775.6</ele></trkpt>
<trkpt lat="47.424146" lon="-121.576830"><ele>774.5</ele></trkpt>
<trkpt lat="47.424249" lon="-121.577071"><ele>771.6</ele></trkpt>
<trkpt lat="47.424320" lon="-121.577578"><ele>766.0</ele></trkpt>
<trkpt lat="47.424449" lon="-121.578035"><ele>759.6</ele></trkpt>
<trkpt lat="47.424633" lon="-121.578368"><ele>757.5</ele></trkpt>
<trkpt lat="47.425029" lon="-121.578766"><ele>747.2</ele></trkpt>
<trkpt lat="47.425049" lon="-121.578859"><ele>748.5</ele></trkpt>
<trkpt lat="47.425061" lon="-121.578807"><ele>751.3</ele></trkpt>
<trkpt lat="47.425102" lon="-121.578854"><ele>750.8</ele></trkpt>
<trkpt lat="47.425558" lon="-121.579684"><ele>744.4</ele></trkpt>
<trkpt lat="47.425514" lon="-121.580201"><ele>735.0</ele></trkpt>
<trkpt lat="47.425377" lon="-121.580578"><ele>731.6</ele></trkpt>
<trkpt lat="47.425291" lon="-121.581015"><ele>727.3</ele></trkpt>
<trkpt lat="47.425283" lon="-121.581368"><ele>722.8</ele></trkpt>
<trkpt lat="47.425383" lon="-121.582192"><ele>709.6</ele></trkpt>
<trkpt lat="47.425680" lon="-121.583020"><ele>704.4</ele></trkpt>
<trkpt lat="47.426049" lon="-121.583641"><ele>700.9</ele></trkpt>
<trkpt lat="47.426487" lon="-121.584788"><ele>693.4</ele></trkpt>
<trkpt lat="47.426734" lon="-121.585169"><ele>693.7</ele></trkpt>
<trkpt lat="47.426904" lon="-121.585851"><ele>692.0</ele></trkpt>
<trkpt lat="47.426920" lon="-121.586275"><ele>682.6</ele></trkpt>
<trkpt lat="47.426882" lon="-121.586429"><ele>679.6</ele></trkpt>
<trkpt lat="47.426788" lon="-121.586565"><ele>677.9</ele></trkpt>
<trkpt lat="47.426699" lon="-121.586496"><ele>677.2</ele></trkpt>
<trkpt lat="47.426613" lon="-121.586262"><ele>676.0</ele></trkpt>
<trkpt lat="47.426492" lon="-121.585534"><ele>672.5</ele></trkpt>
<trkpt lat="47.425844" lon="-121.584429"><ele>667.9</ele></trkpt>
<trkpt lat="47.424856" lon="-121.583571"><ele>654.6</ele></trkpt>
<trkpt lat="47.424793" lon="-121.583617"><ele>654.1</ele></trkpt>
<trkpt lat="47.424806" lon="-121.583532"><ele>654.7</ele></trkpt>
<trkpt lat="47.424739" lon="-121.583537"><ele>655.9</ele></trkpt>
<trkpt lat="47.424546" lon="-121.583141"><ele>654.2</ele></trkpt>
<trkpt lat="47.424392" lon="-121.582950"><ele>653.8</ele></trkpt>
</trkseg></trk>
</gpx>
