<?xml version="1.0" encoding="UTF-8"?>
<gpx version="1.1" creator="The Lost Trailhead" xmlns="http://www.topografix.com/GPX/1/1" xmlns:xsi="http://www.w3.org/2001/XMLSchema-instance" xsi:schemaLocation="http://www.topografix.com/GPX/1/1 http://www.topografix.com/GPX/1/1/gpx.xsd">
<metadata><name>Snow Lake — Winter</name><desc>The Lost Trailhead, thelosttrailhead.com/hikes/snow-lake-winter. Conditions change. Use at your own risk.</desc><link href="https://thelosttrailhead.com/hikes/snow-lake-winter"><text>Snow Lake — Winter on The Lost Trailhead</text></link></metadata>
<trk><name>Snow Lake — Winter</name><link href="https://thelosttrailhead.com/hikes/snow-lake-winter"><text>Snow Lake — Winter on The Lost Trailhead</text></link><trkseg>
<trkpt lat="47.444841" lon="-121.423404"><ele>949.7</ele></trkpt>
<trkpt lat="47.444879" lon="-121.423414"><ele>950.9</ele></trkpt>
<trkpt lat="47.444842" lon="-121.423323"><ele>949.9</ele></trkpt>
<trkpt lat="47.444835" lon="-121.423366"><ele>949.3</ele></trkpt>
<trkpt lat="47.445597" lon="-121.423564"><ele>958.0</ele></trkpt>
<trkpt lat="47.445654" lon="-121.423455"><ele>959.8</ele></trkpt>
<trkpt lat="47.446048" lon="-121.423321"><ele>971.9</ele></trkpt>
<trkpt lat="47.446661" lon="-121.422992"><ele>987.2</ele></trkpt>
<trkpt lat="47.446664" lon="-121.422797"><ele>990.3</ele></trkpt>
<trkpt lat="47.446713" lon="-121.422963"><ele>992.5</ele></trkpt>
<trkpt lat="47.447123" lon="-121.423302"><ele>997.9</ele></trkpt>
<trkpt lat="47.447289" lon="-121.424008"><ele>995.1</ele></trkpt>
<trkpt lat="47.447326" lon="-121.424539"><ele>995.2</ele></trkpt>
<trkpt lat="47.447287" lon="-121.424704"><ele>994.6</ele></trkpt>
<trkpt lat="47.447367" lon="-121.424863"><ele>995.3</ele></trkpt>
<trkpt lat="47.447308" lon="-121.425137"><ele>997.2</ele></trkpt>
<trkpt lat="47.447302" lon="-121.425485"><ele>1000.0</ele></trkpt>
<trkpt lat="47.447367" lon="-121.425962"><ele>997.4</ele></trkpt>
<trkpt lat="47.447416" lon="-121.426177"><ele>996.8</ele></trkpt>
<trkpt lat="47.447653" lon="-121.426623"><ele>1000.0</ele></trkpt>
<trkpt lat="47.447777" lon="-121.427589"><ele>1002.5</ele></trkpt>
<trkpt lat="47.447990" lon="-121.427784"><ele>1003.6</ele></trkpt>
<trkpt lat="47.448424" lon="-121.427907"><ele>1011.9</ele></trkpt>
<trkpt lat="47.448561" lon="-121.428027"><ele>1014.3</ele></trkpt>
<trkpt lat="47.448668" lon="-121.428244"><ele>1016.9</ele></trkpt>
<trkpt lat="47.448735" lon="-121.428886"><ele>1018.7</ele></trkpt>
<trkpt lat="47.448785" lon="-121.429019"><ele>1019.6</ele></trkpt>
<trkpt lat="47.448849" lon="-121.429086"><ele>1020.0</ele></trkpt>
<trkpt lat="47.449013" lon="-121.429087"><ele>1020.1</ele></trkpt>
<trkpt lat="47.449016" lon="-121.429383"><ele>1021.5</ele></trkpt>
<trkpt lat="47.449386" lon="-121.429770"><ele>1027.6</ele></trkpt>
<trkpt lat="47.449580" lon="-121.430281"><ele>1029.5</ele></trkpt>
<trkpt lat="47.450070" lon="-121.430832"><ele>1037.7</ele></trkpt>
<trkpt lat="47.450172" lon="-121.431064"><ele>1037.3</ele></trkpt>
<trkpt lat="47.450601" lon="-121.431472"><ele>1041.0</ele></trkpt>
<trkpt lat="47.450605" lon="-121.431595"><ele>1042.3</ele></trkpt>
<trkpt lat="47.450521" lon="-121.431761"><ele>1044.4</ele></trkpt>
<trkpt lat="47.450565" lon="-121.431927"><ele>1044.2</ele></trkpt>
<trkpt lat="47.450930" lon="-121.432173"><ele>1051.8</ele></trkpt>
<trkpt lat="47.451164" lon="-121.432434"><ele>1049.2</ele></trkpt>
<trkpt lat="47.451455" lon="-121.432591"><ele>1051.7</ele></trkpt>
<trkpt lat="47.451878" lon="-121.433471"><ele>1055.8</ele></trkpt>
<trkpt lat="47.451928" lon="-121.433766"><ele>1059.4</ele></trkpt>
<trkpt lat="47.452048" lon="-121.433988"><ele>1057.6</ele></trkpt>
<trkpt lat="47.452119" lon="-121.434245"><ele>1058.8</ele></trkpt>
<trkpt lat="47.452286" lon="-121.434470"><ele>1059.3</ele></trkpt>
<trkpt lat="47.452443" lon="-121.434554"><ele>1062.0</ele></trkpt>
<trkpt lat="47.452612" lon="-121.434759"><ele>1062.0</ele></trkpt>
<trkpt lat="47.452978" lon="-121.435325"><ele>1065.0</ele></trkpt>
<trkpt lat="47.453194" lon="-121.435557"><ele>1064.0</ele></trkpt>
<trkpt lat="47.453702" lon="-121.436683"><ele>1068.9</ele></trkpt>
<trkpt lat="47.453970" lon="-121.437004"><ele>1072.9</ele></trkpt>
<trkpt lat="47.454132" lon="-121.437634"><ele>1078.9</ele></trkpt>
<trkpt lat="47.454469" lon="-121.438328"><ele>1080.3</ele></trkpt>
<trkpt lat="47.454668" lon="-121.438535"><ele>1079.8</ele></trkpt>
<trkpt lat="47.455027" lon="-121.439078"><ele>1082.4</ele></trkpt>
<trkpt lat="47.455228" lon="-121.439563"><ele>1086.9</ele></trkpt>
<trkpt lat="47.455271" lon="-121.439556"><ele>1079.5</ele></trkpt>
<trkpt lat="47.455481" lon="-121.439971"><ele>1086.7</ele></trkpt>
<trkpt lat="47.455757" lon="-121.440213"><ele>1092.7</ele></trkpt>
<trkpt lat="47.456215" lon="-121.440904"><ele>1101.4</ele></trkpt>
<trkpt lat="47.456520" lon="-121.441606"><ele>1109.2</ele></trkpt>
<trkpt lat="47.456498" lon="-121.441630"><ele>1107.9</ele></trkpt>
<trkpt lat="47.456743" lon="-121.442024"><ele>1115.0</ele></trkpt>
<trkpt lat="47.456833" lon="-121.442529"><ele>1122.4</ele></trkpt>
<trkpt lat="47.456813" lon="-121.442784"><ele>1127.6</ele></trkpt>
<trkpt lat="47.456853" lon="-121.443188"><ele>1129.8</ele></trkpt>
<trkpt lat="47.456751" lon="-121.443421"><ele>1132.7</ele></trkpt>
<trkpt lat="47.456831" lon="-121.443871"><ele>1136.8</ele></trkpt>
<trkpt lat="47.457530" lon="-121.446298"><ele>1156.7</ele></trkpt>
<trkpt lat="47.457695" lon="-121.446659"><ele>1168.0</ele></trkpt>
<trkpt lat="47.457947" lon="-121.446848"><ele>1171.0</ele></trkpt>
<trkpt lat="47.458090" lon="-121.447139"><ele>1172.8</ele></trkpt>
<trkpt lat="47.458105" lon="-121.447912"><ele>1182.6</ele></trkpt>
<trkpt lat="47.458332" lon="-121.447274"><ele>1183.2</ele></trkpt>
<trkpt lat="47.458527" lon="-121.446211"><ele>1199.5</ele></trkpt>
<trkpt lat="47.458548" lon="-121.445898"><ele>1201.2</ele></trkpt>
<trkpt lat="47.458508" lon="-121.445616"><ele>1201.3</ele></trkpt>
<trkpt lat="47.458659" lon="-121.444887"><ele>1211.8</ele></trkpt>
<trkpt lat="47.458606" lon="-121.443621"><ele>1223.4</ele></trkpt>
<trkpt lat="47.458836" lon="-121.444247"><ele>1232.4</ele></trkpt>
<trkpt lat="47.459020" lon="-121.445081"><ele>1240.5</ele></trkpt>
<trkpt lat="47.459044" lon="-121.445367"><ele>1244.0</ele></trkpt>
<trkpt lat="47.459225" lon="-121.445994"><ele>1251.3</ele></trkpt>
<trkpt lat="47.459272" lon="-121.446277"><ele>1255.3</ele></trkpt>
<trkpt lat="47.459272" lon="-121.446784"><ele>1260.8</ele></trkpt>
<trkpt lat="47.459319" lon="-121.446617"><ele>1261.9</ele></trkpt>
<trkpt lat="47.459332" lon="-121.446205"><ele>1266.6</ele></trkpt>
<trkpt lat="47.459429" lon="-121.445981"><ele>1269.0</ele></trkpt>
<trkpt lat="47.459521" lon="-121.446608"><ele>1276.6</ele></trkpt>
<trkpt lat="47.459594" lon="-121.446341"><ele>1281.5</ele></trkpt>
<trkpt lat="47.459576" lon="-121.445917"><ele>1287.4</ele></trkpt>
<trkpt lat="47.459642" lon="-121.446043"><ele>1290.3</ele></trkpt>
<trkpt lat="47.459691" lon="-121.446219"><ele>1295.7</ele></trkpt>
<trkpt lat="47.459605" lon="-121.446926"><ele>1309.9</ele></trkpt>
<trkpt lat="47.459706" lon="-121.446952"><ele>1309.1</ele></trkpt>
<trkpt lat="47.459798" lon="-121.446747"><ele>1315.5</ele></trkpt>
<trkpt lat="47.459741" lon="-121.447165"><ele>1323.7</ele></trkpt>
<trkpt lat="47.459749" lon="-121.447438"><ele>1326.8</ele></trkpt>
<trkpt lat="47.459703" lon="-121.447572"><ele>1331.3</ele></trkpt>
<trkpt lat="47.459745" lon="-121.447618"><ele>1333.0</ele></trkpt>
<trkpt lat="47.459899" lon="-121.447489"><ele>1337.7</ele></trkpt>
<trkpt lat="47.460105" lon="-121.447172"><ele>1342.5</ele></trkpt>
<trkpt lat="47.460316" lon="-121.446651"><ele>1344.3</ele></trkpt>
<trkpt lat="47.460508" lon="-121.447337"><ele>1334.5</ele></trkpt>
<trkpt lat="47.460543" lon="-121.447343"><ele>1334.0</ele></trkpt>
<trkpt lat="47.460836" lon="-121.446668"><ele>1329.1</ele></trkpt>
<trkpt lat="47.461045" lon="-121.445933"><ele>1322.2</ele></trkpt>
<trkpt lat="47.461247" lon="-121.445518"><ele>1319.1</ele></trkpt>
<trkpt lat="47.461316" lon="-121.445185"><ele>1314.2</ele></trkpt>
<trkpt lat="47.461299" lon="-121.445579"><ele>1309.8</ele></trkpt>
<trkpt lat="47.461132" lon="-121.446612"><ele>1302.4</ele></trkpt>
<trkpt lat="47.461089" lon="-121.447375"><ele>1293.4</ele></trkpt>
<trkpt lat="47.461116" lon="-121.447616"><ele>1291.3</ele></trkpt>
<trkpt lat="47.461198" lon="-121.447833"><ele>1289.5</ele></trkpt>
<trkpt lat="47.461179" lon="-121.448070"><ele>1287.8</ele></trkpt>
<trkpt lat="47.461218" lon="-121.448172"><ele>1285.7</ele></trkpt>
<trkpt lat="47.461242" lon="-121.447977"><ele>1282.9</ele></trkpt>
<trkpt lat="47.461424" lon="-121.447690"><ele>1277.8</ele></trkpt>
<trkpt lat="47.461607" lon="-121.447110"><ele>1272.1</ele></trkpt>
<trkpt lat="47.462038" lon="-121.446880"><ele>1269.3</ele></trkpt>
<trkpt lat="47.462183" lon="-121.446649"><ele>1266.1</ele></trkpt>
<trkpt lat="47.462271" lon="-121.446281"><ele>1260.1</ele></trkpt>
<trkpt lat="47.462364" lon="-121.446112"><ele>1257.4</ele></trkpt>
<trkpt lat="47.462638" lon="-121.445912"><ele>1253.2</ele></trkpt>
<trkpt lat="47.463020" lon="-121.445520"><ele>1245.6</ele></trkpt>
<trkpt lat="47.463233" lon="-121.445556"><ele>1245.6</ele></trkpt>
<trkpt lat="47.463572" lon="-121.445451"><ele>1241.9</ele></trkpt>
<trkpt lat="47.463762" lon="-121.445474"><ele>1240.8</ele></trkpt>
<trkpt lat="47.463779" lon="-121.445715"><ele>1239.0</ele></trkpt>
<trkpt lat="47.463902" lon="-121.445845"><ele>1238.9</ele></trkpt>
<trkpt lat="47.463948" lon="-121.445995"><ele>1238.8</ele></trkpt>
<trkpt lat="47.463903" lon="-121.446216"><ele>1237.7</ele></trkpt>
<trkpt lat="47.463968" lon="-121.446424"><ele>1237.5</ele></trkpt>
<trkpt lat="47.464058" lon="-121.446506"><ele>1235.4</ele></trkpt>
<trkpt lat="47.464109" lon="-121.446459"><ele>1233.3</ele></trkpt>
<trkpt lat="47.464206" lon="-121.446492"><ele>1231.1</ele></trkpt>
<trkpt lat="47.464275" lon="-121.446623"><ele>1227.7</ele></trkpt>
<trkpt lat="47.464383" lon="-121.446692"><ele>1227.0</ele></trkpt>
<trkpt lat="47.464461" lon="-121.446644"><ele>1224.5</ele></trkpt>
<trkpt lat="47.464440" lon="-121.446685"><ele>1223.2</ele></trkpt>
<trkpt lat="47.464461" lon="-121.446644"><ele>1224.5</ele></trkpt>
<trkpt lat="47.464383" lon="-121.446692"><ele>1227.0</ele></trkpt>
<trkpt lat="47.464275" lon="-121.446623"><ele>1227.7</ele></trkpt>
<trkpt lat="47.464206" lon="-121.446492"><ele>1231.1</ele></trkpt>
<trkpt lat="47.464109" lon="-121.446459"><ele>1233.3</ele></trkpt>
<trkpt lat="47.464058" lon="-121.446506"><ele>1235.4</ele></trkpt>
<trkpt lat="47.463968" lon="-121.446424"><ele>1237.5</ele></trkpt>
<trkpt lat="47.463903" lon="-121.446216"><ele>1237.7</ele></trkpt>
<trkpt lat="47.463948" lon="-121.445995"><ele>1238.8</ele></trkpt>
<trkpt lat="47.463902" lon="-121.445845"><ele>1238.9</ele></trkpt>
<trkpt lat="47.463779" lon="-121.445715"><ele>1239.0</ele></trkpt>
<trkpt lat="47.463762" lon="-121.445474"><ele>1240.8</ele></trkpt>
<trkpt lat="47.463572" lon="-121.445451"><ele>1241.9</ele></trkpt>
<trkpt lat="47.463233" lon="-121.445556"><ele>1245.6</ele></trkpt>
<trkpt lat="47.463020" lon="-121.445520"><ele>1245.6</ele></trkpt>
<trkpt lat="47.462638" lon="-121.445912"><ele>1253.2</ele></trkpt>
<trkpt lat="47.462364" lon="-121.446112"><ele>1257.4</ele></trkpt>
<trkpt lat="47.462271" lon="-121.446281"><ele>1260.1</ele></trkpt>
<trkpt lat="47.462183" lon="-121.446649"><ele>1266.1</ele></trkpt>
<trkpt lat="47.462038" lon="-121.446880"><ele>1269.3</ele></trkpt>
<trkpt lat="47.461607" lon="-121.447110"><ele>1272.1</ele></trkpt>
<trkpt lat="47.461424" lon="-121.447690"><ele>1277.8</ele></trkpt>
<trkpt lat="47.461242" lon="-121.447977"><ele>1282.9</ele></trkpt>
<trkpt lat="47.461218" lon="-121.448172"><ele>1285.7</ele></trkpt>
<trkpt lat="47.461179" lon="-121.448070"><ele>1287.8</ele></trkpt>
<trkpt lat="47.461198" lon="-121.447833"><ele>1289.5</ele></trkpt>
<trkpt lat="47.461116" lon="-121.447616"><ele>1291.3</ele></trkpt>
<trkpt lat="47.461089" lon="-121.447375"><ele>1293.4</ele></trkpt>
<trkpt lat="47.461132" lon="-121.446612"><ele>1302.4</ele></trkpt>
<trkpt lat="47.461299" lon="-121.445579"><ele>1309.8</ele></trkpt>
<trkpt lat="47.461316" lon="-121.445185"><ele>1314.2</ele></trkpt>
<trkpt lat="47.461247" lon="-121.445518"><ele>1319.1</ele></trkpt>
<trkpt lat="47.461045" lon="-121.445933"><ele>1322.2</ele></trkpt>
<trkpt lat="47.460836" lon="-121.446668"><ele>1329.1</ele></trkpt>
<trkpt lat="47.460543" lon="-121.447343"><ele>1334.0</ele></trkpt>
<trkpt lat="47.460508" lon="-121.447337"><ele>1334.5</ele></trkpt>
<trkpt lat="47.460316" lon="-121.446651"><ele>1344.3</ele></trkpt>
<trkpt lat="47.460105" lon="-121.447172"><ele>1342.5</ele></trkpt>
<trkpt lat="47.459899" lon="-121.447489"><ele>1337.7</ele></trkpt>
<trkpt lat="47.459745" lon="-121.447618"><ele>1333.0</ele></trkpt>
<trkpt lat="47.459703" lon="-121.447572"><ele>1331.3</ele></trkpt>
<trkpt lat="47.459749" lon="-121.447438"><ele>1326.8</ele></trkpt>
<trkpt lat="47.459741" lon="-121.447165"><ele>1323.7</ele></trkpt>
<trkpt lat="47.459798" lon="-121.446747"><ele>1315.5</ele></trkpt>
<trkpt lat="47.459706" lon="-121.446952"><ele>1309.1</ele></trkpt>
<trkpt lat="47.459605" lon="-121.446926"><ele>1309.9</ele></trkpt>
<trkpt lat="47.459691" lon="-121.446219"><ele>1295.7</ele></trkpt>
<trkpt lat="47.459642" lon="-121.446043"><ele>1290.3</ele></trkpt>
<trkpt lat="47.459576" lon="-121.445917"><ele>1287.4</ele></trkpt>
<trkpt lat="47.459594" lon="-121.446341"><ele>1281.5</ele></trkpt>
<trkpt lat="47.459521" lon="-121.446608"><ele>1276.6</ele></trkpt>
<trkpt lat="47.459429" lon="-121.445981"><ele>1269.0</ele></trkpt>
<trkpt lat="47.459332" lon="-121.446205"><ele>1266.6</ele></trkpt>
<trkpt lat="47.459319" lon="-121.446617"><ele>1261.9</ele></trkpt>
<trkpt lat="47.459272" lon="-121.446784"><ele>1260.8</ele></trkpt>
<trkpt lat="47.459272" lon="-121.446277"><ele>1255.3</ele></trkpt>
<trkpt lat="47.459225" lon="-121.445994"><ele>1251.3</ele></trkpt>
<trkpt lat="47.459044" lon="-121.445367"><ele>1244.0</ele></trkpt>
<trkpt lat="47.459020" lon="-121.445081"><ele>1240.5</ele></trkpt>
<trkpt lat="47.458836" lon="-121.444247"><ele>1232.4</ele></trkpt>
<trkpt lat="47.458606" lon="-121.443621"><ele>1223.4</ele></trkpt>
<trkpt lat="47.458659" lon="-121.444887"><ele>1211.8</ele></trkpt>
<trkpt lat="47.458508" lon="-121.445616"><ele>1201.3</ele></trkpt>
<trkpt lat="47.458548" lon="-121.445898"><ele>1201.2</ele></trkpt>
<trkpt lat="47.458527" lon="-121.446211"><ele>1199.5</ele></trkpt>
<trkpt lat="47.458332" lon="-121.447274"><ele>1183.2</ele></trkpt>
<trkpt lat="47.458105" lon="-121.447912"><ele>1182.6</ele></trkpt>
<trkpt lat="47.458090" lon="-121.447139"><ele>1172.8</ele></trkpt>
<trkpt lat="47.457947" lon="-121.446848"><ele>1171.0</ele></trkpt>
<trkpt lat="47.457695" lon="-121.446659"><ele>1168.0</ele></trkpt>
<trkpt lat="47.457530" lon="-121.446298"><ele>1156.7</ele></trkpt>
<trkpt lat="47.456831" lon="-121.443871"><ele>1136.8</ele></trkpt>
<trkpt lat="47.456751" lon="-121.443421"><ele>1132.7</ele></trkpt>
<trkpt lat="47.456853" lon="-121.443188"><ele>1129.8</ele></trkpt>
<trkpt lat="47.456813" lon="-121.442784"><ele>1127.6</ele></trkpt>
<trkpt lat="47.456833" lon="-121.442529"><ele>1122.4</ele></trkpt>
<trkpt lat="47.456743" lon="-121.442024"><ele>1115.0</ele></trkpt>
<trkpt lat="47.456498" lon="-121.441630"><ele>1107.9</ele></trkpt>
<trkpt lat="47.456520" lon="-121.441606"><ele>1109.2</ele></trkpt>
<trkpt lat="47.456215" lon="-121.440904"><ele>1101.4</ele></trkpt>
<trkpt lat="47.455757" lon="-121.440213"><ele>1092.7</ele></trkpt>
<trkpt lat="47.455481" lon="-121.439971"><ele>1086.7</ele></trkpt>
<trkpt lat="47.455271" lon="-121.439556"><ele>1079.5</ele></trkpt>
<trkpt lat="47.455228" lon="-121.439563"><ele>1086.9</ele></trkpt>
<trkpt lat="47.455027" lon="-121.439078"><ele>1082.4</ele></trkpt>
<trkpt lat="47.454668" lon="-121.438535"><ele>1079.8</ele></trkpt>
<trkpt lat="47.454469" lon="-121.438328"><ele>1080.3</ele></trkpt>
<trkpt lat="47.454132" lon="-121.437634"><ele>1078.9</ele></trkpt>
<trkpt lat="47.453970" lon="-121.437004"><ele>1072.9</ele></trkpt>
<trkpt lat="47.453702" lon="-121.436683"><ele>1068.9</ele></trkpt>
<trkpt lat="47.453194" lon="-121.435557"><ele>1064.0</ele></trkpt>
<trkpt lat="47.452978" lon="-121.435325"><ele>1065.0</ele></trkpt>
<trkpt lat="47.452612" lon="-121.434759"><ele>1062.0</ele></trkpt>
<trkpt lat="47.452443" lon="-121.434554"><ele>1062.0</ele></trkpt>
<trkpt lat="47.452286" lon="-121.434470"><ele>1059.3</ele></trkpt>
<trkpt lat="47.452119" lon="-121.434245"><ele>1058.8</ele></trkpt>
<trkpt lat="47.452048" lon="-121.433988"><ele>1057.6</ele></trkpt>
<trkpt lat="47.451928" lon="-121.433766"><ele>1059.4</ele></trkpt>
<trkpt lat="47.451878" lon="-121.433471"><ele>1055.8</ele></trkpt>
<trkpt lat="47.451455" lon="-121.432591"><ele>1051.7</ele></trkpt>
<trkpt lat="47.451164" lon="-121.432434"><ele>1049.2</ele></trkpt>
<trkpt lat="47.450930" lon="-121.432173"><ele>1051.8</ele></trkpt>
<trkpt lat="47.450565" lon="-121.431927"><ele>1044.2</ele></trkpt>
<trkpt lat="47.450521" lon="-121.431761"><ele>1044.4</ele></trkpt>
<trkpt lat="47.450605" lon="-121.431595"><ele>1042.3</ele></trkpt>
<trkpt lat="47.450601" lon="-121.431472"><ele>1041.0</ele></trkpt>
<trkpt lat="47.450172" lon="-121.431064"><ele>1037.3</ele></trkpt>
<trkpt lat="47.450070" lon="-121.430832"><ele>1037.7</ele></trkpt>
<trkpt lat="47.449580" lon="-121.430281"><ele>1029.5</ele></trkpt>
<trkpt lat="47.449386" lon="-121.429770"><ele>1027.6</ele></trkpt>
<trkpt lat="47.449016" lon="-121.429383"><ele>1021.5</ele></trkpt>
<trkpt lat="47.449013" lon="-121.429087"><ele>1020.1</ele></trkpt>
<trkpt lat="47.448849" lon="-121.429086"><ele>1020.0</ele></trkpt>
<trkpt lat="47.448785" lon="-121.429019"><ele>1019.6</ele></trkpt>
<trkpt lat="47.448735" lon="-121.428886"><ele>1018.7</ele></trkpt>
<trkpt lat="47.448668" lon="-121.428244"><ele>1016.9</ele></trkpt>
<trkpt lat="47.448561" lon="-121.428027"><ele>1014.3</ele></trkpt>
<trkpt lat="47.448424" lon="-121.427907"><ele>1011.9</ele></trkpt>
<trkpt lat="47.447990" lon="-121.427784"><ele>1003.6</ele></trkpt>
<trkpt lat="47.447777" lon="-121.427589"><ele>1002.5</ele></trkpt>
<trkpt lat="47.447653" lon="-121.426623"><ele>1000.0</ele></trkpt>
<trkpt lat="47.447416" lon="-121.426177"><ele>996.8</ele></trkpt>
<trkpt lat="47.447367" lon="-121.425962"><ele>997.4</ele></trkpt>
<trkpt lat="47.447302" lon="-121.425485"><ele>1000.0</ele></trkpt>
<trkpt lat="47.447308" lon="-121.425137"><ele>997.2</ele></trkpt>
<trkpt lat="47.447367" lon="-121.424863"><ele>995.3</ele></trkpt>
<trkpt lat="47.447287" lon="-121.424704"><ele>994.6</ele></trkpt>
<trkpt lat="47.447326" lon="-121.424539"><ele>995.2</ele></trkpt>
<trkpt lat="47.447289" lon="-121.424008"><ele>995.1</ele></trkpt>
<trkpt lat="47.447123" lon="-121.423302"><ele>997.9</ele></trkpt>
<trkpt lat="47.446713" lon="-121.422963"><ele>992.5</ele></trkpt>
<trkpt lat="47.446664" lon="-121.422797"><ele>990.3</ele></trkpt>
<trkpt lat="47.446661" lon="-121.422992"><ele>987.2</ele></trkpt>
<trkpt lat="47.446048" lon="-121.423321"><ele>971.9</ele></trkpt>
<trkpt lat="47.445654" lon="-121.423455"><ele>959.8</ele></trkpt>
<trkpt lat="47.445597" lon="-121.423564"><ele>958.0</ele></trkpt>
<trkpt lat="47.444835" lon="-121.423366"><ele>949.3</ele></trkpt>
<trkpt lat="47.444842" lon="-121.423323"><ele>949.9</ele></trkpt>
<trkpt lat="47.444879" lon="-121.423414"><ele>950.9</ele></trkpt>
<trkpt lat="47.444841" lon="-121.423404"><ele>949.7</ele></trkpt>
</trkseg></trk>
</gpx>
