<?xml version="1.0" encoding="UTF-8"?>
<gpx version="1.1" creator="The Lost Trailhead" xmlns="http://www.topografix.com/GPX/1/1" xmlns:xsi="http://www.w3.org/2001/XMLSchema-instance" xsi:schemaLocation="http://www.topografix.com/GPX/1/1 http://www.topografix.com/GPX/1/1/gpx.xsd">
<metadata><name>Hex Mountain — Winter</name><desc>The Lost Trailhead, thelosttrailhead.com/hikes/hex-mountain-winter. Conditions change. Use at your own risk.</desc><link href="https://thelosttrailhead.com/hikes/hex-mountain-winter"><text>Hex Mountain — Winter on The Lost Trailhead</text></link></metadata>
<trk><name>Hex Mountain — Winter</name><link href="https://thelosttrailhead.com/hikes/hex-mountain-winter"><text>Hex Mountain — Winter on The Lost Trailhead</text></link><trkseg>
<trkpt lat="47.289671" lon="-121.095102"><ele>721.9</ele></trkpt>
<trkpt lat="47.290305" lon="-121.095672"><ele>724.8</ele></trkpt>
<trkpt lat="47.290657" lon="-121.096139"><ele>728.0</ele></trkpt>
<trkpt lat="47.290899" lon="-121.096548"><ele>728.0</ele></trkpt>
<trkpt lat="47.291249" lon="-121.097378"><ele>728.0</ele></trkpt>
<trkpt lat="47.291468" lon="-121.097681"><ele>728.2</ele></trkpt>
<trkpt lat="47.291626" lon="-121.098040"><ele>728.0</ele></trkpt>
<trkpt lat="47.291633" lon="-121.097899"><ele>727.8</ele></trkpt>
<trkpt lat="47.292113" lon="-121.097837"><ele>734.5</ele></trkpt>
<trkpt lat="47.292558" lon="-121.097536"><ele>743.3</ele></trkpt>
<trkpt lat="47.292799" lon="-121.097483"><ele>746.7</ele></trkpt>
<trkpt lat="47.293435" lon="-121.097523"><ele>754.6</ele></trkpt>
<trkpt lat="47.293553" lon="-121.097426"><ele>755.8</ele></trkpt>
<trkpt lat="47.293563" lon="-121.097315"><ele>754.9</ele></trkpt>
<trkpt lat="47.293618" lon="-121.097362"><ele>756.8</ele></trkpt>
<trkpt lat="47.293800" lon="-121.097033"><ele>762.2</ele></trkpt>
<trkpt lat="47.294139" lon="-121.096600"><ele>770.4</ele></trkpt>
<trkpt lat="47.294200" lon="-121.096277"><ele>773.7</ele></trkpt>
<trkpt lat="47.294147" lon="-121.096063"><ele>774.2</ele></trkpt>
<trkpt lat="47.293844" lon="-121.095848"><ele>775.2</ele></trkpt>
<trkpt lat="47.293528" lon="-121.095412"><ele>785.1</ele></trkpt>
<trkpt lat="47.293416" lon="-121.095115"><ele>788.4</ele></trkpt>
<trkpt lat="47.293382" lon="-121.094668"><ele>795.6</ele></trkpt>
<trkpt lat="47.293442" lon="-121.094517"><ele>796.2</ele></trkpt>
<trkpt lat="47.293562" lon="-121.094405"><ele>796.1</ele></trkpt>
<trkpt lat="47.294031" lon="-121.094185"><ele>794.2</ele></trkpt>
<trkpt lat="47.294337" lon="-121.093706"><ele>793.8</ele></trkpt>
<trkpt lat="47.294491" lon="-121.092788"><ele>800.1</ele></trkpt>
<trkpt lat="47.294266" lon="-121.092018"><ele>805.2</ele></trkpt>
<trkpt lat="47.294295" lon="-121.091774"><ele>806.6</ele></trkpt>
<trkpt lat="47.294447" lon="-121.091616"><ele>808.1</ele></trkpt>
<trkpt lat="47.294413" lon="-121.091575"><ele>806.4</ele></trkpt>
<trkpt lat="47.294498" lon="-121.091581"><ele>808.3</ele></trkpt>
<trkpt lat="47.294804" lon="-121.091349"><ele>816.6</ele></trkpt>
<trkpt lat="47.295047" lon="-121.090960"><ele>819.8</ele></trkpt>
<trkpt lat="47.295155" lon="-121.090867"><ele>819.3</ele></trkpt>
<trkpt lat="47.295274" lon="-121.090874"><ele>818.8</ele></trkpt>
<trkpt lat="47.295736" lon="-121.091224"><ele>823.7</ele></trkpt>
<trkpt lat="47.295832" lon="-121.091215"><ele>824.3</ele></trkpt>
<trkpt lat="47.295921" lon="-121.091123"><ele>825.0</ele></trkpt>
<trkpt lat="47.296128" lon="-121.090740"><ele>829.9</ele></trkpt>
<trkpt lat="47.296480" lon="-121.090296"><ele>835.1</ele></trkpt>
<trkpt lat="47.296586" lon="-121.089991"><ele>836.8</ele></trkpt>
<trkpt lat="47.296666" lon="-121.089540"><ele>842.9</ele></trkpt>
<trkpt lat="47.296851" lon="-121.089059"><ele>841.3</ele></trkpt>
<trkpt lat="47.297014" lon="-121.088806"><ele>845.9</ele></trkpt>
<trkpt lat="47.297509" lon="-121.088352"><ele>851.9</ele></trkpt>
<trkpt lat="47.297697" lon="-121.088109"><ele>857.8</ele></trkpt>
<trkpt lat="47.297696" lon="-121.087933"><ele>859.4</ele></trkpt>
<trkpt lat="47.297499" lon="-121.087585"><ele>863.7</ele></trkpt>
<trkpt lat="47.297489" lon="-121.087345"><ele>864.3</ele></trkpt>
<trkpt lat="47.297863" lon="-121.086678"><ele>872.2</ele></trkpt>
<trkpt lat="47.297982" lon="-121.086286"><ele>875.8</ele></trkpt>
<trkpt lat="47.298071" lon="-121.086170"><ele>878.3</ele></trkpt>
<trkpt lat="47.298291" lon="-121.086082"><ele>879.1</ele></trkpt>
<trkpt lat="47.298534" lon="-121.085887"><ele>881.7</ele></trkpt>
<trkpt lat="47.298923" lon="-121.085477"><ele>891.6</ele></trkpt>
<trkpt lat="47.299056" lon="-121.085406"><ele>894.7</ele></trkpt>
<trkpt lat="47.299311" lon="-121.085545"><ele>899.2</ele></trkpt>
<trkpt lat="47.299729" lon="-121.086051"><ele>904.2</ele></trkpt>
<trkpt lat="47.300125" lon="-121.086418"><ele>904.4</ele></trkpt>
<trkpt lat="47.300710" lon="-121.087335"><ele>901.5</ele></trkpt>
<trkpt lat="47.300808" lon="-121.087391"><ele>901.7</ele></trkpt>
<trkpt lat="47.300886" lon="-121.087358"><ele>902.1</ele></trkpt>
<trkpt lat="47.301037" lon="-121.086767"><ele>908.1</ele></trkpt>
<trkpt lat="47.301068" lon="-121.086415"><ele>913.2</ele></trkpt>
<trkpt lat="47.301067" lon="-121.085833"><ele>917.4</ele></trkpt>
<trkpt lat="47.300973" lon="-121.085308"><ele>923.5</ele></trkpt>
<trkpt lat="47.301012" lon="-121.084790"><ele>924.3</ele></trkpt>
<trkpt lat="47.301206" lon="-121.084476"><ele>929.6</ele></trkpt>
<trkpt lat="47.301797" lon="-121.084166"><ele>939.8</ele></trkpt>
<trkpt lat="47.301955" lon="-121.083873"><ele>943.6</ele></trkpt>
<trkpt lat="47.301904" lon="-121.083513"><ele>947.6</ele></trkpt>
<trkpt lat="47.301834" lon="-121.083381"><ele>950.4</ele></trkpt>
<trkpt lat="47.301783" lon="-121.082886"><ele>952.0</ele></trkpt>
<trkpt lat="47.301806" lon="-121.082525"><ele>955.7</ele></trkpt>
<trkpt lat="47.301908" lon="-121.082053"><ele>961.0</ele></trkpt>
<trkpt lat="47.302211" lon="-121.081369"><ele>971.3</ele></trkpt>
<trkpt lat="47.302191" lon="-121.081339"><ele>970.8</ele></trkpt>
<trkpt lat="47.302795" lon="-121.080391"><ele>986.9</ele></trkpt>
<trkpt lat="47.303095" lon="-121.079597"><ele>999.6</ele></trkpt>
<trkpt lat="47.303412" lon="-121.079248"><ele>1008.6</ele></trkpt>
<trkpt lat="47.303413" lon="-121.079179"><ele>1009.1</ele></trkpt>
<trkpt lat="47.303427" lon="-121.079237"><ele>1007.2</ele></trkpt>
<trkpt lat="47.303847" lon="-121.078866"><ele>1016.4</ele></trkpt>
<trkpt lat="47.304388" lon="-121.078249"><ele>1028.6</ele></trkpt>
<trkpt lat="47.304614" lon="-121.078160"><ele>1035.2</ele></trkpt>
<trkpt lat="47.304905" lon="-121.078663"><ele>1044.9</ele></trkpt>
<trkpt lat="47.305012" lon="-121.079127"><ele>1047.9</ele></trkpt>
<trkpt lat="47.304973" lon="-121.079417"><ele>1051.0</ele></trkpt>
<trkpt lat="47.304642" lon="-121.080001"><ele>1054.9</ele></trkpt>
<trkpt lat="47.304601" lon="-121.080190"><ele>1056.1</ele></trkpt>
<trkpt lat="47.304763" lon="-121.080128"><ele>1059.7</ele></trkpt>
<trkpt lat="47.305044" lon="-121.080166"><ele>1064.3</ele></trkpt>
<trkpt lat="47.305170" lon="-121.080042"><ele>1065.4</ele></trkpt>
<trkpt lat="47.305429" lon="-121.079937"><ele>1069.9</ele></trkpt>
<trkpt lat="47.305513" lon="-121.079959"><ele>1071.4</ele></trkpt>
<trkpt lat="47.305772" lon="-121.079766"><ele>1076.9</ele></trkpt>
<trkpt lat="47.306137" lon="-121.079071"><ele>1098.3</ele></trkpt>
<trkpt lat="47.306142" lon="-121.078805"><ele>1099.8</ele></trkpt>
<trkpt lat="47.306345" lon="-121.078704"><ele>1107.8</ele></trkpt>
<trkpt lat="47.306454" lon="-121.078773"><ele>1111.2</ele></trkpt>
<trkpt lat="47.306767" lon="-121.078778"><ele>1119.5</ele></trkpt>
<trkpt lat="47.306894" lon="-121.078910"><ele>1123.4</ele></trkpt>
<trkpt lat="47.307113" lon="-121.078820"><ele>1131.7</ele></trkpt>
<trkpt lat="47.308013" lon="-121.079367"><ele>1159.3</ele></trkpt>
<trkpt lat="47.308240" lon="-121.079127"><ele>1168.4</ele></trkpt>
<trkpt lat="47.308435" lon="-121.079113"><ele>1172.6</ele></trkpt>
<trkpt lat="47.308808" lon="-121.079287"><ele>1183.6</ele></trkpt>
<trkpt lat="47.309093" lon="-121.079086"><ele>1191.0</ele></trkpt>
<trkpt lat="47.309507" lon="-121.079084"><ele>1198.9</ele></trkpt>
<trkpt lat="47.309844" lon="-121.078969"><ele>1205.3</ele></trkpt>
<trkpt lat="47.310109" lon="-121.078846"><ele>1209.6</ele></trkpt>
<trkpt lat="47.310514" lon="-121.078301"><ele>1216.7</ele></trkpt>
<trkpt lat="47.310827" lon="-121.078068"><ele>1225.2</ele></trkpt>
<trkpt lat="47.311132" lon="-121.078011"><ele>1230.2</ele></trkpt>
<trkpt lat="47.311448" lon="-121.078155"><ele>1224.4</ele></trkpt>
<trkpt lat="47.311548" lon="-121.078141"><ele>1222.7</ele></trkpt>
<trkpt lat="47.313225" lon="-121.077397"><ele>1222.8</ele></trkpt>
<trkpt lat="47.313788" lon="-121.077356"><ele>1231.8</ele></trkpt>
<trkpt lat="47.313965" lon="-121.076920"><ele>1239.9</ele></trkpt>
<trkpt lat="47.314554" lon="-121.076508"><ele>1259.9</ele></trkpt>
<trkpt lat="47.314696" lon="-121.076291"><ele>1266.0</ele></trkpt>
<trkpt lat="47.314906" lon="-121.076148"><ele>1274.8</ele></trkpt>
<trkpt lat="47.315158" lon="-121.075784"><ele>1284.5</ele></trkpt>
<trkpt lat="47.315358" lon="-121.075597"><ele>1293.1</ele></trkpt>
<trkpt lat="47.315322" lon="-121.075448"><ele>1293.7</ele></trkpt>
<trkpt lat="47.315728" lon="-121.075003"><ele>1309.2</ele></trkpt>
<trkpt lat="47.316100" lon="-121.074894"><ele>1316.0</ele></trkpt>
<trkpt lat="47.316815" lon="-121.074394"><ele>1337.6</ele></trkpt>
<trkpt lat="47.317391" lon="-121.074257"><ele>1351.0</ele></trkpt>
<trkpt lat="47.317557" lon="-121.074149"><ele>1355.4</ele></trkpt>
<trkpt lat="47.317619" lon="-121.074023"><ele>1358.0</ele></trkpt>
<trkpt lat="47.317923" lon="-121.073944"><ele>1361.7</ele></trkpt>
<trkpt lat="47.318126" lon="-121.073759"><ele>1365.0</ele></trkpt>
<trkpt lat="47.318330" lon="-121.073696"><ele>1366.5</ele></trkpt>
<trkpt lat="47.318476" lon="-121.073523"><ele>1372.4</ele></trkpt>
<trkpt lat="47.318724" lon="-121.073419"><ele>1377.7</ele></trkpt>
<trkpt lat="47.319382" lon="-121.072677"><ele>1384.8</ele></trkpt>
<trkpt lat="47.319674" lon="-121.072460"><ele>1394.1</ele></trkpt>
<trkpt lat="47.319771" lon="-121.072469"><ele>1397.4</ele></trkpt>
<trkpt lat="47.319862" lon="-121.072381"><ele>1400.8</ele></trkpt>
<trkpt lat="47.319934" lon="-121.072193"><ele>1403.6</ele></trkpt>
<trkpt lat="47.320295" lon="-121.071927"><ele>1414.5</ele></trkpt>
<trkpt lat="47.320389" lon="-121.071746"><ele>1417.8</ele></trkpt>
<trkpt lat="47.320582" lon="-121.071542"><ele>1422.9</ele></trkpt>
<trkpt lat="47.320714" lon="-121.071186"><ele>1428.6</ele></trkpt>
<trkpt lat="47.320912" lon="-121.070935"><ele>1435.7</ele></trkpt>
<trkpt lat="47.320993" lon="-121.070720"><ele>1439.6</ele></trkpt>
<trkpt lat="47.321448" lon="-121.070019"><ele>1456.5</ele></trkpt>
<trkpt lat="47.321584" lon="-121.069884"><ele>1457.6</ele></trkpt>
<trkpt lat="47.321733" lon="-121.069860"><ele>1464.7</ele></trkpt>
<trkpt lat="47.321853" lon="-121.069637"><ele>1468.1</ele></trkpt>
<trkpt lat="47.321988" lon="-121.069214"><ele>1472.7</ele></trkpt>
<trkpt lat="47.322080" lon="-121.068532"><ele>1483.2</ele></trkpt>
<trkpt lat="47.322166" lon="-121.068380"><ele>1487.7</ele></trkpt>
<trkpt lat="47.322212" lon="-121.067732"><ele>1491.5</ele></trkpt>
<trkpt lat="47.321868" lon="-121.066373"><ele>1490.0</ele></trkpt>
<trkpt lat="47.321661" lon="-121.065873"><ele>1496.9</ele></trkpt>
<trkpt lat="47.321494" lon="-121.065653"><ele>1502.8</ele></trkpt>
<trkpt lat="47.321514" lon="-121.065357"><ele>1507.9</ele></trkpt>
<trkpt lat="47.321404" lon="-121.065255"><ele>1509.8</ele></trkpt>
<trkpt lat="47.321187" lon="-121.064880"><ele>1525.4</ele></trkpt>
<trkpt lat="47.321025" lon="-121.064787"><ele>1529.4</ele></trkpt>
<trkpt lat="47.321037" lon="-121.064696"><ele>1531.5</ele></trkpt>
<trkpt lat="47.321090" lon="-121.064676"><ele>1535.4</ele></trkpt>
<trkpt lat="47.320989" lon="-121.064665"><ele>1530.9</ele></trkpt>
<trkpt lat="47.320920" lon="-121.064521"><ele>1528.3</ele></trkpt>
<trkpt lat="47.320476" lon="-121.063038"><ele>1507.7</ele></trkpt>
<trkpt lat="47.320278" lon="-121.062007"><ele>1515.3</ele></trkpt>
<trkpt lat="47.320476" lon="-121.063038"><ele>1507.7</ele></trkpt>
<trkpt lat="47.320920" lon="-121.064521"><ele>1528.3</ele></trkpt>
<trkpt lat="47.320989" lon="-121.064665"><ele>1530.9</ele></trkpt>
<trkpt lat="47.321090" lon="-121.064676"><ele>1535.4</ele></trkpt>
<trkpt lat="47.321037" lon="-121.064696"><ele>1531.5</ele></trkpt>
<trkpt lat="47.321025" lon="-121.064787"><ele>1529.4</ele></trkpt>
<trkpt lat="47.321187" lon="-121.064880"><ele>1525.4</ele></trkpt>
<trkpt lat="47.321404" lon="-121.065255"><ele>1509.8</ele></trkpt>
<trkpt lat="47.321514" lon="-121.065357"><ele>1507.9</ele></trkpt>
<trkpt lat="47.321494" lon="-121.065653"><ele>1502.8</ele></trkpt>
<trkpt lat="47.321661" lon="-121.065873"><ele>1496.9</ele></trkpt>
<trkpt lat="47.321868" lon="-121.066373"><ele>1490.0</ele></trkpt>
<trkpt lat="47.322212" lon="-121.067732"><ele>1491.5</ele></trkpt>
<trkpt lat="47.322166" lon="-121.068380"><ele>1487.7</ele></trkpt>
<trkpt lat="47.322080" lon="-121.068532"><ele>1483.2</ele></trkpt>
<trkpt lat="47.321988" lon="-121.069214"><ele>1472.7</ele></trkpt>
<trkpt lat="47.321853" lon="-121.069637"><ele>1468.1</ele></trkpt>
<trkpt lat="47.321733" lon="-121.069860"><ele>1464.7</ele></trkpt>
<trkpt lat="47.321584" lon="-121.069884"><ele>1457.6</ele></trkpt>
<trkpt lat="47.321448" lon="-121.070019"><ele>1456.5</ele></trkpt>
<trkpt lat="47.320993" lon="-121.070720"><ele>1439.6</ele></trkpt>
<trkpt lat="47.320912" lon="-121.070935"><ele>1435.7</ele></trkpt>
<trkpt lat="47.320714" lon="-121.071186"><ele>1428.6</ele></trkpt>
<trkpt lat="47.320582" lon="-121.071542"><ele>1422.9</ele></trkpt>
<trkpt lat="47.320389" lon="-121.071746"><ele>1417.8</ele></trkpt>
<trkpt lat="47.320295" lon="-121.071927"><ele>1414.5</ele></trkpt>
<trkpt lat="47.319934" lon="-121.072193"><ele>1403.6</ele></trkpt>
<trkpt lat="47.319862" lon="-121.072381"><ele>1400.8</ele></trkpt>
<trkpt lat="47.319771" lon="-121.072469"><ele>1397.4</ele></trkpt>
<trkpt lat="47.319674" lon="-121.072460"><ele>1394.1</ele></trkpt>
<trkpt lat="47.319382" lon="-121.072677"><ele>1384.8</ele></trkpt>
<trkpt lat="47.318724" lon="-121.073419"><ele>1377.7</ele></trkpt>
<trkpt lat="47.318476" lon="-121.073523"><ele>1372.4</ele></trkpt>
<trkpt lat="47.318330" lon="-121.073696"><ele>1366.5</ele></trkpt>
<trkpt lat="47.318126" lon="-121.073759"><ele>1365.0</ele></trkpt>
<trkpt lat="47.317923" lon="-121.073944"><ele>1361.7</ele></trkpt>
<trkpt lat="47.317619" lon="-121.074023"><ele>1358.0</ele></trkpt>
<trkpt lat="47.317557" lon="-121.074149"><ele>1355.4</ele></trkpt>
<trkpt lat="47.317391" lon="-121.074257"><ele>1351.0</ele></trkpt>
<trkpt lat="47.316815" lon="-121.074394"><ele>1337.6</ele></trkpt>
<trkpt lat="47.316100" lon="-121.074894"><ele>1316.0</ele></trkpt>
<trkpt lat="47.315728" lon="-121.075003"><ele>1309.2</ele></trkpt>
<trkpt lat="47.315322" lon="-121.075448"><ele>1293.7</ele></trkpt>
<trkpt lat="47.315358" lon="-121.075597"><ele>1293.1</ele></trkpt>
<trkpt lat="47.315158" lon="-121.075784"><ele>1284.5</ele></trkpt>
<trkpt lat="47.314906" lon="-121.076148"><ele>1274.8</ele></trkpt>
<trkpt lat="47.314696" lon="-121.076291"><ele>1266.0</ele></trkpt>
<trkpt lat="47.314554" lon="-121.076508"><ele>1259.9</ele></trkpt>
<trkpt lat="47.313965" lon="-121.076920"><ele>1239.9</ele></trkpt>
<trkpt lat="47.313788" lon="-121.077356"><ele>1231.8</ele></trkpt>
<trkpt lat="47.313225" lon="-121.077397"><ele>1222.8</ele></trkpt>
<trkpt lat="47.311548" lon="-121.078141"><ele>1222.7</ele></trkpt>
<trkpt lat="47.311448" lon="-121.078155"><ele>1224.4</ele></trkpt>
<trkpt lat="47.311132" lon="-121.078011"><ele>1230.2</ele></trkpt>
<trkpt lat="47.310827" lon="-121.078068"><ele>1225.2</ele></trkpt>
<trkpt lat="47.310514" lon="-121.078301"><ele>1216.7</ele></trkpt>
<trkpt lat="47.310109" lon="-121.078846"><ele>1209.6</ele></trkpt>
<trkpt lat="47.309844" lon="-121.078969"><ele>1205.3</ele></trkpt>
<trkpt lat="47.309507" lon="-121.079084"><ele>1198.9</ele></trkpt>
<trkpt lat="47.309093" lon="-121.079086"><ele>1191.0</ele></trkpt>
<trkpt lat="47.308808" lon="-121.079287"><ele>1183.6</ele></trkpt>
<trkpt lat="47.308435" lon="-121.079113"><ele>1172.6</ele></trkpt>
<trkpt lat="47.308240" lon="-121.079127"><ele>1168.4</ele></trkpt>
<trkpt lat="47.308013" lon="-121.079367"><ele>1159.3</ele></trkpt>
<trkpt lat="47.307113" lon="-121.078820"><ele>1131.7</ele></trkpt>
<trkpt lat="47.306894" lon="-121.078910"><ele>1123.4</ele></trkpt>
<trkpt lat="47.306767" lon="-121.078778"><ele>1119.5</ele></trkpt>
<trkpt lat="47.306454" lon="-121.078773"><ele>1111.2</ele></trkpt>
<trkpt lat="47.306345" lon="-121.078704"><ele>1107.8</ele></trkpt>
<trkpt lat="47.306142" lon="-121.078805"><ele>1099.8</ele></trkpt>
<trkpt lat="47.306137" lon="-121.079071"><ele>1098.3</ele></trkpt>
<trkpt lat="47.305772" lon="-121.079766"><ele>1076.9</ele></trkpt>
<trkpt lat="47.305513" lon="-121.079959"><ele>1071.4</ele></trkpt>
<trkpt lat="47.305429" lon="-121.079937"><ele>1069.9</ele></trkpt>
<trkpt lat="47.305170" lon="-121.080042"><ele>1065.4</ele></trkpt>
<trkpt lat="47.305044" lon="-121.080166"><ele>1064.3</ele></trkpt>
<trkpt lat="47.304763" lon="-121.080128"><ele>1059.7</ele></trkpt>
<trkpt lat="47.304601" lon="-121.080190"><ele>1056.1</ele></trkpt>
<trkpt lat="47.304642" lon="-121.080001"><ele>1054.9</ele></trkpt>
<trkpt lat="47.304973" lon="-121.079417"><ele>1051.0</ele></trkpt>
<trkpt lat="47.305012" lon="-121.079127"><ele>1047.9</ele></trkpt>
<trkpt lat="47.304905" lon="-121.078663"><ele>1044.9</ele></trkpt>
<trkpt lat="47.304614" lon="-121.078160"><ele>1035.2</ele></trkpt>
<trkpt lat="47.304388" lon="-121.078249"><ele>1028.6</ele></trkpt>
<trkpt lat="47.303847" lon="-121.078866"><ele>1016.4</ele></trkpt>
<trkpt lat="47.303427" lon="-121.079237"><ele>1007.2</ele></trkpt>
<trkpt lat="47.303413" lon="-121.079179"><ele>1009.1</ele></trkpt>
<trkpt lat="47.303412" lon="-121.079248"><ele>1008.6</ele></trkpt>
<trkpt lat="47.303095" lon="-121.079597"><ele>999.6</ele></trkpt>
<trkpt lat="47.302795" lon="-121.080391"><ele>986.9</ele></trkpt>
<trkpt lat="47.302191" lon="-121.081339"><ele>970.8</ele></trkpt>
<trkpt lat="47.302211" lon="-121.081369"><ele>971.3</ele></trkpt>
<trkpt lat="47.301908" lon="-121.082053"><ele>961.0</ele></trkpt>
<trkpt lat="47.301806" lon="-121.082525"><ele>955.7</ele></trkpt>
<trkpt lat="47.301783" lon="-121.082886"><ele>952.0</ele></trkpt>
<trkpt lat="47.301834" lon="-121.083381"><ele>950.4</ele></trkpt>
<trkpt lat="47.301904" lon="-121.083513"><ele>947.6</ele></trkpt>
<trkpt lat="47.301955" lon="-121.083873"><ele>943.6</ele></trkpt>
<trkpt lat="47.301797" lon="-121.084166"><ele>939.8</ele></trkpt>
<trkpt lat="47.301206" lon="-121.084476"><ele>929.6</ele></trkpt>
<trkpt lat="47.301012" lon="-121.084790"><ele>924.3</ele></trkpt>
<trkpt lat="47.300973" lon="-121.085308"><ele>923.5</ele></trkpt>
<trkpt lat="47.301067" lon="-121.085833"><ele>917.4</ele></trkpt>
<trkpt lat="47.301068" lon="-121.086415"><ele>913.2</ele></trkpt>
<trkpt lat="47.301037" lon="-121.086767"><ele>908.1</ele></trkpt>
<trkpt lat="47.300886" lon="-121.087358"><ele>902.1</ele></trkpt>
<trkpt lat="47.300808" lon="-121.087391"><ele>901.7</ele></trkpt>
<trkpt lat="47.300710" lon="-121.087335"><ele>901.5</ele></trkpt>
<trkpt lat="47.300125" lon="-121.086418"><ele>904.4</ele></trkpt>
<trkpt lat="47.299729" lon="-121.086051"><ele>904.2</ele></trkpt>
<trkpt lat="47.299311" lon="-121.085545"><ele>899.2</ele></trkpt>
<trkpt lat="47.299056" lon="-121.085406"><ele>894.7</ele></trkpt>
<trkpt lat="47.298923" lon="-121.085477"><ele>891.6</ele></trkpt>
<trkpt lat="47.298534" lon="-121.085887"><ele>881.7</ele></trkpt>
<trkpt lat="47.298291" lon="-121.086082"><ele>879.1</ele></trkpt>
<trkpt lat="47.298071" lon="-121.086170"><ele>878.3</ele></trkpt>
<trkpt lat="47.297982" lon="-121.086286"><ele>875.8</ele></trkpt>
<trkpt lat="47.297863" lon="-121.086678"><ele>872.2</ele></trkpt>
<trkpt lat="47.297489" lon="-121.087345"><ele>864.3</ele></trkpt>
<trkpt lat="47.297499" lon="-121.087585"><ele>863.7</ele></trkpt>
<trkpt lat="47.297696" lon="-121.087933"><ele>859.4</ele></trkpt>
<trkpt lat="47.297697" lon="-121.088109"><ele>857.8</ele></trkpt>
<trkpt lat="47.297509" lon="-121.088352"><ele>851.9</ele></trkpt>
<trkpt lat="47.297014" lon="-121.088806"><ele>845.9</ele></trkpt>
<trkpt lat="47.296851" lon="-121.089059"><ele>841.3</ele></trkpt>
<trkpt lat="47.296666" lon="-121.089540"><ele>842.9</ele></trkpt>
<trkpt lat="47.296586" lon="-121.089991"><ele>836.8</ele></trkpt>
<trkpt lat="47.296480" lon="-121.090296"><ele>835.1</ele></trkpt>
<trkpt lat="47.296128" lon="-121.090740"><ele>829.9</ele></trkpt>
<trkpt lat="47.295921" lon="-121.091123"><ele>825.0</ele></trkpt>
<trkpt lat="47.295832" lon="-121.091215"><ele>824.3</ele></trkpt>
<trkpt lat="47.295736" lon="-121.091224"><ele>823.7</ele></trkpt>
<trkpt lat="47.295274" lon="-121.090874"><ele>818.8</ele></trkpt>
<trkpt lat="47.295155" lon="-121.090867"><ele>819.3</ele></trkpt>
<trkpt lat="47.295047" lon="-121.090960"><ele>819.8</ele></trkpt>
<trkpt lat="47.294804" lon="-121.091349"><ele>816.6</ele></trkpt>
<trkpt lat="47.294498" lon="-121.091581"><ele>808.3</ele></trkpt>
<trkpt lat="47.294413" lon="-121.091575"><ele>806.4</ele></trkpt>
<trkpt lat="47.294447" lon="-121.091616"><ele>808.1</ele></trkpt>
<trkpt lat="47.294295" lon="-121.091774"><ele>806.6</ele></trkpt>
<trkpt lat="47.294266" lon="-121.092018"><ele>805.2</ele></trkpt>
<trkpt lat="47.294491" lon="-121.092788"><ele>800.1</ele></trkpt>
<trkpt lat="47.294337" lon="-121.093706"><ele>793.8</ele></trkpt>
<trkpt lat="47.294031" lon="-121.094185"><ele>794.2</ele></trkpt>
<trkpt lat="47.293562" lon="-121.094405"><ele>796.1</ele></trkpt>
<trkpt lat="47.293442" lon="-121.094517"><ele>796.2</ele></trkpt>
<trkpt lat="47.293382" lon="-121.094668"><ele>795.6</ele></trkpt>
<trkpt lat="47.293416" lon="-121.095115"><ele>788.4</ele></trkpt>
<trkpt lat="47.293528" lon="-121.095412"><ele>785.1</ele></trkpt>
<trkpt lat="47.293844" lon="-121.095848"><ele>775.2</ele></trkpt>
<trkpt lat="47.294147" lon="-121.096063"><ele>774.2</ele></trkpt>
<trkpt lat="47.294200" lon="-121.096277"><ele>773.7</ele></trkpt>
<trkpt lat="47.294139" lon="-121.096600"><ele>770.4</ele></trkpt>
<trkpt lat="47.293800" lon="-121.097033"><ele>762.2</ele></trkpt>
<trkpt lat="47.293618" lon="-121.097362"><ele>756.8</ele></trkpt>
<trkpt lat="47.293563" lon="-121.097315"><ele>754.9</ele></trkpt>
<trkpt lat="47.293553" lon="-121.097426"><ele>755.8</ele></trkpt>
<trkpt lat="47.293435" lon="-121.097523"><ele>754.6</ele></trkpt>
<trkpt lat="47.292799" lon="-121.097483"><ele>746.7</ele></trkpt>
<trkpt lat="47.292558" lon="-121.097536"><ele>743.3</ele></trkpt>
<trkpt lat="47.292113" lon="-121.097837"><ele>734.5</ele></trkpt>
<trkpt lat="47.291633" lon="-121.097899"><ele>727.8</ele></trkpt>
<trkpt lat="47.291626" lon="-121.098040"><ele>728.0</ele></trkpt>
<trkpt lat="47.291468" lon="-121.097681"><ele>728.2</ele></trkpt>
<trkpt lat="47.291249" lon="-121.097378"><ele>728.0</ele></trkpt>
<trkpt lat="47.290899" lon="-121.096548"><ele>728.0</ele></trkpt>
<trkpt lat="47.290657" lon="-121.096139"><ele>728.0</ele></trkpt>
<trkpt lat="47.290305" lon="-121.095672"><ele>724.8</ele></trkpt>
<trkpt lat="47.289671" lon="-121.095102"><ele>721.9</ele></trkpt>
</trkseg></trk>
</gpx>
