<?xml version="1.0" encoding="UTF-8"?>
<gpx version="1.1" creator="The Lost Trailhead" xmlns="http://www.topografix.com/GPX/1/1" xmlns:xsi="http://www.w3.org/2001/XMLSchema-instance" xsi:schemaLocation="http://www.topografix.com/GPX/1/1 http://www.topografix.com/GPX/1/1/gpx.xsd">
<metadata><name>Maple Pass Loop</name><desc>The Lost Trailhead, thelosttrailhead.com/hikes/maple-pass-loop. Conditions change. Use at your own risk.</desc><link href="https://thelosttrailhead.com/hikes/maple-pass-loop"><text>Maple Pass Loop on The Lost Trailhead</text></link></metadata>
<trk><name>Maple Pass Loop</name><link href="https://thelosttrailhead.com/hikes/maple-pass-loop"><text>Maple Pass Loop on The Lost Trailhead</text></link><trkseg>
<trkpt lat="48.516537" lon="-120.735161"><ele>1488.1</ele></trkpt>
<trkpt lat="48.516430" lon="-120.735393"><ele>1486.4</ele></trkpt>
<trkpt lat="48.516516" lon="-120.735557"><ele>1486.6</ele></trkpt>
<trkpt lat="48.516533" lon="-120.735806"><ele>1487.2</ele></trkpt>
<trkpt lat="48.516593" lon="-120.735855"><ele>1487.7</ele></trkpt>
<trkpt lat="48.516558" lon="-120.735807"><ele>1487.8</ele></trkpt>
<trkpt lat="48.516592" lon="-120.735782"><ele>1487.8</ele></trkpt>
<trkpt lat="48.516543" lon="-120.735772"><ele>1487.8</ele></trkpt>
<trkpt lat="48.516150" lon="-120.735852"><ele>1486.6</ele></trkpt>
<trkpt lat="48.515970" lon="-120.735981"><ele>1486.4</ele></trkpt>
<trkpt lat="48.515719" lon="-120.735984"><ele>1486.7</ele></trkpt>
<trkpt lat="48.515532" lon="-120.736103"><ele>1488.0</ele></trkpt>
<trkpt lat="48.515195" lon="-120.735851"><ele>1487.8</ele></trkpt>
<trkpt lat="48.515179" lon="-120.735966"><ele>1487.7</ele></trkpt>
<trkpt lat="48.514799" lon="-120.735983"><ele>1494.6</ele></trkpt>
<trkpt lat="48.514783" lon="-120.736028"><ele>1495.2</ele></trkpt>
<trkpt lat="48.514981" lon="-120.736363"><ele>1499.6</ele></trkpt>
<trkpt lat="48.515302" lon="-120.736652"><ele>1504.4</ele></trkpt>
<trkpt lat="48.515512" lon="-120.736973"><ele>1509.0</ele></trkpt>
<trkpt lat="48.515965" lon="-120.737035"><ele>1515.2</ele></trkpt>
<trkpt lat="48.516292" lon="-120.737164"><ele>1519.4</ele></trkpt>
<trkpt lat="48.516641" lon="-120.737343"><ele>1524.2</ele></trkpt>
<trkpt lat="48.516871" lon="-120.737586"><ele>1527.0</ele></trkpt>
<trkpt lat="48.517275" lon="-120.737858"><ele>1531.7</ele></trkpt>
<trkpt lat="48.517068" lon="-120.737763"><ele>1535.1</ele></trkpt>
<trkpt lat="48.516381" lon="-120.737679"><ele>1543.5</ele></trkpt>
<trkpt lat="48.516242" lon="-120.737809"><ele>1545.7</ele></trkpt>
<trkpt lat="48.516100" lon="-120.737851"><ele>1547.3</ele></trkpt>
<trkpt lat="48.515887" lon="-120.738253"><ele>1551.1</ele></trkpt>
<trkpt lat="48.515582" lon="-120.738384"><ele>1555.9</ele></trkpt>
<trkpt lat="48.515267" lon="-120.738774"><ele>1559.5</ele></trkpt>
<trkpt lat="48.515002" lon="-120.738959"><ele>1563.3</ele></trkpt>
<trkpt lat="48.514708" lon="-120.739327"><ele>1569.3</ele></trkpt>
<trkpt lat="48.514573" lon="-120.739311"><ele>1570.0</ele></trkpt>
<trkpt lat="48.514360" lon="-120.739414"><ele>1571.8</ele></trkpt>
<trkpt lat="48.514203" lon="-120.739603"><ele>1574.4</ele></trkpt>
<trkpt lat="48.513746" lon="-120.739956"><ele>1581.0</ele></trkpt>
<trkpt lat="48.513468" lon="-120.740087"><ele>1584.5</ele></trkpt>
<trkpt lat="48.513155" lon="-120.740410"><ele>1589.3</ele></trkpt>
<trkpt lat="48.512964" lon="-120.740486"><ele>1592.0</ele></trkpt>
<trkpt lat="48.512466" lon="-120.740453"><ele>1597.2</ele></trkpt>
<trkpt lat="48.512321" lon="-120.740559"><ele>1598.7</ele></trkpt>
<trkpt lat="48.512223" lon="-120.740929"><ele>1601.7</ele></trkpt>
<trkpt lat="48.512073" lon="-120.741174"><ele>1603.3</ele></trkpt>
<trkpt lat="48.512028" lon="-120.741552"><ele>1607.6</ele></trkpt>
<trkpt lat="48.512080" lon="-120.741561"><ele>1608.2</ele></trkpt>
<trkpt lat="48.511838" lon="-120.741981"><ele>1610.6</ele></trkpt>
<trkpt lat="48.511679" lon="-120.742432"><ele>1614.5</ele></trkpt>
<trkpt lat="48.511619" lon="-120.742864"><ele>1617.8</ele></trkpt>
<trkpt lat="48.511645" lon="-120.743501"><ele>1622.5</ele></trkpt>
<trkpt lat="48.511615" lon="-120.743778"><ele>1624.6</ele></trkpt>
<trkpt lat="48.511489" lon="-120.744270"><ele>1627.9</ele></trkpt>
<trkpt lat="48.511300" lon="-120.744686"><ele>1632.8</ele></trkpt>
<trkpt lat="48.511244" lon="-120.745521"><ele>1639.4</ele></trkpt>
<trkpt lat="48.511170" lon="-120.745753"><ele>1642.5</ele></trkpt>
<trkpt lat="48.510954" lon="-120.746134"><ele>1645.5</ele></trkpt>
<trkpt lat="48.510621" lon="-120.746314"><ele>1649.5</ele></trkpt>
<trkpt lat="48.510390" lon="-120.746223"><ele>1652.6</ele></trkpt>
<trkpt lat="48.510072" lon="-120.745702"><ele>1652.7</ele></trkpt>
<trkpt lat="48.509795" lon="-120.745390"><ele>1652.2</ele></trkpt>
<trkpt lat="48.509319" lon="-120.744525"><ele>1657.6</ele></trkpt>
<trkpt lat="48.509286" lon="-120.744241"><ele>1658.7</ele></trkpt>
<trkpt lat="48.509407" lon="-120.743677"><ele>1660.3</ele></trkpt>
<trkpt lat="48.509260" lon="-120.743246"><ele>1659.5</ele></trkpt>
<trkpt lat="48.509173" lon="-120.743162"><ele>1659.4</ele></trkpt>
<trkpt lat="48.509072" lon="-120.743175"><ele>1659.7</ele></trkpt>
<trkpt lat="48.508955" lon="-120.743292"><ele>1660.6</ele></trkpt>
<trkpt lat="48.508891" lon="-120.743471"><ele>1661.9</ele></trkpt>
<trkpt lat="48.508758" lon="-120.744546"><ele>1665.8</ele></trkpt>
<trkpt lat="48.508687" lon="-120.745857"><ele>1673.8</ele></trkpt>
<trkpt lat="48.508610" lon="-120.746334"><ele>1677.3</ele></trkpt>
<trkpt lat="48.508608" lon="-120.747566"><ele>1687.6</ele></trkpt>
<trkpt lat="48.508722" lon="-120.748722"><ele>1695.9</ele></trkpt>
<trkpt lat="48.508805" lon="-120.749082"><ele>1699.2</ele></trkpt>
<trkpt lat="48.508780" lon="-120.749983"><ele>1706.2</ele></trkpt>
<trkpt lat="48.508835" lon="-120.750162"><ele>1706.8</ele></trkpt>
<trkpt lat="48.508754" lon="-120.750860"><ele>1712.5</ele></trkpt>
<trkpt lat="48.508773" lon="-120.751391"><ele>1716.5</ele></trkpt>
<trkpt lat="48.508723" lon="-120.751596"><ele>1718.0</ele></trkpt>
<trkpt lat="48.508786" lon="-120.752191"><ele>1722.2</ele></trkpt>
<trkpt lat="48.508645" lon="-120.753585"><ele>1733.5</ele></trkpt>
<trkpt lat="48.508700" lon="-120.753801"><ele>1735.6</ele></trkpt>
<trkpt lat="48.508698" lon="-120.754394"><ele>1739.3</ele></trkpt>
<trkpt lat="48.508764" lon="-120.755166"><ele>1746.1</ele></trkpt>
<trkpt lat="48.509077" lon="-120.756912"><ele>1762.1</ele></trkpt>
<trkpt lat="48.509105" lon="-120.757815"><ele>1770.7</ele></trkpt>
<trkpt lat="48.509048" lon="-120.758777"><ele>1778.2</ele></trkpt>
<trkpt lat="48.508943" lon="-120.759184"><ele>1781.8</ele></trkpt>
<trkpt lat="48.508913" lon="-120.759568"><ele>1785.5</ele></trkpt>
<trkpt lat="48.508854" lon="-120.759713"><ele>1788.3</ele></trkpt>
<trkpt lat="48.508863" lon="-120.760065"><ele>1792.2</ele></trkpt>
<trkpt lat="48.508820" lon="-120.760189"><ele>1794.0</ele></trkpt>
<trkpt lat="48.508913" lon="-120.760090"><ele>1795.5</ele></trkpt>
<trkpt lat="48.509073" lon="-120.759521"><ele>1801.1</ele></trkpt>
<trkpt lat="48.508993" lon="-120.760233"><ele>1805.7</ele></trkpt>
<trkpt lat="48.508846" lon="-120.760965"><ele>1813.2</ele></trkpt>
<trkpt lat="48.508884" lon="-120.760966"><ele>1814.5</ele></trkpt>
<trkpt lat="48.509096" lon="-120.760534"><ele>1820.9</ele></trkpt>
<trkpt lat="48.508939" lon="-120.761128"><ele>1826.1</ele></trkpt>
<trkpt lat="48.508797" lon="-120.761960"><ele>1835.5</ele></trkpt>
<trkpt lat="48.508667" lon="-120.763689"><ele>1850.8</ele></trkpt>
<trkpt lat="48.508352" lon="-120.764181"><ele>1856.0</ele></trkpt>
<trkpt lat="48.508286" lon="-120.764459"><ele>1858.9</ele></trkpt>
<trkpt lat="48.508152" lon="-120.764462"><ele>1860.8</ele></trkpt>
<trkpt lat="48.508081" lon="-120.764647"><ele>1861.9</ele></trkpt>
<trkpt lat="48.508396" lon="-120.764597"><ele>1866.1</ele></trkpt>
<trkpt lat="48.508608" lon="-120.764411"><ele>1868.8</ele></trkpt>
<trkpt lat="48.508690" lon="-120.764403"><ele>1868.5</ele></trkpt>
<trkpt lat="48.508946" lon="-120.764541"><ele>1872.2</ele></trkpt>
<trkpt lat="48.508982" lon="-120.764637"><ele>1872.3</ele></trkpt>
<trkpt lat="48.509293" lon="-120.764905"><ele>1875.8</ele></trkpt>
<trkpt lat="48.509058" lon="-120.764787"><ele>1878.6</ele></trkpt>
<trkpt lat="48.508799" lon="-120.764904"><ele>1883.8</ele></trkpt>
<trkpt lat="48.508567" lon="-120.764878"><ele>1887.7</ele></trkpt>
<trkpt lat="48.508305" lon="-120.765059"><ele>1893.7</ele></trkpt>
<trkpt lat="48.508156" lon="-120.765317"><ele>1896.2</ele></trkpt>
<trkpt lat="48.508179" lon="-120.765394"><ele>1897.3</ele></trkpt>
<trkpt lat="48.508365" lon="-120.765323"><ele>1899.5</ele></trkpt>
<trkpt lat="48.508550" lon="-120.765571"><ele>1900.5</ele></trkpt>
<trkpt lat="48.508802" lon="-120.765646"><ele>1902.5</ele></trkpt>
<trkpt lat="48.508772" lon="-120.765775"><ele>1902.3</ele></trkpt>
<trkpt lat="48.508802" lon="-120.766073"><ele>1905.8</ele></trkpt>
<trkpt lat="48.508918" lon="-120.766348"><ele>1908.6</ele></trkpt>
<trkpt lat="48.508704" lon="-120.766304"><ele>1912.9</ele></trkpt>
<trkpt lat="48.508629" lon="-120.766220"><ele>1915.0</ele></trkpt>
<trkpt lat="48.508257" lon="-120.766335"><ele>1920.3</ele></trkpt>
<trkpt lat="48.508121" lon="-120.766282"><ele>1921.4</ele></trkpt>
<trkpt lat="48.508010" lon="-120.766407"><ele>1922.9</ele></trkpt>
<trkpt lat="48.507806" lon="-120.766496"><ele>1925.5</ele></trkpt>
<trkpt lat="48.507739" lon="-120.766571"><ele>1926.2</ele></trkpt>
<trkpt lat="48.507775" lon="-120.766592"><ele>1926.7</ele></trkpt>
<trkpt lat="48.507574" lon="-120.766746"><ele>1928.0</ele></trkpt>
<trkpt lat="48.507335" lon="-120.767103"><ele>1932.4</ele></trkpt>
<trkpt lat="48.507254" lon="-120.767135"><ele>1932.7</ele></trkpt>
<trkpt lat="48.507133" lon="-120.767040"><ele>1932.8</ele></trkpt>
<trkpt lat="48.507002" lon="-120.766623"><ele>1934.3</ele></trkpt>
<trkpt lat="48.506894" lon="-120.766525"><ele>1936.1</ele></trkpt>
<trkpt lat="48.506670" lon="-120.766689"><ele>1938.4</ele></trkpt>
<trkpt lat="48.505992" lon="-120.766953"><ele>1943.3</ele></trkpt>
<trkpt lat="48.505742" lon="-120.767144"><ele>1944.2</ele></trkpt>
<trkpt lat="48.505432" lon="-120.767221"><ele>1944.1</ele></trkpt>
<trkpt lat="48.505276" lon="-120.767222"><ele>1946.0</ele></trkpt>
<trkpt lat="48.504761" lon="-120.766956"><ele>1956.1</ele></trkpt>
<trkpt lat="48.504364" lon="-120.766929"><ele>1963.1</ele></trkpt>
<trkpt lat="48.503872" lon="-120.766753"><ele>1971.4</ele></trkpt>
<trkpt lat="48.503741" lon="-120.766858"><ele>1973.2</ele></trkpt>
<trkpt lat="48.503759" lon="-120.767054"><ele>1974.6</ele></trkpt>
<trkpt lat="48.504019" lon="-120.767144"><ele>1979.6</ele></trkpt>
<trkpt lat="48.504103" lon="-120.767241"><ele>1981.2</ele></trkpt>
<trkpt lat="48.504008" lon="-120.767208"><ele>1983.4</ele></trkpt>
<trkpt lat="48.503901" lon="-120.767299"><ele>1986.4</ele></trkpt>
<trkpt lat="48.503852" lon="-120.767527"><ele>1988.7</ele></trkpt>
<trkpt lat="48.503885" lon="-120.767743"><ele>1991.4</ele></trkpt>
<trkpt lat="48.504059" lon="-120.767914"><ele>1994.1</ele></trkpt>
<trkpt lat="48.504092" lon="-120.768069"><ele>1996.1</ele></trkpt>
<trkpt lat="48.504221" lon="-120.768240"><ele>1999.5</ele></trkpt>
<trkpt lat="48.504816" lon="-120.768743"><ele>2012.5</ele></trkpt>
<trkpt lat="48.504907" lon="-120.768980"><ele>2016.7</ele></trkpt>
<trkpt lat="48.504679" lon="-120.768982"><ele>2019.4</ele></trkpt>
<trkpt lat="48.504080" lon="-120.769206"><ele>2023.6</ele></trkpt>
<trkpt lat="48.504009" lon="-120.769100"><ele>2024.9</ele></trkpt>
<trkpt lat="48.504085" lon="-120.768828"><ele>2024.9</ele></trkpt>
<trkpt lat="48.504075" lon="-120.768688"><ele>2022.2</ele></trkpt>
<trkpt lat="48.504095" lon="-120.768739"><ele>2022.7</ele></trkpt>
<trkpt lat="48.503963" lon="-120.769172"><ele>2024.9</ele></trkpt>
<trkpt lat="48.503788" lon="-120.769289"><ele>2024.5</ele></trkpt>
<trkpt lat="48.503587" lon="-120.769322"><ele>2022.7</ele></trkpt>
<trkpt lat="48.503420" lon="-120.769464"><ele>2021.1</ele></trkpt>
<trkpt lat="48.503327" lon="-120.769266"><ele>2019.4</ele></trkpt>
<trkpt lat="48.503041" lon="-120.769172"><ele>2016.3</ele></trkpt>
<trkpt lat="48.502832" lon="-120.768952"><ele>2014.8</ele></trkpt>
<trkpt lat="48.502684" lon="-120.769105"><ele>2017.1</ele></trkpt>
<trkpt lat="48.502665" lon="-120.768835"><ele>2022.9</ele></trkpt>
<trkpt lat="48.502406" lon="-120.769001"><ele>2029.3</ele></trkpt>
<trkpt lat="48.502242" lon="-120.769035"><ele>2031.1</ele></trkpt>
<trkpt lat="48.501961" lon="-120.768964"><ele>2036.9</ele></trkpt>
<trkpt lat="48.501628" lon="-120.768595"><ele>2045.8</ele></trkpt>
<trkpt lat="48.501680" lon="-120.768610"><ele>2045.5</ele></trkpt>
<trkpt lat="48.501711" lon="-120.768527"><ele>2045.7</ele></trkpt>
<trkpt lat="48.501688" lon="-120.768020"><ele>2049.7</ele></trkpt>
<trkpt lat="48.501604" lon="-120.768055"><ele>2050.1</ele></trkpt>
<trkpt lat="48.501371" lon="-120.767834"><ele>2053.0</ele></trkpt>
<trkpt lat="48.500870" lon="-120.767086"><ele>2054.6</ele></trkpt>
<trkpt lat="48.500846" lon="-120.766911"><ele>2053.8</ele></trkpt>
<trkpt lat="48.500918" lon="-120.766779"><ele>2052.8</ele></trkpt>
<trkpt lat="48.500895" lon="-120.766662"><ele>2051.0</ele></trkpt>
<trkpt lat="48.500938" lon="-120.766254"><ele>2047.5</ele></trkpt>
<trkpt lat="48.500850" lon="-120.766206"><ele>2047.4</ele></trkpt>
<trkpt lat="48.500744" lon="-120.766267"><ele>2047.5</ele></trkpt>
<trkpt lat="48.500773" lon="-120.766161"><ele>2047.1</ele></trkpt>
<trkpt lat="48.500748" lon="-120.766051"><ele>2047.2</ele></trkpt>
<trkpt lat="48.500388" lon="-120.765311"><ele>2059.3</ele></trkpt>
<trkpt lat="48.500382" lon="-120.765165"><ele>2063.6</ele></trkpt>
<trkpt lat="48.500325" lon="-120.765046"><ele>2065.4</ele></trkpt>
<trkpt lat="48.500328" lon="-120.764736"><ele>2066.1</ele></trkpt>
<trkpt lat="48.500267" lon="-120.764623"><ele>2068.0</ele></trkpt>
<trkpt lat="48.500345" lon="-120.764472"><ele>2071.6</ele></trkpt>
<trkpt lat="48.500410" lon="-120.764455"><ele>2073.1</ele></trkpt>
<trkpt lat="48.500346" lon="-120.764384"><ele>2073.4</ele></trkpt>
<trkpt lat="48.500298" lon="-120.764099"><ele>2079.8</ele></trkpt>
<trkpt lat="48.500334" lon="-120.763904"><ele>2082.3</ele></trkpt>
<trkpt lat="48.500192" lon="-120.763519"><ele>2081.7</ele></trkpt>
<trkpt lat="48.500258" lon="-120.763279"><ele>2081.2</ele></trkpt>
<trkpt lat="48.500227" lon="-120.763103"><ele>2079.6</ele></trkpt>
<trkpt lat="48.500285" lon="-120.762778"><ele>2076.7</ele></trkpt>
<trkpt lat="48.500142" lon="-120.762183"><ele>2081.1</ele></trkpt>
<trkpt lat="48.500026" lon="-120.762066"><ele>2086.2</ele></trkpt>
<trkpt lat="48.499929" lon="-120.761677"><ele>2094.2</ele></trkpt>
<trkpt lat="48.499981" lon="-120.761416"><ele>2099.6</ele></trkpt>
<trkpt lat="48.500040" lon="-120.761339"><ele>2100.9</ele></trkpt>
<trkpt lat="48.499990" lon="-120.761280"><ele>2101.2</ele></trkpt>
<trkpt lat="48.500027" lon="-120.761000"><ele>2105.0</ele></trkpt>
<trkpt lat="48.499841" lon="-120.761169"><ele>2110.0</ele></trkpt>
<trkpt lat="48.499547" lon="-120.761275"><ele>2114.7</ele></trkpt>
<trkpt lat="48.499679" lon="-120.761026"><ele>2118.7</ele></trkpt>
<trkpt lat="48.499625" lon="-120.760720"><ele>2123.5</ele></trkpt>
<trkpt lat="48.499814" lon="-120.760598"><ele>2124.7</ele></trkpt>
<trkpt lat="48.499582" lon="-120.760693"><ele>2124.3</ele></trkpt>
<trkpt lat="48.499453" lon="-120.760681"><ele>2123.4</ele></trkpt>
<trkpt lat="48.499196" lon="-120.760826"><ele>2119.3</ele></trkpt>
<trkpt lat="48.499338" lon="-120.760567"><ele>2113.3</ele></trkpt>
<trkpt lat="48.499820" lon="-120.760185"><ele>2105.4</ele></trkpt>
<trkpt lat="48.500009" lon="-120.759758"><ele>2098.0</ele></trkpt>
<trkpt lat="48.500068" lon="-120.759478"><ele>2095.3</ele></trkpt>
<trkpt lat="48.500073" lon="-120.759213"><ele>2092.3</ele></trkpt>
<trkpt lat="48.499954" lon="-120.758901"><ele>2087.2</ele></trkpt>
<trkpt lat="48.499980" lon="-120.758748"><ele>2086.7</ele></trkpt>
<trkpt lat="48.499889" lon="-120.759375"><ele>2084.3</ele></trkpt>
<trkpt lat="48.499806" lon="-120.758883"><ele>2078.2</ele></trkpt>
<trkpt lat="48.499626" lon="-120.759489"><ele>2073.2</ele></trkpt>
<trkpt lat="48.499332" lon="-120.759678"><ele>2070.0</ele></trkpt>
<trkpt lat="48.499520" lon="-120.759353"><ele>2064.8</ele></trkpt>
<trkpt lat="48.499529" lon="-120.758651"><ele>2057.0</ele></trkpt>
<trkpt lat="48.499669" lon="-120.758170"><ele>2052.5</ele></trkpt>
<trkpt lat="48.499755" lon="-120.757612"><ele>2047.2</ele></trkpt>
<trkpt lat="48.499787" lon="-120.757134"><ele>2046.4</ele></trkpt>
<trkpt lat="48.499614" lon="-120.756426"><ele>2043.9</ele></trkpt>
<trkpt lat="48.499637" lon="-120.756171"><ele>2041.9</ele></trkpt>
<trkpt lat="48.499919" lon="-120.755891"><ele>2036.9</ele></trkpt>
<trkpt lat="48.500122" lon="-120.755599"><ele>2033.0</ele></trkpt>
<trkpt lat="48.500414" lon="-120.755376"><ele>2026.0</ele></trkpt>
<trkpt lat="48.500565" lon="-120.754772"><ele>2019.4</ele></trkpt>
<trkpt lat="48.500535" lon="-120.754350"><ele>2014.2</ele></trkpt>
<trkpt lat="48.500703" lon="-120.753509"><ele>2003.2</ele></trkpt>
<trkpt lat="48.501066" lon="-120.753099"><ele>1999.3</ele></trkpt>
<trkpt lat="48.501207" lon="-120.752772"><ele>1995.4</ele></trkpt>
<trkpt lat="48.501278" lon="-120.752212"><ele>1989.4</ele></trkpt>
<trkpt lat="48.501496" lon="-120.751690"><ele>1984.5</ele></trkpt>
<trkpt lat="48.501541" lon="-120.751375"><ele>1980.6</ele></trkpt>
<trkpt lat="48.501714" lon="-120.751205"><ele>1979.5</ele></trkpt>
<trkpt lat="48.502149" lon="-120.750565"><ele>1971.7</ele></trkpt>
<trkpt lat="48.502236" lon="-120.750310"><ele>1968.9</ele></trkpt>
<trkpt lat="48.502240" lon="-120.750098"><ele>1965.7</ele></trkpt>
<trkpt lat="48.502457" lon="-120.749843"><ele>1961.2</ele></trkpt>
<trkpt lat="48.502593" lon="-120.749245"><ele>1954.9</ele></trkpt>
<trkpt lat="48.502961" lon="-120.748140"><ele>1946.4</ele></trkpt>
<trkpt lat="48.503082" lon="-120.748049"><ele>1944.5</ele></trkpt>
<trkpt lat="48.503315" lon="-120.747600"><ele>1939.5</ele></trkpt>
<trkpt lat="48.503528" lon="-120.747364"><ele>1936.4</ele></trkpt>
<trkpt lat="48.503696" lon="-120.746768"><ele>1929.7</ele></trkpt>
<trkpt lat="48.503682" lon="-120.746424"><ele>1925.7</ele></trkpt>
<trkpt lat="48.503791" lon="-120.746741"><ele>1922.0</ele></trkpt>
<trkpt lat="48.503851" lon="-120.746532"><ele>1919.7</ele></trkpt>
<trkpt lat="48.503834" lon="-120.746268"><ele>1916.4</ele></trkpt>
<trkpt lat="48.504040" lon="-120.746403"><ele>1912.3</ele></trkpt>
<trkpt lat="48.504104" lon="-120.746220"><ele>1909.6</ele></trkpt>
<trkpt lat="48.504289" lon="-120.746119"><ele>1905.6</ele></trkpt>
<trkpt lat="48.504254" lon="-120.745936"><ele>1902.5</ele></trkpt>
<trkpt lat="48.504495" lon="-120.745942"><ele>1897.5</ele></trkpt>
<trkpt lat="48.504544" lon="-120.745839"><ele>1896.2</ele></trkpt>
<trkpt lat="48.504626" lon="-120.745820"><ele>1894.9</ele></trkpt>
<trkpt lat="48.504595" lon="-120.745719"><ele>1894.6</ele></trkpt>
<trkpt lat="48.504644" lon="-120.745525"><ele>1893.5</ele></trkpt>
<trkpt lat="48.504725" lon="-120.745415"><ele>1890.2</ele></trkpt>
<trkpt lat="48.504710" lon="-120.745346"><ele>1889.1</ele></trkpt>
<trkpt lat="48.504569" lon="-120.745296"><ele>1885.8</ele></trkpt>
<trkpt lat="48.504336" lon="-120.745434"><ele>1883.2</ele></trkpt>
<trkpt lat="48.504711" lon="-120.744982"><ele>1872.3</ele></trkpt>
<trkpt lat="48.504784" lon="-120.744940"><ele>1871.1</ele></trkpt>
<trkpt lat="48.504898" lon="-120.745054"><ele>1867.8</ele></trkpt>
<trkpt lat="48.504985" lon="-120.745325"><ele>1863.7</ele></trkpt>
<trkpt lat="48.505021" lon="-120.744937"><ele>1859.6</ele></trkpt>
<trkpt lat="48.505153" lon="-120.744571"><ele>1853.4</ele></trkpt>
<trkpt lat="48.505130" lon="-120.744465"><ele>1852.1</ele></trkpt>
<trkpt lat="48.505221" lon="-120.744729"><ele>1848.0</ele></trkpt>
<trkpt lat="48.505327" lon="-120.744513"><ele>1844.1</ele></trkpt>
<trkpt lat="48.505317" lon="-120.744243"><ele>1841.5</ele></trkpt>
<trkpt lat="48.505239" lon="-120.743991"><ele>1837.0</ele></trkpt>
<trkpt lat="48.505439" lon="-120.743935"><ele>1832.6</ele></trkpt>
<trkpt lat="48.505576" lon="-120.744043"><ele>1829.0</ele></trkpt>
<trkpt lat="48.505935" lon="-120.743211"><ele>1815.9</ele></trkpt>
<trkpt lat="48.506019" lon="-120.743120"><ele>1816.0</ele></trkpt>
<trkpt lat="48.506114" lon="-120.742586"><ele>1817.9</ele></trkpt>
<trkpt lat="48.506235" lon="-120.742239"><ele>1814.4</ele></trkpt>
<trkpt lat="48.506297" lon="-120.742154"><ele>1813.5</ele></trkpt>
<trkpt lat="48.506426" lon="-120.742158"><ele>1809.9</ele></trkpt>
<trkpt lat="48.506409" lon="-120.741974"><ele>1805.7</ele></trkpt>
<trkpt lat="48.506147" lon="-120.741895"><ele>1801.9</ele></trkpt>
<trkpt lat="48.506211" lon="-120.741765"><ele>1797.9</ele></trkpt>
<trkpt lat="48.506081" lon="-120.741707"><ele>1794.7</ele></trkpt>
<trkpt lat="48.506269" lon="-120.741328"><ele>1789.8</ele></trkpt>
<trkpt lat="48.506337" lon="-120.741061"><ele>1787.9</ele></trkpt>
<trkpt lat="48.506507" lon="-120.740844"><ele>1782.1</ele></trkpt>
<trkpt lat="48.506485" lon="-120.740644"><ele>1778.8</ele></trkpt>
<trkpt lat="48.506601" lon="-120.740588"><ele>1775.2</ele></trkpt>
<trkpt lat="48.506447" lon="-120.740323"><ele>1772.2</ele></trkpt>
<trkpt lat="48.506446" lon="-120.740198"><ele>1768.4</ele></trkpt>
<trkpt lat="48.506507" lon="-120.740361"><ele>1770.5</ele></trkpt>
<trkpt lat="48.506619" lon="-120.740346"><ele>1767.4</ele></trkpt>
<trkpt lat="48.506736" lon="-120.740054"><ele>1763.2</ele></trkpt>
<trkpt lat="48.506725" lon="-120.739802"><ele>1760.4</ele></trkpt>
<trkpt lat="48.506620" lon="-120.739687"><ele>1759.7</ele></trkpt>
<trkpt lat="48.506581" lon="-120.739550"><ele>1757.6</ele></trkpt>
<trkpt lat="48.506520" lon="-120.739535"><ele>1756.0</ele></trkpt>
<trkpt lat="48.506575" lon="-120.739546"><ele>1755.2</ele></trkpt>
<trkpt lat="48.506572" lon="-120.739487"><ele>1754.5</ele></trkpt>
<trkpt lat="48.506634" lon="-120.739440"><ele>1751.7</ele></trkpt>
<trkpt lat="48.506522" lon="-120.739361"><ele>1747.3</ele></trkpt>
<trkpt lat="48.506662" lon="-120.739372"><ele>1747.0</ele></trkpt>
<trkpt lat="48.506643" lon="-120.739253"><ele>1742.8</ele></trkpt>
<trkpt lat="48.506880" lon="-120.739185"><ele>1736.6</ele></trkpt>
<trkpt lat="48.506647" lon="-120.738982"><ele>1731.3</ele></trkpt>
<trkpt lat="48.506516" lon="-120.739000"><ele>1725.5</ele></trkpt>
<trkpt lat="48.506615" lon="-120.738880"><ele>1721.5</ele></trkpt>
<trkpt lat="48.506947" lon="-120.738917"><ele>1714.8</ele></trkpt>
<trkpt lat="48.506831" lon="-120.738636"><ele>1711.3</ele></trkpt>
<trkpt lat="48.506880" lon="-120.738611"><ele>1710.6</ele></trkpt>
<trkpt lat="48.506837" lon="-120.738498"><ele>1707.3</ele></trkpt>
<trkpt lat="48.507016" lon="-120.738521"><ele>1702.2</ele></trkpt>
<trkpt lat="48.507133" lon="-120.738724"><ele>1698.7</ele></trkpt>
<trkpt lat="48.507251" lon="-120.738521"><ele>1695.1</ele></trkpt>
<trkpt lat="48.507263" lon="-120.738335"><ele>1692.3</ele></trkpt>
<trkpt lat="48.507100" lon="-120.738240"><ele>1690.8</ele></trkpt>
<trkpt lat="48.506966" lon="-120.738072"><ele>1686.6</ele></trkpt>
<trkpt lat="48.507379" lon="-120.738107"><ele>1677.5</ele></trkpt>
<trkpt lat="48.507495" lon="-120.738195"><ele>1675.8</ele></trkpt>
<trkpt lat="48.507580" lon="-120.738380"><ele>1673.5</ele></trkpt>
<trkpt lat="48.507606" lon="-120.738230"><ele>1672.2</ele></trkpt>
<trkpt lat="48.507563" lon="-120.738051"><ele>1668.7</ele></trkpt>
<trkpt lat="48.507429" lon="-120.737812"><ele>1664.1</ele></trkpt>
<trkpt lat="48.507298" lon="-120.737731"><ele>1661.7</ele></trkpt>
<trkpt lat="48.507371" lon="-120.737692"><ele>1659.0</ele></trkpt>
<trkpt lat="48.507672" lon="-120.737827"><ele>1653.1</ele></trkpt>
<trkpt lat="48.507851" lon="-120.738063"><ele>1649.7</ele></trkpt>
<trkpt lat="48.507861" lon="-120.738356"><ele>1646.9</ele></trkpt>
<trkpt lat="48.507933" lon="-120.738699"><ele>1643.4</ele></trkpt>
<trkpt lat="48.508013" lon="-120.738519"><ele>1639.9</ele></trkpt>
<trkpt lat="48.508074" lon="-120.738150"><ele>1635.0</ele></trkpt>
<trkpt lat="48.508273" lon="-120.738737"><ele>1624.2</ele></trkpt>
<trkpt lat="48.508495" lon="-120.739041"><ele>1618.5</ele></trkpt>
<trkpt lat="48.508535" lon="-120.738688"><ele>1613.6</ele></trkpt>
<trkpt lat="48.508614" lon="-120.738439"><ele>1609.4</ele></trkpt>
<trkpt lat="48.508630" lon="-120.738143"><ele>1605.1</ele></trkpt>
<trkpt lat="48.508467" lon="-120.737917"><ele>1603.2</ele></trkpt>
<trkpt lat="48.508384" lon="-120.737508"><ele>1597.3</ele></trkpt>
<trkpt lat="48.508291" lon="-120.737408"><ele>1596.4</ele></trkpt>
<trkpt lat="48.508199" lon="-120.737174"><ele>1594.2</ele></trkpt>
<trkpt lat="48.508708" lon="-120.737687"><ele>1581.8</ele></trkpt>
<trkpt lat="48.508981" lon="-120.738105"><ele>1575.3</ele></trkpt>
<trkpt lat="48.509220" lon="-120.738277"><ele>1569.3</ele></trkpt>
<trkpt lat="48.509172" lon="-120.737335"><ele>1556.3</ele></trkpt>
<trkpt lat="48.509080" lon="-120.737101"><ele>1553.2</ele></trkpt>
<trkpt lat="48.509060" lon="-120.736802"><ele>1550.6</ele></trkpt>
<trkpt lat="48.508744" lon="-120.736176"><ele>1542.0</ele></trkpt>
<trkpt lat="48.508692" lon="-120.736008"><ele>1539.6</ele></trkpt>
<trkpt lat="48.508694" lon="-120.735690"><ele>1536.4</ele></trkpt>
<trkpt lat="48.508522" lon="-120.735408"><ele>1531.0</ele></trkpt>
<trkpt lat="48.508499" lon="-120.735198"><ele>1528.1</ele></trkpt>
<trkpt lat="48.508373" lon="-120.735094"><ele>1525.9</ele></trkpt>
<trkpt lat="48.508395" lon="-120.734884"><ele>1524.3</ele></trkpt>
<trkpt lat="48.508273" lon="-120.734682"><ele>1523.1</ele></trkpt>
<trkpt lat="48.508216" lon="-120.734419"><ele>1519.6</ele></trkpt>
<trkpt lat="48.508280" lon="-120.734364"><ele>1518.5</ele></trkpt>
<trkpt lat="48.508343" lon="-120.734404"><ele>1517.6</ele></trkpt>
<trkpt lat="48.508619" lon="-120.734342"><ele>1513.3</ele></trkpt>
<trkpt lat="48.508776" lon="-120.734403"><ele>1511.6</ele></trkpt>
<trkpt lat="48.509030" lon="-120.734394"><ele>1507.3</ele></trkpt>
<trkpt lat="48.509213" lon="-120.734478"><ele>1504.5</ele></trkpt>
<trkpt lat="48.509319" lon="-120.734620"><ele>1502.3</ele></trkpt>
<trkpt lat="48.509465" lon="-120.734582"><ele>1500.5</ele></trkpt>
<trkpt lat="48.509632" lon="-120.734747"><ele>1498.5</ele></trkpt>
<trkpt lat="48.509900" lon="-120.734763"><ele>1494.3</ele></trkpt>
<trkpt lat="48.510020" lon="-120.734830"><ele>1492.4</ele></trkpt>
<trkpt lat="48.510284" lon="-120.734698"><ele>1488.9</ele></trkpt>
<trkpt lat="48.510486" lon="-120.734736"><ele>1485.5</ele></trkpt>
<trkpt lat="48.510607" lon="-120.734835"><ele>1485.4</ele></trkpt>
<trkpt lat="48.510704" lon="-120.735271"><ele>1486.3</ele></trkpt>
<trkpt lat="48.511067" lon="-120.735193"><ele>1487.0</ele></trkpt>
<trkpt lat="48.511223" lon="-120.735368"><ele>1487.5</ele></trkpt>
<trkpt lat="48.511377" lon="-120.735309"><ele>1487.6</ele></trkpt>
<trkpt lat="48.512138" lon="-120.735422"><ele>1487.5</ele></trkpt>
<trkpt lat="48.512353" lon="-120.735318"><ele>1487.8</ele></trkpt>
<trkpt lat="48.512773" lon="-120.735449"><ele>1488.2</ele></trkpt>
<trkpt lat="48.513044" lon="-120.735180"><ele>1487.6</ele></trkpt>
<trkpt lat="48.513291" lon="-120.735094"><ele>1486.2</ele></trkpt>
<trkpt lat="48.513746" lon="-120.735174"><ele>1484.7</ele></trkpt>
<trkpt lat="48.514107" lon="-120.735153"><ele>1484.5</ele></trkpt>
<trkpt lat="48.514394" lon="-120.735331"><ele>1486.1</ele></trkpt>
<trkpt lat="48.514708" lon="-120.735703"><ele>1486.8</ele></trkpt>
<trkpt lat="48.515140" lon="-120.735879"><ele>1486.2</ele></trkpt>
<trkpt lat="48.515375" lon="-120.736105"><ele>1487.3</ele></trkpt>
<trkpt lat="48.515526" lon="-120.736173"><ele>1487.4</ele></trkpt>
<trkpt lat="48.515957" lon="-120.736068"><ele>1485.5</ele></trkpt>
<trkpt lat="48.516525" lon="-120.735778"><ele>1484.7</ele></trkpt>
<trkpt lat="48.516550" lon="-120.735521"><ele>1484.5</ele></trkpt>
<trkpt lat="48.516455" lon="-120.735306"><ele>1483.2</ele></trkpt>
<trkpt lat="48.516545" lon="-120.735223"><ele>1483.6</ele></trkpt>
<trkpt lat="48.516536" lon="-120.735147"><ele>1480.8</ele></trkpt>
</trkseg></trk>
</gpx>
