<?xml version="1.0" encoding="UTF-8"?>
<gpx version="1.1" creator="The Lost Trailhead" xmlns="http://www.topografix.com/GPX/1/1" xmlns:xsi="http://www.w3.org/2001/XMLSchema-instance" xsi:schemaLocation="http://www.topografix.com/GPX/1/1 http://www.topografix.com/GPX/1/1/gpx.xsd">
<metadata><name>Blanca Lake</name><desc>The Lost Trailhead, thelosttrailhead.com/hikes/blanca-lake. Conditions change. Use at your own risk.</desc><link href="https://thelosttrailhead.com/hikes/blanca-lake"><text>Blanca Lake on The Lost Trailhead</text></link></metadata>
<trk><name>Blanca Lake</name><link href="https://thelosttrailhead.com/hikes/blanca-lake"><text>Blanca Lake on The Lost Trailhead</text></link><trkseg>
<trkpt lat="47.915187" lon="-121.312554"><ele>598.7</ele></trkpt>
<trkpt lat="47.915382" lon="-121.312417"><ele>594.5</ele></trkpt>
<trkpt lat="47.915599" lon="-121.312692"><ele>595.1</ele></trkpt>
<trkpt lat="47.915766" lon="-121.312983"><ele>595.2</ele></trkpt>
<trkpt lat="47.915811" lon="-121.313169"><ele>597.0</ele></trkpt>
<trkpt lat="47.916076" lon="-121.313541"><ele>598.0</ele></trkpt>
<trkpt lat="47.916093" lon="-121.314048"><ele>604.5</ele></trkpt>
<trkpt lat="47.916209" lon="-121.314293"><ele>609.3</ele></trkpt>
<trkpt lat="47.916467" lon="-121.314501"><ele>615.8</ele></trkpt>
<trkpt lat="47.916779" lon="-121.314541"><ele>618.2</ele></trkpt>
<trkpt lat="47.916814" lon="-121.314616"><ele>618.2</ele></trkpt>
<trkpt lat="47.916964" lon="-121.314668"><ele>622.4</ele></trkpt>
<trkpt lat="47.917033" lon="-121.314781"><ele>624.6</ele></trkpt>
<trkpt lat="47.916766" lon="-121.314950"><ele>625.4</ele></trkpt>
<trkpt lat="47.916553" lon="-121.315271"><ele>631.6</ele></trkpt>
<trkpt lat="47.916145" lon="-121.315250"><ele>631.7</ele></trkpt>
<trkpt lat="47.915795" lon="-121.315403"><ele>636.8</ele></trkpt>
<trkpt lat="47.915861" lon="-121.315513"><ele>639.2</ele></trkpt>
<trkpt lat="47.916107" lon="-121.315552"><ele>643.5</ele></trkpt>
<trkpt lat="47.916320" lon="-121.315698"><ele>649.1</ele></trkpt>
<trkpt lat="47.916229" lon="-121.315620"><ele>646.4</ele></trkpt>
<trkpt lat="47.915854" lon="-121.315628"><ele>642.2</ele></trkpt>
<trkpt lat="47.915193" lon="-121.315848"><ele>648.4</ele></trkpt>
<trkpt lat="47.914842" lon="-121.316119"><ele>653.8</ele></trkpt>
<trkpt lat="47.914579" lon="-121.316174"><ele>655.4</ele></trkpt>
<trkpt lat="47.914342" lon="-121.316567"><ele>657.3</ele></trkpt>
<trkpt lat="47.914209" lon="-121.316606"><ele>659.5</ele></trkpt>
<trkpt lat="47.914117" lon="-121.316812"><ele>661.2</ele></trkpt>
<trkpt lat="47.914109" lon="-121.316937"><ele>662.7</ele></trkpt>
<trkpt lat="47.914194" lon="-121.317012"><ele>666.1</ele></trkpt>
<trkpt lat="47.914302" lon="-121.317249"><ele>669.9</ele></trkpt>
<trkpt lat="47.914688" lon="-121.317290"><ele>687.3</ele></trkpt>
<trkpt lat="47.914608" lon="-121.317337"><ele>687.6</ele></trkpt>
<trkpt lat="47.914547" lon="-121.317701"><ele>689.7</ele></trkpt>
<trkpt lat="47.914471" lon="-121.317778"><ele>693.1</ele></trkpt>
<trkpt lat="47.914482" lon="-121.317894"><ele>694.7</ele></trkpt>
<trkpt lat="47.915245" lon="-121.318132"><ele>716.2</ele></trkpt>
<trkpt lat="47.915132" lon="-121.318480"><ele>722.6</ele></trkpt>
<trkpt lat="47.914900" lon="-121.318733"><ele>728.2</ele></trkpt>
<trkpt lat="47.914869" lon="-121.319084"><ele>730.8</ele></trkpt>
<trkpt lat="47.914927" lon="-121.319240"><ele>733.9</ele></trkpt>
<trkpt lat="47.915149" lon="-121.319470"><ele>744.8</ele></trkpt>
<trkpt lat="47.915771" lon="-121.319609"><ele>762.6</ele></trkpt>
<trkpt lat="47.915447" lon="-121.320007"><ele>771.8</ele></trkpt>
<trkpt lat="47.915449" lon="-121.320095"><ele>772.6</ele></trkpt>
<trkpt lat="47.915748" lon="-121.320152"><ele>782.1</ele></trkpt>
<trkpt lat="47.916140" lon="-121.320025"><ele>787.1</ele></trkpt>
<trkpt lat="47.916142" lon="-121.319969"><ele>789.0</ele></trkpt>
<trkpt lat="47.915822" lon="-121.320473"><ele>797.4</ele></trkpt>
<trkpt lat="47.915703" lon="-121.320524"><ele>799.5</ele></trkpt>
<trkpt lat="47.915631" lon="-121.320642"><ele>802.2</ele></trkpt>
<trkpt lat="47.915549" lon="-121.320967"><ele>805.1</ele></trkpt>
<trkpt lat="47.915426" lon="-121.321167"><ele>808.0</ele></trkpt>
<trkpt lat="47.915381" lon="-121.321339"><ele>808.6</ele></trkpt>
<trkpt lat="47.915483" lon="-121.321396"><ele>813.7</ele></trkpt>
<trkpt lat="47.915880" lon="-121.321204"><ele>825.2</ele></trkpt>
<trkpt lat="47.916012" lon="-121.321239"><ele>827.9</ele></trkpt>
<trkpt lat="47.916225" lon="-121.321015"><ele>834.4</ele></trkpt>
<trkpt lat="47.916610" lon="-121.320925"><ele>845.0</ele></trkpt>
<trkpt lat="47.916832" lon="-121.320797"><ele>850.1</ele></trkpt>
<trkpt lat="47.916484" lon="-121.321273"><ele>858.1</ele></trkpt>
<trkpt lat="47.916415" lon="-121.321526"><ele>861.0</ele></trkpt>
<trkpt lat="47.916470" lon="-121.321580"><ele>863.5</ele></trkpt>
<trkpt lat="47.916825" lon="-121.321466"><ele>874.4</ele></trkpt>
<trkpt lat="47.917058" lon="-121.321211"><ele>878.1</ele></trkpt>
<trkpt lat="47.917274" lon="-121.321198"><ele>880.4</ele></trkpt>
<trkpt lat="47.917506" lon="-121.321066"><ele>889.0</ele></trkpt>
<trkpt lat="47.917701" lon="-121.321066"><ele>892.4</ele></trkpt>
<trkpt lat="47.917695" lon="-121.321006"><ele>893.0</ele></trkpt>
<trkpt lat="47.918129" lon="-121.320985"><ele>904.8</ele></trkpt>
<trkpt lat="47.918224" lon="-121.320911"><ele>908.6</ele></trkpt>
<trkpt lat="47.918156" lon="-121.321044"><ele>908.0</ele></trkpt>
<trkpt lat="47.917930" lon="-121.321214"><ele>913.6</ele></trkpt>
<trkpt lat="47.917762" lon="-121.321525"><ele>919.9</ele></trkpt>
<trkpt lat="47.917676" lon="-121.321579"><ele>921.2</ele></trkpt>
<trkpt lat="47.917422" lon="-121.322233"><ele>934.6</ele></trkpt>
<trkpt lat="47.917433" lon="-121.322317"><ele>935.6</ele></trkpt>
<trkpt lat="47.917471" lon="-121.322321"><ele>936.2</ele></trkpt>
<trkpt lat="47.917668" lon="-121.322232"><ele>940.1</ele></trkpt>
<trkpt lat="47.917666" lon="-121.322185"><ele>942.4</ele></trkpt>
<trkpt lat="47.918281" lon="-121.321994"><ele>956.3</ele></trkpt>
<trkpt lat="47.918258" lon="-121.321943"><ele>955.8</ele></trkpt>
<trkpt lat="47.917998" lon="-121.322195"><ele>959.5</ele></trkpt>
<trkpt lat="47.917771" lon="-121.322559"><ele>967.6</ele></trkpt>
<trkpt lat="47.917680" lon="-121.322830"><ele>972.3</ele></trkpt>
<trkpt lat="47.917682" lon="-121.322905"><ele>974.1</ele></trkpt>
<trkpt lat="47.917747" lon="-121.322915"><ele>974.9</ele></trkpt>
<trkpt lat="47.917867" lon="-121.322841"><ele>975.0</ele></trkpt>
<trkpt lat="47.917865" lon="-121.322793"><ele>974.4</ele></trkpt>
<trkpt lat="47.918181" lon="-121.322646"><ele>982.3</ele></trkpt>
<trkpt lat="47.918447" lon="-121.322598"><ele>992.2</ele></trkpt>
<trkpt lat="47.918386" lon="-121.322613"><ele>994.0</ele></trkpt>
<trkpt lat="47.918153" lon="-121.322960"><ele>998.2</ele></trkpt>
<trkpt lat="47.918011" lon="-121.323429"><ele>1004.5</ele></trkpt>
<trkpt lat="47.918018" lon="-121.323660"><ele>1009.4</ele></trkpt>
<trkpt lat="47.918203" lon="-121.323601"><ele>1015.2</ele></trkpt>
<trkpt lat="47.918513" lon="-121.323377"><ele>1027.7</ele></trkpt>
<trkpt lat="47.918761" lon="-121.323339"><ele>1032.8</ele></trkpt>
<trkpt lat="47.918611" lon="-121.323820"><ele>1041.2</ele></trkpt>
<trkpt lat="47.918593" lon="-121.324252"><ele>1045.2</ele></trkpt>
<trkpt lat="47.918657" lon="-121.324363"><ele>1042.8</ele></trkpt>
<trkpt lat="47.918915" lon="-121.324303"><ele>1055.4</ele></trkpt>
<trkpt lat="47.919019" lon="-121.324181"><ele>1057.3</ele></trkpt>
<trkpt lat="47.919339" lon="-121.324401"><ele>1066.6</ele></trkpt>
<trkpt lat="47.919764" lon="-121.324491"><ele>1080.4</ele></trkpt>
<trkpt lat="47.919923" lon="-121.324427"><ele>1084.5</ele></trkpt>
<trkpt lat="47.920356" lon="-121.324442"><ele>1098.8</ele></trkpt>
<trkpt lat="47.920935" lon="-121.324614"><ele>1112.2</ele></trkpt>
<trkpt lat="47.920941" lon="-121.324570"><ele>1111.6</ele></trkpt>
<trkpt lat="47.921061" lon="-121.324681"><ele>1115.4</ele></trkpt>
<trkpt lat="47.921446" lon="-121.324804"><ele>1128.2</ele></trkpt>
<trkpt lat="47.921348" lon="-121.324840"><ele>1128.2</ele></trkpt>
<trkpt lat="47.920965" lon="-121.325305"><ele>1132.0</ele></trkpt>
<trkpt lat="47.920914" lon="-121.325543"><ele>1135.4</ele></trkpt>
<trkpt lat="47.921412" lon="-121.325655"><ele>1148.5</ele></trkpt>
<trkpt lat="47.921452" lon="-121.325954"><ele>1155.6</ele></trkpt>
<trkpt lat="47.921746" lon="-121.326219"><ele>1164.3</ele></trkpt>
<trkpt lat="47.922147" lon="-121.326086"><ele>1178.2</ele></trkpt>
<trkpt lat="47.922877" lon="-121.326242"><ele>1190.3</ele></trkpt>
<trkpt lat="47.922982" lon="-121.326332"><ele>1198.3</ele></trkpt>
<trkpt lat="47.922798" lon="-121.326348"><ele>1200.7</ele></trkpt>
<trkpt lat="47.922586" lon="-121.326582"><ele>1200.5</ele></trkpt>
<trkpt lat="47.922468" lon="-121.326629"><ele>1205.2</ele></trkpt>
<trkpt lat="47.922395" lon="-121.326887"><ele>1208.9</ele></trkpt>
<trkpt lat="47.922978" lon="-121.326957"><ele>1224.4</ele></trkpt>
<trkpt lat="47.923056" lon="-121.327033"><ele>1227.9</ele></trkpt>
<trkpt lat="47.922907" lon="-121.327149"><ele>1233.4</ele></trkpt>
<trkpt lat="47.922893" lon="-121.327220"><ele>1232.8</ele></trkpt>
<trkpt lat="47.923012" lon="-121.327441"><ele>1236.3</ele></trkpt>
<trkpt lat="47.923120" lon="-121.327876"><ele>1242.5</ele></trkpt>
<trkpt lat="47.923219" lon="-121.328013"><ele>1246.1</ele></trkpt>
<trkpt lat="47.923434" lon="-121.328074"><ele>1251.9</ele></trkpt>
<trkpt lat="47.923640" lon="-121.328305"><ele>1257.2</ele></trkpt>
<trkpt lat="47.923733" lon="-121.328532"><ele>1265.2</ele></trkpt>
<trkpt lat="47.923805" lon="-121.328894"><ele>1270.3</ele></trkpt>
<trkpt lat="47.923959" lon="-121.328873"><ele>1276.3</ele></trkpt>
<trkpt lat="47.924661" lon="-121.329158"><ele>1289.8</ele></trkpt>
<trkpt lat="47.924559" lon="-121.329189"><ele>1293.2</ele></trkpt>
<trkpt lat="47.924417" lon="-121.329388"><ele>1296.6</ele></trkpt>
<trkpt lat="47.924389" lon="-121.329519"><ele>1297.7</ele></trkpt>
<trkpt lat="47.924445" lon="-121.329759"><ele>1298.7</ele></trkpt>
<trkpt lat="47.924701" lon="-121.330072"><ele>1305.7</ele></trkpt>
<trkpt lat="47.924759" lon="-121.330244"><ele>1308.6</ele></trkpt>
<trkpt lat="47.924895" lon="-121.330249"><ele>1310.5</ele></trkpt>
<trkpt lat="47.925019" lon="-121.330152"><ele>1309.3</ele></trkpt>
<trkpt lat="47.924858" lon="-121.330190"><ele>1311.1</ele></trkpt>
<trkpt lat="47.924808" lon="-121.330313"><ele>1311.2</ele></trkpt>
<trkpt lat="47.924956" lon="-121.330857"><ele>1315.2</ele></trkpt>
<trkpt lat="47.924885" lon="-121.331226"><ele>1314.0</ele></trkpt>
<trkpt lat="47.924904" lon="-121.331468"><ele>1313.5</ele></trkpt>
<trkpt lat="47.924832" lon="-121.331798"><ele>1319.2</ele></trkpt>
<trkpt lat="47.924822" lon="-121.332187"><ele>1322.0</ele></trkpt>
<trkpt lat="47.924731" lon="-121.332586"><ele>1331.1</ele></trkpt>
<trkpt lat="47.924770" lon="-121.332766"><ele>1332.9</ele></trkpt>
<trkpt lat="47.924913" lon="-121.332934"><ele>1336.2</ele></trkpt>
<trkpt lat="47.924891" lon="-121.333034"><ele>1338.9</ele></trkpt>
<trkpt lat="47.924935" lon="-121.333278"><ele>1344.4</ele></trkpt>
<trkpt lat="47.924828" lon="-121.333743"><ele>1353.2</ele></trkpt>
<trkpt lat="47.924834" lon="-121.333872"><ele>1355.4</ele></trkpt>
<trkpt lat="47.924883" lon="-121.333926"><ele>1356.6</ele></trkpt>
<trkpt lat="47.924810" lon="-121.334040"><ele>1360.9</ele></trkpt>
<trkpt lat="47.924870" lon="-121.334139"><ele>1362.5</ele></trkpt>
<trkpt lat="47.924794" lon="-121.334248"><ele>1364.5</ele></trkpt>
<trkpt lat="47.924776" lon="-121.334374"><ele>1367.3</ele></trkpt>
<trkpt lat="47.924839" lon="-121.334531"><ele>1369.7</ele></trkpt>
<trkpt lat="47.924778" lon="-121.334941"><ele>1376.6</ele></trkpt>
<trkpt lat="47.924784" lon="-121.335551"><ele>1385.4</ele></trkpt>
<trkpt lat="47.924729" lon="-121.335681"><ele>1388.9</ele></trkpt>
<trkpt lat="47.924719" lon="-121.336039"><ele>1392.9</ele></trkpt>
<trkpt lat="47.924766" lon="-121.336281"><ele>1393.4</ele></trkpt>
<trkpt lat="47.924958" lon="-121.336535"><ele>1392.1</ele></trkpt>
<trkpt lat="47.925005" lon="-121.336991"><ele>1397.3</ele></trkpt>
<trkpt lat="47.924975" lon="-121.337088"><ele>1397.8</ele></trkpt>
<trkpt lat="47.925121" lon="-121.337349"><ele>1402.3</ele></trkpt>
<trkpt lat="47.925285" lon="-121.338176"><ele>1413.4</ele></trkpt>
<trkpt lat="47.925568" lon="-121.338322"><ele>1417.7</ele></trkpt>
<trkpt lat="47.925914" lon="-121.338637"><ele>1419.8</ele></trkpt>
<trkpt lat="47.926365" lon="-121.338635"><ele>1425.6</ele></trkpt>
<trkpt lat="47.926630" lon="-121.338526"><ele>1423.8</ele></trkpt>
<trkpt lat="47.927221" lon="-121.338998"><ele>1409.0</ele></trkpt>
<trkpt lat="47.927260" lon="-121.338940"><ele>1408.0</ele></trkpt>
<trkpt lat="47.927268" lon="-121.338692"><ele>1401.5</ele></trkpt>
<trkpt lat="47.927430" lon="-121.338584"><ele>1394.8</ele></trkpt>
<trkpt lat="47.927648" lon="-121.338183"><ele>1392.5</ele></trkpt>
<trkpt lat="47.927808" lon="-121.338249"><ele>1389.6</ele></trkpt>
<trkpt lat="47.928041" lon="-121.338167"><ele>1389.9</ele></trkpt>
<trkpt lat="47.928423" lon="-121.338398"><ele>1392.5</ele></trkpt>
<trkpt lat="47.928856" lon="-121.339342"><ele>1389.2</ele></trkpt>
<trkpt lat="47.928972" lon="-121.339477"><ele>1387.2</ele></trkpt>
<trkpt lat="47.929051" lon="-121.339752"><ele>1385.2</ele></trkpt>
<trkpt lat="47.929184" lon="-121.339858"><ele>1380.1</ele></trkpt>
<trkpt lat="47.929414" lon="-121.339935"><ele>1375.3</ele></trkpt>
<trkpt lat="47.929903" lon="-121.339793"><ele>1367.4</ele></trkpt>
<trkpt lat="47.930171" lon="-121.339875"><ele>1360.8</ele></trkpt>
<trkpt lat="47.930326" lon="-121.339796"><ele>1356.8</ele></trkpt>
<trkpt lat="47.930700" lon="-121.339886"><ele>1350.3</ele></trkpt>
<trkpt lat="47.931020" lon="-121.339836"><ele>1341.5</ele></trkpt>
<trkpt lat="47.931342" lon="-121.339868"><ele>1330.2</ele></trkpt>
<trkpt lat="47.931462" lon="-121.339936"><ele>1328.5</ele></trkpt>
<trkpt lat="47.931526" lon="-121.339879"><ele>1324.6</ele></trkpt>
<trkpt lat="47.931221" lon="-121.340002"><ele>1325.8</ele></trkpt>
<trkpt lat="47.930817" lon="-121.340409"><ele>1316.9</ele></trkpt>
<trkpt lat="47.930557" lon="-121.340488"><ele>1311.6</ele></trkpt>
<trkpt lat="47.930550" lon="-121.340558"><ele>1310.5</ele></trkpt>
<trkpt lat="47.930773" lon="-121.340682"><ele>1304.0</ele></trkpt>
<trkpt lat="47.931040" lon="-121.340598"><ele>1296.9</ele></trkpt>
<trkpt lat="47.931359" lon="-121.340628"><ele>1287.5</ele></trkpt>
<trkpt lat="47.931484" lon="-121.340759"><ele>1284.0</ele></trkpt>
<trkpt lat="47.931672" lon="-121.340826"><ele>1279.6</ele></trkpt>
<trkpt lat="47.932020" lon="-121.340650"><ele>1271.4</ele></trkpt>
<trkpt lat="47.932346" lon="-121.340678"><ele>1263.7</ele></trkpt>
<trkpt lat="47.932613" lon="-121.340881"><ele>1262.0</ele></trkpt>
<trkpt lat="47.932910" lon="-121.340979"><ele>1259.2</ele></trkpt>
<trkpt lat="47.932993" lon="-121.341075"><ele>1256.4</ele></trkpt>
<trkpt lat="47.933270" lon="-121.341148"><ele>1253.0</ele></trkpt>
<trkpt lat="47.933351" lon="-121.341359"><ele>1253.4</ele></trkpt>
<trkpt lat="47.933433" lon="-121.341402"><ele>1252.4</ele></trkpt>
<trkpt lat="47.933582" lon="-121.341685"><ele>1248.7</ele></trkpt>
<trkpt lat="47.933682" lon="-121.341768"><ele>1248.0</ele></trkpt>
<trkpt lat="47.933793" lon="-121.341725"><ele>1245.9</ele></trkpt>
<trkpt lat="47.933816" lon="-121.341612"><ele>1244.8</ele></trkpt>
<trkpt lat="47.934005" lon="-121.341548"><ele>1236.9</ele></trkpt>
<trkpt lat="47.933886" lon="-121.341511"><ele>1240.2</ele></trkpt>
<trkpt lat="47.933870" lon="-121.341570"><ele>1239.9</ele></trkpt>
<trkpt lat="47.933912" lon="-121.341572"><ele>1235.9</ele></trkpt>
<trkpt lat="47.933795" lon="-121.341575"><ele>1241.9</ele></trkpt>
<trkpt lat="47.933702" lon="-121.341753"><ele>1247.6</ele></trkpt>
<trkpt lat="47.933832" lon="-121.341891"><ele>1249.3</ele></trkpt>
<trkpt lat="47.933923" lon="-121.342220"><ele>1249.8</ele></trkpt>
<trkpt lat="47.934104" lon="-121.342362"><ele>1245.5</ele></trkpt>
<trkpt lat="47.934205" lon="-121.342555"><ele>1245.6</ele></trkpt>
<trkpt lat="47.934263" lon="-121.342878"><ele>1242.5</ele></trkpt>
<trkpt lat="47.934229" lon="-121.343123"><ele>1236.7</ele></trkpt>
<trkpt lat="47.934288" lon="-121.343138"><ele>1234.9</ele></trkpt>
<trkpt lat="47.934326" lon="-121.343058"><ele>1234.0</ele></trkpt>
<trkpt lat="47.934348" lon="-121.343197"><ele>1229.8</ele></trkpt>
<trkpt lat="47.934500" lon="-121.343031"><ele>1225.2</ele></trkpt>
<trkpt lat="47.934597" lon="-121.342615"><ele>1217.2</ele></trkpt>
<trkpt lat="47.934591" lon="-121.342383"><ele>1213.3</ele></trkpt>
<trkpt lat="47.934702" lon="-121.342333"><ele>1212.3</ele></trkpt>
<trkpt lat="47.934599" lon="-121.342052"><ele>1211.4</ele></trkpt>
<trkpt lat="47.934565" lon="-121.342110"><ele>1211.3</ele></trkpt>
<trkpt lat="47.934678" lon="-121.342381"><ele>1210.7</ele></trkpt>
<trkpt lat="47.934706" lon="-121.342961"><ele>1211.4</ele></trkpt>
<trkpt lat="47.934745" lon="-121.342914"><ele>1212.1</ele></trkpt>
<trkpt lat="47.934753" lon="-121.342954"><ele>1211.3</ele></trkpt>
<trkpt lat="47.934707" lon="-121.342894"><ele>1212.8</ele></trkpt>
<trkpt lat="47.934664" lon="-121.342301"><ele>1212.4</ele></trkpt>
<trkpt lat="47.934569" lon="-121.342103"><ele>1208.6</ele></trkpt>
<trkpt lat="47.934664" lon="-121.342301"><ele>1212.4</ele></trkpt>
<trkpt lat="47.934707" lon="-121.342894"><ele>1212.8</ele></trkpt>
<trkpt lat="47.934753" lon="-121.342954"><ele>1211.3</ele></trkpt>
<trkpt lat="47.934745" lon="-121.342914"><ele>1212.1</ele></trkpt>
<trkpt lat="47.934706" lon="-121.342961"><ele>1211.4</ele></trkpt>
<trkpt lat="47.934678" lon="-121.342381"><ele>1210.7</ele></trkpt>
<trkpt lat="47.934565" lon="-121.342110"><ele>1211.3</ele></trkpt>
<trkpt lat="47.934599" lon="-121.342052"><ele>1211.4</ele></trkpt>
<trkpt lat="47.934702" lon="-121.342333"><ele>1212.3</ele></trkpt>
<trkpt lat="47.934591" lon="-121.342383"><ele>1213.3</ele></trkpt>
<trkpt lat="47.934597" lon="-121.342615"><ele>1217.2</ele></trkpt>
<trkpt lat="47.934500" lon="-121.343031"><ele>1225.2</ele></trkpt>
<trkpt lat="47.934348" lon="-121.343197"><ele>1229.8</ele></trkpt>
<trkpt lat="47.934326" lon="-121.343058"><ele>1234.0</ele></trkpt>
<trkpt lat="47.934288" lon="-121.343138"><ele>1234.9</ele></trkpt>
<trkpt lat="47.934229" lon="-121.343123"><ele>1236.7</ele></trkpt>
<trkpt lat="47.934263" lon="-121.342878"><ele>1242.5</ele></trkpt>
<trkpt lat="47.934205" lon="-121.342555"><ele>1245.6</ele></trkpt>
<trkpt lat="47.934104" lon="-121.342362"><ele>1245.5</ele></trkpt>
<trkpt lat="47.933923" lon="-121.342220"><ele>1249.8</ele></trkpt>
<trkpt lat="47.933832" lon="-121.341891"><ele>1249.3</ele></trkpt>
<trkpt lat="47.933702" lon="-121.341753"><ele>1247.6</ele></trkpt>
<trkpt lat="47.933795" lon="-121.341575"><ele>1241.9</ele></trkpt>
<trkpt lat="47.933912" lon="-121.341572"><ele>1235.9</ele></trkpt>
<trkpt lat="47.933870" lon="-121.341570"><ele>1239.9</ele></trkpt>
<trkpt lat="47.933886" lon="-121.341511"><ele>1240.2</ele></trkpt>
<trkpt lat="47.934005" lon="-121.341548"><ele>1236.9</ele></trkpt>
<trkpt lat="47.933816" lon="-121.341612"><ele>1244.8</ele></trkpt>
<trkpt lat="47.933793" lon="-121.341725"><ele>1245.9</ele></trkpt>
<trkpt lat="47.933682" lon="-121.341768"><ele>1248.0</ele></trkpt>
<trkpt lat="47.933582" lon="-121.341685"><ele>1248.7</ele></trkpt>
<trkpt lat="47.933433" lon="-121.341402"><ele>1252.4</ele></trkpt>
<trkpt lat="47.933351" lon="-121.341359"><ele>1253.4</ele></trkpt>
<trkpt lat="47.933270" lon="-121.341148"><ele>1253.0</ele></trkpt>
<trkpt lat="47.932993" lon="-121.341075"><ele>1256.4</ele></trkpt>
<trkpt lat="47.932910" lon="-121.340979"><ele>1259.2</ele></trkpt>
<trkpt lat="47.932613" lon="-121.340881"><ele>1262.0</ele></trkpt>
<trkpt lat="47.932346" lon="-121.340678"><ele>1263.7</ele></trkpt>
<trkpt lat="47.932020" lon="-121.340650"><ele>1271.4</ele></trkpt>
<trkpt lat="47.931672" lon="-121.340826"><ele>1279.6</ele></trkpt>
<trkpt lat="47.931484" lon="-121.340759"><ele>1284.0</ele></trkpt>
<trkpt lat="47.931359" lon="-121.340628"><ele>1287.5</ele></trkpt>
<trkpt lat="47.931040" lon="-121.340598"><ele>1296.9</ele></trkpt>
<trkpt lat="47.930773" lon="-121.340682"><ele>1304.0</ele></trkpt>
<trkpt lat="47.930550" lon="-121.340558"><ele>1310.5</ele></trkpt>
<trkpt lat="47.930557" lon="-121.340488"><ele>1311.6</ele></trkpt>
<trkpt lat="47.930817" lon="-121.340409"><ele>1316.9</ele></trkpt>
<trkpt lat="47.931221" lon="-121.340002"><ele>1325.8</ele></trkpt>
<trkpt lat="47.931526" lon="-121.339879"><ele>1324.6</ele></trkpt>
<trkpt lat="47.931462" lon="-121.339936"><ele>1328.5</ele></trkpt>
<trkpt lat="47.931342" lon="-121.339868"><ele>1330.2</ele></trkpt>
<trkpt lat="47.931020" lon="-121.339836"><ele>1341.5</ele></trkpt>
<trkpt lat="47.930700" lon="-121.339886"><ele>1350.3</ele></trkpt>
<trkpt lat="47.930326" lon="-121.339796"><ele>1356.8</ele></trkpt>
<trkpt lat="47.930171" lon="-121.339875"><ele>1360.8</ele></trkpt>
<trkpt lat="47.929903" lon="-121.339793"><ele>1367.4</ele></trkpt>
<trkpt lat="47.929414" lon="-121.339935"><ele>1375.3</ele></trkpt>
<trkpt lat="47.929184" lon="-121.339858"><ele>1380.1</ele></trkpt>
<trkpt lat="47.929051" lon="-121.339752"><ele>1385.2</ele></trkpt>
<trkpt lat="47.928972" lon="-121.339477"><ele>1387.2</ele></trkpt>
<trkpt lat="47.928856" lon="-121.339342"><ele>1389.2</ele></trkpt>
<trkpt lat="47.928423" lon="-121.338398"><ele>1392.5</ele></trkpt>
<trkpt lat="47.928041" lon="-121.338167"><ele>1389.9</ele></trkpt>
<trkpt lat="47.927808" lon="-121.338249"><ele>1389.6</ele></trkpt>
<trkpt lat="47.927648" lon="-121.338183"><ele>1392.5</ele></trkpt>
<trkpt lat="47.927430" lon="-121.338584"><ele>1394.8</ele></trkpt>
<trkpt lat="47.927268" lon="-121.338692"><ele>1401.5</ele></trkpt>
<trkpt lat="47.927260" lon="-121.338940"><ele>1408.0</ele></trkpt>
<trkpt lat="47.927221" lon="-121.338998"><ele>1409.0</ele></trkpt>
<trkpt lat="47.926630" lon="-121.338526"><ele>1423.8</ele></trkpt>
<trkpt lat="47.926365" lon="-121.338635"><ele>1425.6</ele></trkpt>
<trkpt lat="47.925914" lon="-121.338637"><ele>1419.8</ele></trkpt>
<trkpt lat="47.925568" lon="-121.338322"><ele>1417.7</ele></trkpt>
<trkpt lat="47.925285" lon="-121.338176"><ele>1413.4</ele></trkpt>
<trkpt lat="47.925121" lon="-121.337349"><ele>1402.3</ele></trkpt>
<trkpt lat="47.924975" lon="-121.337088"><ele>1397.8</ele></trkpt>
<trkpt lat="47.925005" lon="-121.336991"><ele>1397.3</ele></trkpt>
<trkpt lat="47.924958" lon="-121.336535"><ele>1392.1</ele></trkpt>
<trkpt lat="47.924766" lon="-121.336281"><ele>1393.4</ele></trkpt>
<trkpt lat="47.924719" lon="-121.336039"><ele>1392.9</ele></trkpt>
<trkpt lat="47.924729" lon="-121.335681"><ele>1388.9</ele></trkpt>
<trkpt lat="47.924784" lon="-121.335551"><ele>1385.4</ele></trkpt>
<trkpt lat="47.924778" lon="-121.334941"><ele>1376.6</ele></trkpt>
<trkpt lat="47.924839" lon="-121.334531"><ele>1369.7</ele></trkpt>
<trkpt lat="47.924776" lon="-121.334374"><ele>1367.3</ele></trkpt>
<trkpt lat="47.924794" lon="-121.334248"><ele>1364.5</ele></trkpt>
<trkpt lat="47.924870" lon="-121.334139"><ele>1362.5</ele></trkpt>
<trkpt lat="47.924810" lon="-121.334040"><ele>1360.9</ele></trkpt>
<trkpt lat="47.924883" lon="-121.333926"><ele>1356.6</ele></trkpt>
<trkpt lat="47.924834" lon="-121.333872"><ele>1355.4</ele></trkpt>
<trkpt lat="47.924828" lon="-121.333743"><ele>1353.2</ele></trkpt>
<trkpt lat="47.924935" lon="-121.333278"><ele>1344.4</ele></trkpt>
<trkpt lat="47.924891" lon="-121.333034"><ele>1338.9</ele></trkpt>
<trkpt lat="47.924913" lon="-121.332934"><ele>1336.2</ele></trkpt>
<trkpt lat="47.924770" lon="-121.332766"><ele>1332.9</ele></trkpt>
<trkpt lat="47.924731" lon="-121.332586"><ele>1331.1</ele></trkpt>
<trkpt lat="47.924822" lon="-121.332187"><ele>1322.0</ele></trkpt>
<trkpt lat="47.924832" lon="-121.331798"><ele>1319.2</ele></trkpt>
<trkpt lat="47.924904" lon="-121.331468"><ele>1313.5</ele></trkpt>
<trkpt lat="47.924885" lon="-121.331226"><ele>1314.0</ele></trkpt>
<trkpt lat="47.924956" lon="-121.330857"><ele>1315.2</ele></trkpt>
<trkpt lat="47.924808" lon="-121.330313"><ele>1311.2</ele></trkpt>
<trkpt lat="47.924858" lon="-121.330190"><ele>1311.1</ele></trkpt>
<trkpt lat="47.925019" lon="-121.330152"><ele>1309.3</ele></trkpt>
<trkpt lat="47.924895" lon="-121.330249"><ele>1310.5</ele></trkpt>
<trkpt lat="47.924759" lon="-121.330244"><ele>1308.6</ele></trkpt>
<trkpt lat="47.924701" lon="-121.330072"><ele>1305.7</ele></trkpt>
<trkpt lat="47.924445" lon="-121.329759"><ele>1298.7</ele></trkpt>
<trkpt lat="47.924389" lon="-121.329519"><ele>1297.7</ele></trkpt>
<trkpt lat="47.924417" lon="-121.329388"><ele>1296.6</ele></trkpt>
<trkpt lat="47.924559" lon="-121.329189"><ele>1293.2</ele></trkpt>
<trkpt lat="47.924661" lon="-121.329158"><ele>1289.8</ele></trkpt>
<trkpt lat="47.923959" lon="-121.328873"><ele>1276.3</ele></trkpt>
<trkpt lat="47.923805" lon="-121.328894"><ele>1270.3</ele></trkpt>
<trkpt lat="47.923733" lon="-121.328532"><ele>1265.2</ele></trkpt>
<trkpt lat="47.923640" lon="-121.328305"><ele>1257.2</ele></trkpt>
<trkpt lat="47.923434" lon="-121.328074"><ele>1251.9</ele></trkpt>
<trkpt lat="47.923219" lon="-121.328013"><ele>1246.1</ele></trkpt>
<trkpt lat="47.923120" lon="-121.327876"><ele>1242.5</ele></trkpt>
<trkpt lat="47.923012" lon="-121.327441"><ele>1236.3</ele></trkpt>
<trkpt lat="47.922893" lon="-121.327220"><ele>1232.8</ele></trkpt>
<trkpt lat="47.922907" lon="-121.327149"><ele>1233.4</ele></trkpt>
<trkpt lat="47.923056" lon="-121.327033"><ele>1227.9</ele></trkpt>
<trkpt lat="47.922978" lon="-121.326957"><ele>1224.4</ele></trkpt>
<trkpt lat="47.922395" lon="-121.326887"><ele>1208.9</ele></trkpt>
<trkpt lat="47.922468" lon="-121.326629"><ele>1205.2</ele></trkpt>
<trkpt lat="47.922586" lon="-121.326582"><ele>1200.5</ele></trkpt>
<trkpt lat="47.922798" lon="-121.326348"><ele>1200.7</ele></trkpt>
<trkpt lat="47.922982" lon="-121.326332"><ele>1198.3</ele></trkpt>
<trkpt lat="47.922877" lon="-121.326242"><ele>1190.3</ele></trkpt>
<trkpt lat="47.922147" lon="-121.326086"><ele>1178.2</ele></trkpt>
<trkpt lat="47.921746" lon="-121.326219"><ele>1164.3</ele></trkpt>
<trkpt lat="47.921452" lon="-121.325954"><ele>1155.6</ele></trkpt>
<trkpt lat="47.921412" lon="-121.325655"><ele>1148.5</ele></trkpt>
<trkpt lat="47.920914" lon="-121.325543"><ele>1135.4</ele></trkpt>
<trkpt lat="47.920965" lon="-121.325305"><ele>1132.0</ele></trkpt>
<trkpt lat="47.921348" lon="-121.324840"><ele>1128.2</ele></trkpt>
<trkpt lat="47.921446" lon="-121.324804"><ele>1128.2</ele></trkpt>
<trkpt lat="47.921061" lon="-121.324681"><ele>1115.4</ele></trkpt>
<trkpt lat="47.920941" lon="-121.324570"><ele>1111.6</ele></trkpt>
<trkpt lat="47.920935" lon="-121.324614"><ele>1112.2</ele></trkpt>
<trkpt lat="47.920356" lon="-121.324442"><ele>1098.8</ele></trkpt>
<trkpt lat="47.919923" lon="-121.324427"><ele>1084.5</ele></trkpt>
<trkpt lat="47.919764" lon="-121.324491"><ele>1080.4</ele></trkpt>
<trkpt lat="47.919339" lon="-121.324401"><ele>1066.6</ele></trkpt>
<trkpt lat="47.919019" lon="-121.324181"><ele>1057.3</ele></trkpt>
<trkpt lat="47.918915" lon="-121.324303"><ele>1055.4</ele></trkpt>
<trkpt lat="47.918657" lon="-121.324363"><ele>1042.8</ele></trkpt>
<trkpt lat="47.918593" lon="-121.324252"><ele>1045.2</ele></trkpt>
<trkpt lat="47.918611" lon="-121.323820"><ele>1041.2</ele></trkpt>
<trkpt lat="47.918761" lon="-121.323339"><ele>1032.8</ele></trkpt>
<trkpt lat="47.918513" lon="-121.323377"><ele>1027.7</ele></trkpt>
<trkpt lat="47.918203" lon="-121.323601"><ele>1015.2</ele></trkpt>
<trkpt lat="47.918018" lon="-121.323660"><ele>1009.4</ele></trkpt>
<trkpt lat="47.918011" lon="-121.323429"><ele>1004.5</ele></trkpt>
<trkpt lat="47.918153" lon="-121.322960"><ele>998.2</ele></trkpt>
<trkpt lat="47.918386" lon="-121.322613"><ele>994.0</ele></trkpt>
<trkpt lat="47.918447" lon="-121.322598"><ele>992.2</ele></trkpt>
<trkpt lat="47.918181" lon="-121.322646"><ele>982.3</ele></trkpt>
<trkpt lat="47.917865" lon="-121.322793"><ele>974.4</ele></trkpt>
<trkpt lat="47.917867" lon="-121.322841"><ele>975.0</ele></trkpt>
<trkpt lat="47.917747" lon="-121.322915"><ele>974.9</ele></trkpt>
<trkpt lat="47.917682" lon="-121.322905"><ele>974.1</ele></trkpt>
<trkpt lat="47.917680" lon="-121.322830"><ele>972.3</ele></trkpt>
<trkpt lat="47.917771" lon="-121.322559"><ele>967.6</ele></trkpt>
<trkpt lat="47.917998" lon="-121.322195"><ele>959.5</ele></trkpt>
<trkpt lat="47.918258" lon="-121.321943"><ele>955.8</ele></trkpt>
<trkpt lat="47.918281" lon="-121.321994"><ele>956.3</ele></trkpt>
<trkpt lat="47.917666" lon="-121.322185"><ele>942.4</ele></trkpt>
<trkpt lat="47.917668" lon="-121.322232"><ele>940.1</ele></trkpt>
<trkpt lat="47.917471" lon="-121.322321"><ele>936.2</ele></trkpt>
<trkpt lat="47.917433" lon="-121.322317"><ele>935.6</ele></trkpt>
<trkpt lat="47.917422" lon="-121.322233"><ele>934.6</ele></trkpt>
<trkpt lat="47.917676" lon="-121.321579"><ele>921.2</ele></trkpt>
<trkpt lat="47.917762" lon="-121.321525"><ele>919.9</ele></trkpt>
<trkpt lat="47.917930" lon="-121.321214"><ele>913.6</ele></trkpt>
<trkpt lat="47.918156" lon="-121.321044"><ele>908.0</ele></trkpt>
<trkpt lat="47.918224" lon="-121.320911"><ele>908.6</ele></trkpt>
<trkpt lat="47.918129" lon="-121.320985"><ele>904.8</ele></trkpt>
<trkpt lat="47.917695" lon="-121.321006"><ele>893.0</ele></trkpt>
<trkpt lat="47.917701" lon="-121.321066"><ele>892.4</ele></trkpt>
<trkpt lat="47.917506" lon="-121.321066"><ele>889.0</ele></trkpt>
<trkpt lat="47.917274" lon="-121.321198"><ele>880.4</ele></trkpt>
<trkpt lat="47.917058" lon="-121.321211"><ele>878.1</ele></trkpt>
<trkpt lat="47.916825" lon="-121.321466"><ele>874.4</ele></trkpt>
<trkpt lat="47.916470" lon="-121.321580"><ele>863.5</ele></trkpt>
<trkpt lat="47.916415" lon="-121.321526"><ele>861.0</ele></trkpt>
<trkpt lat="47.916484" lon="-121.321273"><ele>858.1</ele></trkpt>
<trkpt lat="47.916832" lon="-121.320797"><ele>850.1</ele></trkpt>
<trkpt lat="47.916610" lon="-121.320925"><ele>845.0</ele></trkpt>
<trkpt lat="47.916225" lon="-121.321015"><ele>834.4</ele></trkpt>
<trkpt lat="47.916012" lon="-121.321239"><ele>827.9</ele></trkpt>
<trkpt lat="47.915880" lon="-121.321204"><ele>825.2</ele></trkpt>
<trkpt lat="47.915483" lon="-121.321396"><ele>813.7</ele></trkpt>
<trkpt lat="47.915381" lon="-121.321339"><ele>808.6</ele></trkpt>
<trkpt lat="47.915426" lon="-121.321167"><ele>808.0</ele></trkpt>
<trkpt lat="47.915549" lon="-121.320967"><ele>805.1</ele></trkpt>
<trkpt lat="47.915631" lon="-121.320642"><ele>802.2</ele></trkpt>
<trkpt lat="47.915703" lon="-121.320524"><ele>799.5</ele></trkpt>
<trkpt lat="47.915822" lon="-121.320473"><ele>797.4</ele></trkpt>
<trkpt lat="47.916142" lon="-121.319969"><ele>789.0</ele></trkpt>
<trkpt lat="47.916140" lon="-121.320025"><ele>787.1</ele></trkpt>
<trkpt lat="47.915748" lon="-121.320152"><ele>782.1</ele></trkpt>
<trkpt lat="47.915449" lon="-121.320095"><ele>772.6</ele></trkpt>
<trkpt lat="47.915447" lon="-121.320007"><ele>771.8</ele></trkpt>
<trkpt lat="47.915771" lon="-121.319609"><ele>762.6</ele></trkpt>
<trkpt lat="47.915149" lon="-121.319470"><ele>744.8</ele></trkpt>
<trkpt lat="47.914927" lon="-121.319240"><ele>733.9</ele></trkpt>
<trkpt lat="47.914869" lon="-121.319084"><ele>730.8</ele></trkpt>
<trkpt lat="47.914900" lon="-121.318733"><ele>728.2</ele></trkpt>
<trkpt lat="47.915132" lon="-121.318480"><ele>722.6</ele></trkpt>
<trkpt lat="47.915245" lon="-121.318132"><ele>716.2</ele></trkpt>
<trkpt lat="47.914482" lon="-121.317894"><ele>694.7</ele></trkpt>
<trkpt lat="47.914471" lon="-121.317778"><ele>693.1</ele></trkpt>
<trkpt lat="47.914547" lon="-121.317701"><ele>689.7</ele></trkpt>
<trkpt lat="47.914608" lon="-121.317337"><ele>687.6</ele></trkpt>
<trkpt lat="47.914688" lon="-121.317290"><ele>687.3</ele></trkpt>
<trkpt lat="47.914302" lon="-121.317249"><ele>669.9</ele></trkpt>
<trkpt lat="47.914194" lon="-121.317012"><ele>666.1</ele></trkpt>
<trkpt lat="47.914109" lon="-121.316937"><ele>662.7</ele></trkpt>
<trkpt lat="47.914117" lon="-121.316812"><ele>661.2</ele></trkpt>
<trkpt lat="47.914209" lon="-121.316606"><ele>659.5</ele></trkpt>
<trkpt lat="47.914342" lon="-121.316567"><ele>657.3</ele></trkpt>
<trkpt lat="47.914579" lon="-121.316174"><ele>655.4</ele></trkpt>
<trkpt lat="47.914842" lon="-121.316119"><ele>653.8</ele></trkpt>
<trkpt lat="47.915193" lon="-121.315848"><ele>648.4</ele></trkpt>
<trkpt lat="47.915854" lon="-121.315628"><ele>642.2</ele></trkpt>
<trkpt lat="47.916229" lon="-121.315620"><ele>646.4</ele></trkpt>
<trkpt lat="47.916320" lon="-121.315698"><ele>649.1</ele></trkpt>
<trkpt lat="47.916107" lon="-121.315552"><ele>643.5</ele></trkpt>
<trkpt lat="47.915861" lon="-121.315513"><ele>639.2</ele></trkpt>
<trkpt lat="47.915795" lon="-121.315403"><ele>636.8</ele></trkpt>
<trkpt lat="47.916145" lon="-121.315250"><ele>631.7</ele></trkpt>
<trkpt lat="47.916553" lon="-121.315271"><ele>631.6</ele></trkpt>
<trkpt lat="47.916766" lon="-121.314950"><ele>625.4</ele></trkpt>
<trkpt lat="47.917033" lon="-121.314781"><ele>624.6</ele></trkpt>
<trkpt lat="47.916964" lon="-121.314668"><ele>622.4</ele></trkpt>
<trkpt lat="47.916814" lon="-121.314616"><ele>618.2</ele></trkpt>
<trkpt lat="47.916779" lon="-121.314541"><ele>618.2</ele></trkpt>
<trkpt lat="47.916467" lon="-121.314501"><ele>615.8</ele></trkpt>
<trkpt lat="47.916209" lon="-121.314293"><ele>609.3</ele></trkpt>
<trkpt lat="47.916093" lon="-121.314048"><ele>604.5</ele></trkpt>
<trkpt lat="47.916076" lon="-121.313541"><ele>598.0</ele></trkpt>
<trkpt lat="47.915811" lon="-121.313169"><ele>597.0</ele></trkpt>
<trkpt lat="47.915766" lon="-121.312983"><ele>595.2</ele></trkpt>
<trkpt lat="47.915599" lon="-121.312692"><ele>595.1</ele></trkpt>
<trkpt lat="47.915382" lon="-121.312417"><ele>594.5</ele></trkpt>
<trkpt lat="47.915187" lon="-121.312554"><ele>598.7</ele></trkpt>
</trkseg></trk>
</gpx>
