<?xml version="1.0" encoding="UTF-8"?>
<gpx version="1.1" creator="The Lost Trailhead" xmlns="http://www.topografix.com/GPX/1/1" xmlns:xsi="http://www.w3.org/2001/XMLSchema-instance" xsi:schemaLocation="http://www.topografix.com/GPX/1/1 http://www.topografix.com/GPX/1/1/gpx.xsd">
<metadata><name>Oyster Dome</name><desc>The Lost Trailhead, thelosttrailhead.com/hikes/oyster-dome. Conditions change. Use at your own risk.</desc><link href="https://thelosttrailhead.com/hikes/oyster-dome"><text>Oyster Dome on The Lost Trailhead</text></link></metadata>
<trk><name>Oyster Dome</name><link href="https://thelosttrailhead.com/hikes/oyster-dome"><text>Oyster Dome on The Lost Trailhead</text></link><trkseg>
<trkpt lat="48.608581" lon="-122.433254"><ele>42.8</ele></trkpt>
<trkpt lat="48.608638" lon="-122.433216"><ele>41.1</ele></trkpt>
<trkpt lat="48.608608" lon="-122.433243"><ele>42.6</ele></trkpt>
<trkpt lat="48.608588" lon="-122.433132"><ele>46.7</ele></trkpt>
<trkpt lat="48.608249" lon="-122.432798"><ele>55.2</ele></trkpt>
<trkpt lat="48.607469" lon="-122.432223"><ele>72.3</ele></trkpt>
<trkpt lat="48.607445" lon="-122.432295"><ele>72.3</ele></trkpt>
<trkpt lat="48.607259" lon="-122.431993"><ele>72.3</ele></trkpt>
<trkpt lat="48.607400" lon="-122.432096"><ele>75.3</ele></trkpt>
<trkpt lat="48.607717" lon="-122.432176"><ele>83.0</ele></trkpt>
<trkpt lat="48.608068" lon="-122.432162"><ele>89.2</ele></trkpt>
<trkpt lat="48.608564" lon="-122.432337"><ele>101.8</ele></trkpt>
<trkpt lat="48.608966" lon="-122.432391"><ele>110.3</ele></trkpt>
<trkpt lat="48.609812" lon="-122.432712"><ele>131.2</ele></trkpt>
<trkpt lat="48.610389" lon="-122.432731"><ele>141.6</ele></trkpt>
<trkpt lat="48.610507" lon="-122.432704"><ele>143.1</ele></trkpt>
<trkpt lat="48.610674" lon="-122.432503"><ele>144.8</ele></trkpt>
<trkpt lat="48.610782" lon="-122.432474"><ele>143.7</ele></trkpt>
<trkpt lat="48.610750" lon="-122.432451"><ele>143.5</ele></trkpt>
<trkpt lat="48.611068" lon="-122.432502"><ele>149.1</ele></trkpt>
<trkpt lat="48.611203" lon="-122.432440"><ele>150.8</ele></trkpt>
<trkpt lat="48.611332" lon="-122.432527"><ele>153.3</ele></trkpt>
<trkpt lat="48.611613" lon="-122.432569"><ele>157.3</ele></trkpt>
<trkpt lat="48.611842" lon="-122.432447"><ele>158.1</ele></trkpt>
<trkpt lat="48.612091" lon="-122.432425"><ele>161.4</ele></trkpt>
<trkpt lat="48.612503" lon="-122.432194"><ele>166.6</ele></trkpt>
<trkpt lat="48.612508" lon="-122.432089"><ele>160.5</ele></trkpt>
<trkpt lat="48.612739" lon="-122.432077"><ele>163.5</ele></trkpt>
<trkpt lat="48.612902" lon="-122.431841"><ele>168.3</ele></trkpt>
<trkpt lat="48.612889" lon="-122.431741"><ele>168.6</ele></trkpt>
<trkpt lat="48.613061" lon="-122.431892"><ele>170.8</ele></trkpt>
<trkpt lat="48.613233" lon="-122.431841"><ele>171.7</ele></trkpt>
<trkpt lat="48.613333" lon="-122.431707"><ele>172.6</ele></trkpt>
<trkpt lat="48.613378" lon="-122.431471"><ele>176.1</ele></trkpt>
<trkpt lat="48.613079" lon="-122.431381"><ele>186.6</ele></trkpt>
<trkpt lat="48.612980" lon="-122.431193"><ele>190.4</ele></trkpt>
<trkpt lat="48.612711" lon="-122.431337"><ele>195.7</ele></trkpt>
<trkpt lat="48.612495" lon="-122.431347"><ele>199.1</ele></trkpt>
<trkpt lat="48.612282" lon="-122.431227"><ele>200.0</ele></trkpt>
<trkpt lat="48.611629" lon="-122.431046"><ele>208.5</ele></trkpt>
<trkpt lat="48.611268" lon="-122.430809"><ele>214.5</ele></trkpt>
<trkpt lat="48.610990" lon="-122.430821"><ele>218.1</ele></trkpt>
<trkpt lat="48.610835" lon="-122.430734"><ele>218.0</ele></trkpt>
<trkpt lat="48.610683" lon="-122.430789"><ele>220.4</ele></trkpt>
<trkpt lat="48.610469" lon="-122.430715"><ele>223.1</ele></trkpt>
<trkpt lat="48.610284" lon="-122.430544"><ele>223.4</ele></trkpt>
<trkpt lat="48.610056" lon="-122.430583"><ele>225.2</ele></trkpt>
<trkpt lat="48.609886" lon="-122.430515"><ele>224.0</ele></trkpt>
<trkpt lat="48.609460" lon="-122.429998"><ele>236.4</ele></trkpt>
<trkpt lat="48.608735" lon="-122.429400"><ele>242.9</ele></trkpt>
<trkpt lat="48.608642" lon="-122.429401"><ele>244.5</ele></trkpt>
<trkpt lat="48.608428" lon="-122.429027"><ele>247.6</ele></trkpt>
<trkpt lat="48.608388" lon="-122.429029"><ele>249.1</ele></trkpt>
<trkpt lat="48.608443" lon="-122.429019"><ele>246.3</ele></trkpt>
<trkpt lat="48.608425" lon="-122.428960"><ele>248.1</ele></trkpt>
<trkpt lat="48.607952" lon="-122.428371"><ele>264.0</ele></trkpt>
<trkpt lat="48.607773" lon="-122.428047"><ele>264.8</ele></trkpt>
<trkpt lat="48.608125" lon="-122.428180"><ele>276.7</ele></trkpt>
<trkpt lat="48.608390" lon="-122.428441"><ele>276.0</ele></trkpt>
<trkpt lat="48.608602" lon="-122.428558"><ele>279.1</ele></trkpt>
<trkpt lat="48.609285" lon="-122.428638"><ele>295.3</ele></trkpt>
<trkpt lat="48.609575" lon="-122.428879"><ele>295.7</ele></trkpt>
<trkpt lat="48.609671" lon="-122.429041"><ele>292.4</ele></trkpt>
<trkpt lat="48.609782" lon="-122.429091"><ele>290.0</ele></trkpt>
<trkpt lat="48.609926" lon="-122.429032"><ele>289.8</ele></trkpt>
<trkpt lat="48.610203" lon="-122.429155"><ele>289.0</ele></trkpt>
<trkpt lat="48.610431" lon="-122.429150"><ele>287.2</ele></trkpt>
<trkpt lat="48.611077" lon="-122.428945"><ele>300.4</ele></trkpt>
<trkpt lat="48.611984" lon="-122.429070"><ele>311.4</ele></trkpt>
<trkpt lat="48.612583" lon="-122.428770"><ele>312.6</ele></trkpt>
<trkpt lat="48.612937" lon="-122.428707"><ele>316.3</ele></trkpt>
<trkpt lat="48.613614" lon="-122.428127"><ele>325.6</ele></trkpt>
<trkpt lat="48.614271" lon="-122.427766"><ele>331.3</ele></trkpt>
<trkpt lat="48.615213" lon="-122.427670"><ele>337.2</ele></trkpt>
<trkpt lat="48.615485" lon="-122.427535"><ele>341.0</ele></trkpt>
<trkpt lat="48.615472" lon="-122.427446"><ele>340.4</ele></trkpt>
<trkpt lat="48.615538" lon="-122.427505"><ele>340.7</ele></trkpt>
<trkpt lat="48.615970" lon="-122.427417"><ele>343.1</ele></trkpt>
<trkpt lat="48.616290" lon="-122.427211"><ele>344.3</ele></trkpt>
<trkpt lat="48.616566" lon="-122.426739"><ele>347.8</ele></trkpt>
<trkpt lat="48.616978" lon="-122.426685"><ele>344.5</ele></trkpt>
<trkpt lat="48.617286" lon="-122.426565"><ele>344.9</ele></trkpt>
<trkpt lat="48.617321" lon="-122.426484"><ele>347.2</ele></trkpt>
<trkpt lat="48.617193" lon="-122.426366"><ele>352.6</ele></trkpt>
<trkpt lat="48.617437" lon="-122.426285"><ele>355.4</ele></trkpt>
<trkpt lat="48.617567" lon="-122.426101"><ele>358.1</ele></trkpt>
<trkpt lat="48.617591" lon="-122.425925"><ele>361.4</ele></trkpt>
<trkpt lat="48.617924" lon="-122.425824"><ele>365.3</ele></trkpt>
<trkpt lat="48.618037" lon="-122.425659"><ele>368.6</ele></trkpt>
<trkpt lat="48.618359" lon="-122.425630"><ele>372.7</ele></trkpt>
<trkpt lat="48.618727" lon="-122.425389"><ele>379.1</ele></trkpt>
<trkpt lat="48.618789" lon="-122.425302"><ele>380.0</ele></trkpt>
<trkpt lat="48.618752" lon="-122.425254"><ele>379.2</ele></trkpt>
<trkpt lat="48.618815" lon="-122.425285"><ele>378.4</ele></trkpt>
<trkpt lat="48.619267" lon="-122.425077"><ele>378.2</ele></trkpt>
<trkpt lat="48.619860" lon="-122.424300"><ele>380.0</ele></trkpt>
<trkpt lat="48.620085" lon="-122.424189"><ele>379.5</ele></trkpt>
<trkpt lat="48.620476" lon="-122.423831"><ele>382.5</ele></trkpt>
<trkpt lat="48.620556" lon="-122.423402"><ele>385.8</ele></trkpt>
<trkpt lat="48.620886" lon="-122.422854"><ele>388.8</ele></trkpt>
<trkpt lat="48.621013" lon="-122.422360"><ele>389.6</ele></trkpt>
<trkpt lat="48.621221" lon="-122.422035"><ele>386.4</ele></trkpt>
<trkpt lat="48.621350" lon="-122.422020"><ele>388.1</ele></trkpt>
<trkpt lat="48.621582" lon="-122.421734"><ele>395.0</ele></trkpt>
<trkpt lat="48.621850" lon="-122.421605"><ele>398.1</ele></trkpt>
<trkpt lat="48.621975" lon="-122.421477"><ele>397.8</ele></trkpt>
<trkpt lat="48.622108" lon="-122.421213"><ele>396.7</ele></trkpt>
<trkpt lat="48.622382" lon="-122.421134"><ele>400.4</ele></trkpt>
<trkpt lat="48.622484" lon="-122.421192"><ele>402.3</ele></trkpt>
<trkpt lat="48.622709" lon="-122.421106"><ele>406.3</ele></trkpt>
<trkpt lat="48.622872" lon="-122.421140"><ele>407.9</ele></trkpt>
<trkpt lat="48.622954" lon="-122.421071"><ele>408.5</ele></trkpt>
<trkpt lat="48.623060" lon="-122.420780"><ele>411.5</ele></trkpt>
<trkpt lat="48.623084" lon="-122.420124"><ele>417.4</ele></trkpt>
<trkpt lat="48.623143" lon="-122.420158"><ele>418.8</ele></trkpt>
<trkpt lat="48.623183" lon="-122.420109"><ele>418.9</ele></trkpt>
<trkpt lat="48.623056" lon="-122.419931"><ele>420.5</ele></trkpt>
<trkpt lat="48.623183" lon="-122.419959"><ele>423.3</ele></trkpt>
<trkpt lat="48.623641" lon="-122.419760"><ele>434.8</ele></trkpt>
<trkpt lat="48.623838" lon="-122.419584"><ele>435.7</ele></trkpt>
<trkpt lat="48.623983" lon="-122.419613"><ele>438.0</ele></trkpt>
<trkpt lat="48.624022" lon="-122.419412"><ele>440.3</ele></trkpt>
<trkpt lat="48.623982" lon="-122.419323"><ele>441.0</ele></trkpt>
<trkpt lat="48.623968" lon="-122.418825"><ele>447.9</ele></trkpt>
<trkpt lat="48.623838" lon="-122.418815"><ele>452.7</ele></trkpt>
<trkpt lat="48.623735" lon="-122.418643"><ele>458.5</ele></trkpt>
<trkpt lat="48.623387" lon="-122.418788"><ele>462.9</ele></trkpt>
<trkpt lat="48.623677" lon="-122.418399"><ele>460.3</ele></trkpt>
<trkpt lat="48.623603" lon="-122.418316"><ele>466.0</ele></trkpt>
<trkpt lat="48.623860" lon="-122.418095"><ele>467.3</ele></trkpt>
<trkpt lat="48.623948" lon="-122.417818"><ele>469.4</ele></trkpt>
<trkpt lat="48.624109" lon="-122.417896"><ele>476.9</ele></trkpt>
<trkpt lat="48.624208" lon="-122.417820"><ele>478.1</ele></trkpt>
<trkpt lat="48.624298" lon="-122.417485"><ele>481.3</ele></trkpt>
<trkpt lat="48.624448" lon="-122.417257"><ele>485.5</ele></trkpt>
<trkpt lat="48.624441" lon="-122.416982"><ele>490.4</ele></trkpt>
<trkpt lat="48.624718" lon="-122.417094"><ele>492.7</ele></trkpt>
<trkpt lat="48.624976" lon="-122.417309"><ele>494.1</ele></trkpt>
<trkpt lat="48.625018" lon="-122.417224"><ele>495.1</ele></trkpt>
<trkpt lat="48.624996" lon="-122.417036"><ele>498.4</ele></trkpt>
<trkpt lat="48.624841" lon="-122.416800"><ele>503.5</ele></trkpt>
<trkpt lat="48.624993" lon="-122.416874"><ele>501.7</ele></trkpt>
<trkpt lat="48.625142" lon="-122.416835"><ele>503.4</ele></trkpt>
<trkpt lat="48.625111" lon="-122.416662"><ele>504.4</ele></trkpt>
<trkpt lat="48.624749" lon="-122.416523"><ele>516.0</ele></trkpt>
<trkpt lat="48.624925" lon="-122.416556"><ele>516.5</ele></trkpt>
<trkpt lat="48.624971" lon="-122.416455"><ele>517.1</ele></trkpt>
<trkpt lat="48.624837" lon="-122.416380"><ele>517.9</ele></trkpt>
<trkpt lat="48.624879" lon="-122.416364"><ele>516.0</ele></trkpt>
<trkpt lat="48.624530" lon="-122.416008"><ele>530.6</ele></trkpt>
<trkpt lat="48.624316" lon="-122.415971"><ele>531.9</ele></trkpt>
<trkpt lat="48.624541" lon="-122.415853"><ele>533.9</ele></trkpt>
<trkpt lat="48.624719" lon="-122.415861"><ele>537.2</ele></trkpt>
<trkpt lat="48.624740" lon="-122.415599"><ele>545.0</ele></trkpt>
<trkpt lat="48.624549" lon="-122.415475"><ele>551.2</ele></trkpt>
<trkpt lat="48.624374" lon="-122.415462"><ele>550.0</ele></trkpt>
<trkpt lat="48.624449" lon="-122.415445"><ele>549.9</ele></trkpt>
<trkpt lat="48.624516" lon="-122.415348"><ele>552.8</ele></trkpt>
<trkpt lat="48.624501" lon="-122.415303"><ele>554.5</ele></trkpt>
<trkpt lat="48.624379" lon="-122.415279"><ele>559.1</ele></trkpt>
<trkpt lat="48.624159" lon="-122.415371"><ele>559.8</ele></trkpt>
<trkpt lat="48.624306" lon="-122.415219"><ele>563.0</ele></trkpt>
<trkpt lat="48.624382" lon="-122.414981"><ele>569.1</ele></trkpt>
<trkpt lat="48.624162" lon="-122.414871"><ele>574.1</ele></trkpt>
<trkpt lat="48.623974" lon="-122.414595"><ele>578.6</ele></trkpt>
<trkpt lat="48.623698" lon="-122.414459"><ele>583.4</ele></trkpt>
<trkpt lat="48.623992" lon="-122.414053"><ele>592.4</ele></trkpt>
<trkpt lat="48.624110" lon="-122.414011"><ele>592.4</ele></trkpt>
<trkpt lat="48.624268" lon="-122.413738"><ele>587.3</ele></trkpt>
<trkpt lat="48.624553" lon="-122.413651"><ele>588.7</ele></trkpt>
<trkpt lat="48.624619" lon="-122.413845"><ele>590.4</ele></trkpt>
<trkpt lat="48.624736" lon="-122.413907"><ele>591.8</ele></trkpt>
<trkpt lat="48.624731" lon="-122.413540"><ele>597.4</ele></trkpt>
<trkpt lat="48.624869" lon="-122.413704"><ele>600.0</ele></trkpt>
<trkpt lat="48.625035" lon="-122.413732"><ele>602.1</ele></trkpt>
<trkpt lat="48.625225" lon="-122.413856"><ele>603.1</ele></trkpt>
<trkpt lat="48.625295" lon="-122.414130"><ele>605.0</ele></trkpt>
<trkpt lat="48.625420" lon="-122.414320"><ele>599.6</ele></trkpt>
<trkpt lat="48.625813" lon="-122.414309"><ele>596.9</ele></trkpt>
<trkpt lat="48.626247" lon="-122.413880"><ele>602.5</ele></trkpt>
<trkpt lat="48.626244" lon="-122.414246"><ele>608.2</ele></trkpt>
<trkpt lat="48.626492" lon="-122.414486"><ele>612.5</ele></trkpt>
<trkpt lat="48.626544" lon="-122.414399"><ele>613.4</ele></trkpt>
<trkpt lat="48.626546" lon="-122.414215"><ele>616.5</ele></trkpt>
<trkpt lat="48.626718" lon="-122.414143"><ele>623.6</ele></trkpt>
<trkpt lat="48.626780" lon="-122.414757"><ele>624.5</ele></trkpt>
<trkpt lat="48.626945" lon="-122.415195"><ele>625.2</ele></trkpt>
<trkpt lat="48.626921" lon="-122.415117"><ele>624.5</ele></trkpt>
<trkpt lat="48.627059" lon="-122.415029"><ele>626.1</ele></trkpt>
<trkpt lat="48.627107" lon="-122.414729"><ele>632.2</ele></trkpt>
<trkpt lat="48.627189" lon="-122.414795"><ele>635.9</ele></trkpt>
<trkpt lat="48.627185" lon="-122.414639"><ele>632.8</ele></trkpt>
<trkpt lat="48.627258" lon="-122.414522"><ele>633.0</ele></trkpt>
<trkpt lat="48.627419" lon="-122.414494"><ele>634.7</ele></trkpt>
<trkpt lat="48.627258" lon="-122.414522"><ele>633.0</ele></trkpt>
<trkpt lat="48.627185" lon="-122.414639"><ele>632.8</ele></trkpt>
<trkpt lat="48.627189" lon="-122.414795"><ele>635.9</ele></trkpt>
<trkpt lat="48.627107" lon="-122.414729"><ele>632.2</ele></trkpt>
<trkpt lat="48.627059" lon="-122.415029"><ele>626.1</ele></trkpt>
<trkpt lat="48.626921" lon="-122.415117"><ele>624.5</ele></trkpt>
<trkpt lat="48.626945" lon="-122.415195"><ele>625.2</ele></trkpt>
<trkpt lat="48.626780" lon="-122.414757"><ele>624.5</ele></trkpt>
<trkpt lat="48.626718" lon="-122.414143"><ele>623.6</ele></trkpt>
<trkpt lat="48.626546" lon="-122.414215"><ele>616.5</ele></trkpt>
<trkpt lat="48.626544" lon="-122.414399"><ele>613.4</ele></trkpt>
<trkpt lat="48.626492" lon="-122.414486"><ele>612.5</ele></trkpt>
<trkpt lat="48.626244" lon="-122.414246"><ele>608.2</ele></trkpt>
<trkpt lat="48.626247" lon="-122.413880"><ele>602.5</ele></trkpt>
<trkpt lat="48.625813" lon="-122.414309"><ele>596.9</ele></trkpt>
<trkpt lat="48.625420" lon="-122.414320"><ele>599.6</ele></trkpt>
<trkpt lat="48.625295" lon="-122.414130"><ele>605.0</ele></trkpt>
<trkpt lat="48.625225" lon="-122.413856"><ele>603.1</ele></trkpt>
<trkpt lat="48.625035" lon="-122.413732"><ele>602.1</ele></trkpt>
<trkpt lat="48.624869" lon="-122.413704"><ele>600.0</ele></trkpt>
<trkpt lat="48.624731" lon="-122.413540"><ele>597.4</ele></trkpt>
<trkpt lat="48.624736" lon="-122.413907"><ele>591.8</ele></trkpt>
<trkpt lat="48.624619" lon="-122.413845"><ele>590.4</ele></trkpt>
<trkpt lat="48.624553" lon="-122.413651"><ele>588.7</ele></trkpt>
<trkpt lat="48.624268" lon="-122.413738"><ele>587.3</ele></trkpt>
<trkpt lat="48.624110" lon="-122.414011"><ele>592.4</ele></trkpt>
<trkpt lat="48.623992" lon="-122.414053"><ele>592.4</ele></trkpt>
<trkpt lat="48.623698" lon="-122.414459"><ele>583.4</ele></trkpt>
<trkpt lat="48.623974" lon="-122.414595"><ele>578.6</ele></trkpt>
<trkpt lat="48.624162" lon="-122.414871"><ele>574.1</ele></trkpt>
<trkpt lat="48.624382" lon="-122.414981"><ele>569.1</ele></trkpt>
<trkpt lat="48.624306" lon="-122.415219"><ele>563.0</ele></trkpt>
<trkpt lat="48.624159" lon="-122.415371"><ele>559.8</ele></trkpt>
<trkpt lat="48.624379" lon="-122.415279"><ele>559.1</ele></trkpt>
<trkpt lat="48.624501" lon="-122.415303"><ele>554.5</ele></trkpt>
<trkpt lat="48.624516" lon="-122.415348"><ele>552.8</ele></trkpt>
<trkpt lat="48.624449" lon="-122.415445"><ele>549.9</ele></trkpt>
<trkpt lat="48.624374" lon="-122.415462"><ele>550.0</ele></trkpt>
<trkpt lat="48.624549" lon="-122.415475"><ele>551.2</ele></trkpt>
<trkpt lat="48.624740" lon="-122.415599"><ele>545.0</ele></trkpt>
<trkpt lat="48.624719" lon="-122.415861"><ele>537.2</ele></trkpt>
<trkpt lat="48.624541" lon="-122.415853"><ele>533.9</ele></trkpt>
<trkpt lat="48.624316" lon="-122.415971"><ele>531.9</ele></trkpt>
<trkpt lat="48.624530" lon="-122.416008"><ele>530.6</ele></trkpt>
<trkpt lat="48.624879" lon="-122.416364"><ele>516.0</ele></trkpt>
<trkpt lat="48.624837" lon="-122.416380"><ele>517.9</ele></trkpt>
<trkpt lat="48.624971" lon="-122.416455"><ele>517.1</ele></trkpt>
<trkpt lat="48.624925" lon="-122.416556"><ele>516.5</ele></trkpt>
<trkpt lat="48.624749" lon="-122.416523"><ele>516.0</ele></trkpt>
<trkpt lat="48.625111" lon="-122.416662"><ele>504.4</ele></trkpt>
<trkpt lat="48.625142" lon="-122.416835"><ele>503.4</ele></trkpt>
<trkpt lat="48.624993" lon="-122.416874"><ele>501.7</ele></trkpt>
<trkpt lat="48.624841" lon="-122.416800"><ele>503.5</ele></trkpt>
<trkpt lat="48.624996" lon="-122.417036"><ele>498.4</ele></trkpt>
<trkpt lat="48.625018" lon="-122.417224"><ele>495.1</ele></trkpt>
<trkpt lat="48.624976" lon="-122.417309"><ele>494.1</ele></trkpt>
<trkpt lat="48.624718" lon="-122.417094"><ele>492.7</ele></trkpt>
<trkpt lat="48.624441" lon="-122.416982"><ele>490.4</ele></trkpt>
<trkpt lat="48.624448" lon="-122.417257"><ele>485.5</ele></trkpt>
<trkpt lat="48.624298" lon="-122.417485"><ele>481.3</ele></trkpt>
<trkpt lat="48.624208" lon="-122.417820"><ele>478.1</ele></trkpt>
<trkpt lat="48.624109" lon="-122.417896"><ele>476.9</ele></trkpt>
<trkpt lat="48.623948" lon="-122.417818"><ele>469.4</ele></trkpt>
<trkpt lat="48.623860" lon="-122.418095"><ele>467.3</ele></trkpt>
<trkpt lat="48.623603" lon="-122.418316"><ele>466.0</ele></trkpt>
<trkpt lat="48.623677" lon="-122.418399"><ele>460.3</ele></trkpt>
<trkpt lat="48.623387" lon="-122.418788"><ele>462.9</ele></trkpt>
<trkpt lat="48.623735" lon="-122.418643"><ele>458.5</ele></trkpt>
<trkpt lat="48.623838" lon="-122.418815"><ele>452.7</ele></trkpt>
<trkpt lat="48.623968" lon="-122.418825"><ele>447.9</ele></trkpt>
<trkpt lat="48.623982" lon="-122.419323"><ele>441.0</ele></trkpt>
<trkpt lat="48.624022" lon="-122.419412"><ele>440.3</ele></trkpt>
<trkpt lat="48.623983" lon="-122.419613"><ele>438.0</ele></trkpt>
<trkpt lat="48.623838" lon="-122.419584"><ele>435.7</ele></trkpt>
<trkpt lat="48.623641" lon="-122.419760"><ele>434.8</ele></trkpt>
<trkpt lat="48.623183" lon="-122.419959"><ele>423.3</ele></trkpt>
<trkpt lat="48.623056" lon="-122.419931"><ele>420.5</ele></trkpt>
<trkpt lat="48.623183" lon="-122.420109"><ele>418.9</ele></trkpt>
<trkpt lat="48.623143" lon="-122.420158"><ele>418.8</ele></trkpt>
<trkpt lat="48.623084" lon="-122.420124"><ele>417.4</ele></trkpt>
<trkpt lat="48.623060" lon="-122.420780"><ele>411.5</ele></trkpt>
<trkpt lat="48.622954" lon="-122.421071"><ele>408.5</ele></trkpt>
<trkpt lat="48.622872" lon="-122.421140"><ele>407.9</ele></trkpt>
<trkpt lat="48.622709" lon="-122.421106"><ele>406.3</ele></trkpt>
<trkpt lat="48.622484" lon="-122.421192"><ele>402.3</ele></trkpt>
<trkpt lat="48.622382" lon="-122.421134"><ele>400.4</ele></trkpt>
<trkpt lat="48.622108" lon="-122.421213"><ele>396.7</ele></trkpt>
<trkpt lat="48.621975" lon="-122.421477"><ele>397.8</ele></trkpt>
<trkpt lat="48.621850" lon="-122.421605"><ele>398.1</ele></trkpt>
<trkpt lat="48.621582" lon="-122.421734"><ele>395.0</ele></trkpt>
<trkpt lat="48.621350" lon="-122.422020"><ele>388.1</ele></trkpt>
<trkpt lat="48.621221" lon="-122.422035"><ele>386.4</ele></trkpt>
<trkpt lat="48.621013" lon="-122.422360"><ele>389.6</ele></trkpt>
<trkpt lat="48.620886" lon="-122.422854"><ele>388.8</ele></trkpt>
<trkpt lat="48.620556" lon="-122.423402"><ele>385.8</ele></trkpt>
<trkpt lat="48.620476" lon="-122.423831"><ele>382.5</ele></trkpt>
<trkpt lat="48.620085" lon="-122.424189"><ele>379.5</ele></trkpt>
<trkpt lat="48.619860" lon="-122.424300"><ele>380.0</ele></trkpt>
<trkpt lat="48.619267" lon="-122.425077"><ele>378.2</ele></trkpt>
<trkpt lat="48.618815" lon="-122.425285"><ele>378.4</ele></trkpt>
<trkpt lat="48.618752" lon="-122.425254"><ele>379.2</ele></trkpt>
<trkpt lat="48.618789" lon="-122.425302"><ele>380.0</ele></trkpt>
<trkpt lat="48.618727" lon="-122.425389"><ele>379.1</ele></trkpt>
<trkpt lat="48.618359" lon="-122.425630"><ele>372.7</ele></trkpt>
<trkpt lat="48.618037" lon="-122.425659"><ele>368.6</ele></trkpt>
<trkpt lat="48.617924" lon="-122.425824"><ele>365.3</ele></trkpt>
<trkpt lat="48.617591" lon="-122.425925"><ele>361.4</ele></trkpt>
<trkpt lat="48.617567" lon="-122.426101"><ele>358.1</ele></trkpt>
<trkpt lat="48.617437" lon="-122.426285"><ele>355.4</ele></trkpt>
<trkpt lat="48.617193" lon="-122.426366"><ele>352.6</ele></trkpt>
<trkpt lat="48.617321" lon="-122.426484"><ele>347.2</ele></trkpt>
<trkpt lat="48.617286" lon="-122.426565"><ele>344.9</ele></trkpt>
<trkpt lat="48.616978" lon="-122.426685"><ele>344.5</ele></trkpt>
<trkpt lat="48.616566" lon="-122.426739"><ele>347.8</ele></trkpt>
<trkpt lat="48.616290" lon="-122.427211"><ele>344.3</ele></trkpt>
<trkpt lat="48.615970" lon="-122.427417"><ele>343.1</ele></trkpt>
<trkpt lat="48.615538" lon="-122.427505"><ele>340.7</ele></trkpt>
<trkpt lat="48.615472" lon="-122.427446"><ele>340.4</ele></trkpt>
<trkpt lat="48.615485" lon="-122.427535"><ele>341.0</ele></trkpt>
<trkpt lat="48.615213" lon="-122.427670"><ele>337.2</ele></trkpt>
<trkpt lat="48.614271" lon="-122.427766"><ele>331.3</ele></trkpt>
<trkpt lat="48.613614" lon="-122.428127"><ele>325.6</ele></trkpt>
<trkpt lat="48.612937" lon="-122.428707"><ele>316.3</ele></trkpt>
<trkpt lat="48.612583" lon="-122.428770"><ele>312.6</ele></trkpt>
<trkpt lat="48.611984" lon="-122.429070"><ele>311.4</ele></trkpt>
<trkpt lat="48.611077" lon="-122.428945"><ele>300.4</ele></trkpt>
<trkpt lat="48.610431" lon="-122.429150"><ele>287.2</ele></trkpt>
<trkpt lat="48.610203" lon="-122.429155"><ele>289.0</ele></trkpt>
<trkpt lat="48.609926" lon="-122.429032"><ele>289.8</ele></trkpt>
<trkpt lat="48.609782" lon="-122.429091"><ele>290.0</ele></trkpt>
<trkpt lat="48.609671" lon="-122.429041"><ele>292.4</ele></trkpt>
<trkpt lat="48.609575" lon="-122.428879"><ele>295.7</ele></trkpt>
<trkpt lat="48.609285" lon="-122.428638"><ele>295.3</ele></trkpt>
<trkpt lat="48.608602" lon="-122.428558"><ele>279.1</ele></trkpt>
<trkpt lat="48.608390" lon="-122.428441"><ele>276.0</ele></trkpt>
<trkpt lat="48.608125" lon="-122.428180"><ele>276.7</ele></trkpt>
<trkpt lat="48.607773" lon="-122.428047"><ele>264.8</ele></trkpt>
<trkpt lat="48.607952" lon="-122.428371"><ele>264.0</ele></trkpt>
<trkpt lat="48.608425" lon="-122.428960"><ele>248.1</ele></trkpt>
<trkpt lat="48.608443" lon="-122.429019"><ele>246.3</ele></trkpt>
<trkpt lat="48.608388" lon="-122.429029"><ele>249.1</ele></trkpt>
<trkpt lat="48.608428" lon="-122.429027"><ele>247.6</ele></trkpt>
<trkpt lat="48.608642" lon="-122.429401"><ele>244.5</ele></trkpt>
<trkpt lat="48.608735" lon="-122.429400"><ele>242.9</ele></trkpt>
<trkpt lat="48.609460" lon="-122.429998"><ele>236.4</ele></trkpt>
<trkpt lat="48.609886" lon="-122.430515"><ele>224.0</ele></trkpt>
<trkpt lat="48.610056" lon="-122.430583"><ele>225.2</ele></trkpt>
<trkpt lat="48.610284" lon="-122.430544"><ele>223.4</ele></trkpt>
<trkpt lat="48.610469" lon="-122.430715"><ele>223.1</ele></trkpt>
<trkpt lat="48.610683" lon="-122.430789"><ele>220.4</ele></trkpt>
<trkpt lat="48.610835" lon="-122.430734"><ele>218.0</ele></trkpt>
<trkpt lat="48.610990" lon="-122.430821"><ele>218.1</ele></trkpt>
<trkpt lat="48.611268" lon="-122.430809"><ele>214.5</ele></trkpt>
<trkpt lat="48.611629" lon="-122.431046"><ele>208.5</ele></trkpt>
<trkpt lat="48.612282" lon="-122.431227"><ele>200.0</ele></trkpt>
<trkpt lat="48.612495" lon="-122.431347"><ele>199.1</ele></trkpt>
<trkpt lat="48.612711" lon="-122.431337"><ele>195.7</ele></trkpt>
<trkpt lat="48.612980" lon="-122.431193"><ele>190.4</ele></trkpt>
<trkpt lat="48.613079" lon="-122.431381"><ele>186.6</ele></trkpt>
<trkpt lat="48.613378" lon="-122.431471"><ele>176.1</ele></trkpt>
<trkpt lat="48.613333" lon="-122.431707"><ele>172.6</ele></trkpt>
<trkpt lat="48.613233" lon="-122.431841"><ele>171.7</ele></trkpt>
<trkpt lat="48.613061" lon="-122.431892"><ele>170.8</ele></trkpt>
<trkpt lat="48.612889" lon="-122.431741"><ele>168.6</ele></trkpt>
<trkpt lat="48.612902" lon="-122.431841"><ele>168.3</ele></trkpt>
<trkpt lat="48.612739" lon="-122.432077"><ele>163.5</ele></trkpt>
<trkpt lat="48.612508" lon="-122.432089"><ele>160.5</ele></trkpt>
<trkpt lat="48.612503" lon="-122.432194"><ele>166.6</ele></trkpt>
<trkpt lat="48.612091" lon="-122.432425"><ele>161.4</ele></trkpt>
<trkpt lat="48.611842" lon="-122.432447"><ele>158.1</ele></trkpt>
<trkpt lat="48.611613" lon="-122.432569"><ele>157.3</ele></trkpt>
<trkpt lat="48.611332" lon="-122.432527"><ele>153.3</ele></trkpt>
<trkpt lat="48.611203" lon="-122.432440"><ele>150.8</ele></trkpt>
<trkpt lat="48.611068" lon="-122.432502"><ele>149.1</ele></trkpt>
<trkpt lat="48.610750" lon="-122.432451"><ele>143.5</ele></trkpt>
<trkpt lat="48.610782" lon="-122.432474"><ele>143.7</ele></trkpt>
<trkpt lat="48.610674" lon="-122.432503"><ele>144.8</ele></trkpt>
<trkpt lat="48.610507" lon="-122.432704"><ele>143.1</ele></trkpt>
<trkpt lat="48.610389" lon="-122.432731"><ele>141.6</ele></trkpt>
<trkpt lat="48.609812" lon="-122.432712"><ele>131.2</ele></trkpt>
<trkpt lat="48.608966" lon="-122.432391"><ele>110.3</ele></trkpt>
<trkpt lat="48.608564" lon="-122.432337"><ele>101.8</ele></trkpt>
<trkpt lat="48.608068" lon="-122.432162"><ele>89.2</ele></trkpt>
<trkpt lat="48.607717" lon="-122.432176"><ele>83.0</ele></trkpt>
<trkpt lat="48.607400" lon="-122.432096"><ele>75.3</ele></trkpt>
<trkpt lat="48.607259" lon="-122.431993"><ele>72.3</ele></trkpt>
<trkpt lat="48.607445" lon="-122.432295"><ele>72.3</ele></trkpt>
<trkpt lat="48.607469" lon="-122.432223"><ele>72.3</ele></trkpt>
<trkpt lat="48.608249" lon="-122.432798"><ele>55.2</ele></trkpt>
<trkpt lat="48.608588" lon="-122.433132"><ele>46.7</ele></trkpt>
<trkpt lat="48.608608" lon="-122.433243"><ele>42.6</ele></trkpt>
<trkpt lat="48.608638" lon="-122.433216"><ele>41.1</ele></trkpt>
<trkpt lat="48.608581" lon="-122.433254"><ele>42.8</ele></trkpt>
</trkseg></trk>
</gpx>
