<?xml version="1.0" encoding="UTF-8"?>
<gpx version="1.1" creator="The Lost Trailhead" xmlns="http://www.topografix.com/GPX/1/1" xmlns:xsi="http://www.w3.org/2001/XMLSchema-instance" xsi:schemaLocation="http://www.topografix.com/GPX/1/1 http://www.topografix.com/GPX/1/1/gpx.xsd">
<metadata><name>Silver Peak</name><desc>The Lost Trailhead, thelosttrailhead.com/hikes/silver-peak. Conditions change. Use at your own risk.</desc><link href="https://thelosttrailhead.com/hikes/silver-peak"><text>Silver Peak on The Lost Trailhead</text></link></metadata>
<trk><name>Silver Peak</name><link href="https://thelosttrailhead.com/hikes/silver-peak"><text>Silver Peak on The Lost Trailhead</text></link><trkseg>
<trkpt lat="47.373085" lon="-121.446788"><ele>1161.0</ele></trkpt>
<trkpt lat="47.373112" lon="-121.446933"><ele>1161.0</ele></trkpt>
<trkpt lat="47.373055" lon="-121.447067"><ele>1162.0</ele></trkpt>
<trkpt lat="47.372884" lon="-121.447210"><ele>1165.0</ele></trkpt>
<trkpt lat="47.372857" lon="-121.447470"><ele>1166.0</ele></trkpt>
<trkpt lat="47.372687" lon="-121.447652"><ele>1167.0</ele></trkpt>
<trkpt lat="47.372458" lon="-121.447780"><ele>1170.0</ele></trkpt>
<trkpt lat="47.372273" lon="-121.448279"><ele>1172.0</ele></trkpt>
<trkpt lat="47.371973" lon="-121.448405"><ele>1175.0</ele></trkpt>
<trkpt lat="47.371821" lon="-121.448622"><ele>1176.0</ele></trkpt>
<trkpt lat="47.371659" lon="-121.448596"><ele>1178.0</ele></trkpt>
<trkpt lat="47.371530" lon="-121.448822"><ele>1176.0</ele></trkpt>
<trkpt lat="47.371480" lon="-121.448746"><ele>1175.0</ele></trkpt>
<trkpt lat="47.371532" lon="-121.448509"><ele>1175.0</ele></trkpt>
<trkpt lat="47.371492" lon="-121.448405"><ele>1175.0</ele></trkpt>
<trkpt lat="47.371384" lon="-121.448418"><ele>1176.0</ele></trkpt>
<trkpt lat="47.371274" lon="-121.448639"><ele>1174.0</ele></trkpt>
<trkpt lat="47.371218" lon="-121.448428"><ele>1176.0</ele></trkpt>
<trkpt lat="47.371035" lon="-121.448393"><ele>1177.0</ele></trkpt>
<trkpt lat="47.370790" lon="-121.448605"><ele>1175.0</ele></trkpt>
<trkpt lat="47.370748" lon="-121.448497"><ele>1175.0</ele></trkpt>
<trkpt lat="47.370645" lon="-121.448451"><ele>1175.0</ele></trkpt>
<trkpt lat="47.370581" lon="-121.448218"><ele>1177.0</ele></trkpt>
<trkpt lat="47.370277" lon="-121.447986"><ele>1180.0</ele></trkpt>
<trkpt lat="47.369531" lon="-121.447583"><ele>1189.0</ele></trkpt>
<trkpt lat="47.369264" lon="-121.447564"><ele>1193.0</ele></trkpt>
<trkpt lat="47.369134" lon="-121.447496"><ele>1195.0</ele></trkpt>
<trkpt lat="47.369059" lon="-121.447381"><ele>1197.0</ele></trkpt>
<trkpt lat="47.368852" lon="-121.447357"><ele>1200.0</ele></trkpt>
<trkpt lat="47.368673" lon="-121.447345"><ele>1201.0</ele></trkpt>
<trkpt lat="47.368373" lon="-121.447441"><ele>1203.0</ele></trkpt>
<trkpt lat="47.368041" lon="-121.447426"><ele>1206.0</ele></trkpt>
<trkpt lat="47.367893" lon="-121.447530"><ele>1207.0</ele></trkpt>
<trkpt lat="47.367519" lon="-121.447628"><ele>1210.0</ele></trkpt>
<trkpt lat="47.366986" lon="-121.447942"><ele>1213.0</ele></trkpt>
<trkpt lat="47.366698" lon="-121.448186"><ele>1216.0</ele></trkpt>
<trkpt lat="47.366335" lon="-121.448235"><ele>1219.0</ele></trkpt>
<trkpt lat="47.366233" lon="-121.448382"><ele>1218.0</ele></trkpt>
<trkpt lat="47.366103" lon="-121.448337"><ele>1220.0</ele></trkpt>
<trkpt lat="47.365868" lon="-121.448425"><ele>1223.0</ele></trkpt>
<trkpt lat="47.365588" lon="-121.448739"><ele>1229.0</ele></trkpt>
<trkpt lat="47.365416" lon="-121.448758"><ele>1231.0</ele></trkpt>
<trkpt lat="47.365061" lon="-121.449219"><ele>1237.0</ele></trkpt>
<trkpt lat="47.364696" lon="-121.449509"><ele>1242.0</ele></trkpt>
<trkpt lat="47.364275" lon="-121.450128"><ele>1251.0</ele></trkpt>
<trkpt lat="47.364097" lon="-121.450207"><ele>1252.0</ele></trkpt>
<trkpt lat="47.364037" lon="-121.450412"><ele>1253.0</ele></trkpt>
<trkpt lat="47.363950" lon="-121.450326"><ele>1251.0</ele></trkpt>
<trkpt lat="47.363711" lon="-121.450317"><ele>1254.0</ele></trkpt>
<trkpt lat="47.363310" lon="-121.450482"><ele>1259.0</ele></trkpt>
<trkpt lat="47.363125" lon="-121.450617"><ele>1261.0</ele></trkpt>
<trkpt lat="47.363054" lon="-121.450840"><ele>1262.0</ele></trkpt>
<trkpt lat="47.362991" lon="-121.450732"><ele>1262.0</ele></trkpt>
<trkpt lat="47.362888" lon="-121.450762"><ele>1263.0</ele></trkpt>
<trkpt lat="47.362598" lon="-121.451089"><ele>1268.0</ele></trkpt>
<trkpt lat="47.362388" lon="-121.451182"><ele>1267.0</ele></trkpt>
<trkpt lat="47.362286" lon="-121.451103"><ele>1266.0</ele></trkpt>
<trkpt lat="47.361992" lon="-121.451057"><ele>1268.0</ele></trkpt>
<trkpt lat="47.361795" lon="-121.451128"><ele>1270.0</ele></trkpt>
<trkpt lat="47.361437" lon="-121.451665"><ele>1280.0</ele></trkpt>
<trkpt lat="47.361346" lon="-121.451971"><ele>1283.0</ele></trkpt>
<trkpt lat="47.361114" lon="-121.452245"><ele>1283.0</ele></trkpt>
<trkpt lat="47.360656" lon="-121.452221"><ele>1284.0</ele></trkpt>
<trkpt lat="47.360549" lon="-121.452039"><ele>1288.0</ele></trkpt>
<trkpt lat="47.360339" lon="-121.452002"><ele>1288.0</ele></trkpt>
<trkpt lat="47.360280" lon="-121.451875"><ele>1289.0</ele></trkpt>
<trkpt lat="47.360167" lon="-121.451854"><ele>1291.0</ele></trkpt>
<trkpt lat="47.360041" lon="-121.451920"><ele>1293.0</ele></trkpt>
<trkpt lat="47.359956" lon="-121.452060"><ele>1296.0</ele></trkpt>
<trkpt lat="47.359194" lon="-121.452331"><ele>1303.0</ele></trkpt>
<trkpt lat="47.359021" lon="-121.452749"><ele>1300.0</ele></trkpt>
<trkpt lat="47.358811" lon="-121.452835"><ele>1301.0</ele></trkpt>
<trkpt lat="47.358682" lon="-121.453179"><ele>1303.0</ele></trkpt>
<trkpt lat="47.358395" lon="-121.453692"><ele>1307.0</ele></trkpt>
<trkpt lat="47.358223" lon="-121.454238"><ele>1308.0</ele></trkpt>
<trkpt lat="47.358076" lon="-121.454372"><ele>1308.0</ele></trkpt>
<trkpt lat="47.357913" lon="-121.454782"><ele>1312.0</ele></trkpt>
<trkpt lat="47.357685" lon="-121.455144"><ele>1311.0</ele></trkpt>
<trkpt lat="47.357417" lon="-121.455455"><ele>1312.0</ele></trkpt>
<trkpt lat="47.357201" lon="-121.455431"><ele>1312.0</ele></trkpt>
<trkpt lat="47.356932" lon="-121.455524"><ele>1315.0</ele></trkpt>
<trkpt lat="47.356810" lon="-121.455664"><ele>1315.0</ele></trkpt>
<trkpt lat="47.356443" lon="-121.455795"><ele>1314.0</ele></trkpt>
<trkpt lat="47.356123" lon="-121.455673"><ele>1308.0</ele></trkpt>
<trkpt lat="47.355978" lon="-121.455533"><ele>1306.0</ele></trkpt>
<trkpt lat="47.356414" lon="-121.455414"><ele>1300.0</ele></trkpt>
<trkpt lat="47.356442" lon="-121.455352"><ele>1299.0</ele></trkpt>
<trkpt lat="47.356305" lon="-121.455389"><ele>1297.0</ele></trkpt>
<trkpt lat="47.356127" lon="-121.455225"><ele>1295.0</ele></trkpt>
<trkpt lat="47.356369" lon="-121.455156"><ele>1291.0</ele></trkpt>
<trkpt lat="47.356450" lon="-121.455024"><ele>1289.0</ele></trkpt>
<trkpt lat="47.356440" lon="-121.454968"><ele>1289.0</ele></trkpt>
<trkpt lat="47.356222" lon="-121.454985"><ele>1286.0</ele></trkpt>
<trkpt lat="47.355990" lon="-121.454847"><ele>1283.0</ele></trkpt>
<trkpt lat="47.355834" lon="-121.455007"><ele>1283.0</ele></trkpt>
<trkpt lat="47.355684" lon="-121.454925"><ele>1283.0</ele></trkpt>
<trkpt lat="47.355600" lon="-121.454722"><ele>1282.0</ele></trkpt>
<trkpt lat="47.355456" lon="-121.454601"><ele>1283.0</ele></trkpt>
<trkpt lat="47.355322" lon="-121.454640"><ele>1285.0</ele></trkpt>
<trkpt lat="47.355218" lon="-121.454516"><ele>1287.0</ele></trkpt>
<trkpt lat="47.355131" lon="-121.454577"><ele>1290.0</ele></trkpt>
<trkpt lat="47.354902" lon="-121.454575"><ele>1292.0</ele></trkpt>
<trkpt lat="47.354531" lon="-121.454452"><ele>1301.0</ele></trkpt>
<trkpt lat="47.354360" lon="-121.454520"><ele>1304.0</ele></trkpt>
<trkpt lat="47.354322" lon="-121.454376"><ele>1304.0</ele></trkpt>
<trkpt lat="47.354210" lon="-121.454272"><ele>1305.0</ele></trkpt>
<trkpt lat="47.353937" lon="-121.454505"><ele>1310.0</ele></trkpt>
<trkpt lat="47.353935" lon="-121.454775"><ele>1313.0</ele></trkpt>
<trkpt lat="47.353772" lon="-121.455377"><ele>1328.0</ele></trkpt>
<trkpt lat="47.353711" lon="-121.455454"><ele>1331.0</ele></trkpt>
<trkpt lat="47.353709" lon="-121.455629"><ele>1333.0</ele></trkpt>
<trkpt lat="47.353542" lon="-121.455921"><ele>1336.0</ele></trkpt>
<trkpt lat="47.353374" lon="-121.456035"><ele>1338.0</ele></trkpt>
<trkpt lat="47.353262" lon="-121.456535"><ele>1346.0</ele></trkpt>
<trkpt lat="47.353187" lon="-121.456621"><ele>1348.0</ele></trkpt>
<trkpt lat="47.353120" lon="-121.456580"><ele>1348.0</ele></trkpt>
<trkpt lat="47.352882" lon="-121.456732"><ele>1358.0</ele></trkpt>
<trkpt lat="47.352829" lon="-121.457020"><ele>1361.0</ele></trkpt>
<trkpt lat="47.352766" lon="-121.456940"><ele>1362.0</ele></trkpt>
<trkpt lat="47.352765" lon="-121.457025"><ele>1364.0</ele></trkpt>
<trkpt lat="47.352528" lon="-121.457512"><ele>1372.0</ele></trkpt>
<trkpt lat="47.352533" lon="-121.457763"><ele>1376.0</ele></trkpt>
<trkpt lat="47.352466" lon="-121.457893"><ele>1382.0</ele></trkpt>
<trkpt lat="47.352547" lon="-121.458051"><ele>1385.0</ele></trkpt>
<trkpt lat="47.352444" lon="-121.458184"><ele>1391.0</ele></trkpt>
<trkpt lat="47.352347" lon="-121.458153"><ele>1396.0</ele></trkpt>
<trkpt lat="47.352301" lon="-121.458472"><ele>1401.0</ele></trkpt>
<trkpt lat="47.352246" lon="-121.458514"><ele>1403.0</ele></trkpt>
<trkpt lat="47.352157" lon="-121.458410"><ele>1407.0</ele></trkpt>
<trkpt lat="47.352114" lon="-121.458593"><ele>1411.0</ele></trkpt>
<trkpt lat="47.352181" lon="-121.458907"><ele>1420.0</ele></trkpt>
<trkpt lat="47.352283" lon="-121.459087"><ele>1422.0</ele></trkpt>
<trkpt lat="47.352283" lon="-121.459196"><ele>1426.0</ele></trkpt>
<trkpt lat="47.352167" lon="-121.459193"><ele>1429.0</ele></trkpt>
<trkpt lat="47.352140" lon="-121.459380"><ele>1433.0</ele></trkpt>
<trkpt lat="47.352090" lon="-121.459354"><ele>1434.0</ele></trkpt>
<trkpt lat="47.352528" lon="-121.459858"><ele>1443.0</ele></trkpt>
<trkpt lat="47.352572" lon="-121.460223"><ele>1457.0</ele></trkpt>
<trkpt lat="47.352541" lon="-121.460346"><ele>1461.0</ele></trkpt>
<trkpt lat="47.352731" lon="-121.460524"><ele>1467.0</ele></trkpt>
<trkpt lat="47.352661" lon="-121.460725"><ele>1470.0</ele></trkpt>
<trkpt lat="47.352676" lon="-121.460831"><ele>1471.0</ele></trkpt>
<trkpt lat="47.352874" lon="-121.461015"><ele>1469.0</ele></trkpt>
<trkpt lat="47.352879" lon="-121.461222"><ele>1474.0</ele></trkpt>
<trkpt lat="47.352995" lon="-121.461279"><ele>1477.0</ele></trkpt>
<trkpt lat="47.353060" lon="-121.461404"><ele>1479.0</ele></trkpt>
<trkpt lat="47.353360" lon="-121.461456"><ele>1484.0</ele></trkpt>
<trkpt lat="47.353463" lon="-121.461603"><ele>1488.0</ele></trkpt>
<trkpt lat="47.353558" lon="-121.461640"><ele>1490.0</ele></trkpt>
<trkpt lat="47.353887" lon="-121.461651"><ele>1482.0</ele></trkpt>
<trkpt lat="47.353985" lon="-121.461751"><ele>1480.0</ele></trkpt>
<trkpt lat="47.354634" lon="-121.462040"><ele>1474.0</ele></trkpt>
<trkpt lat="47.354896" lon="-121.462264"><ele>1477.0</ele></trkpt>
<trkpt lat="47.355285" lon="-121.462366"><ele>1479.0</ele></trkpt>
<trkpt lat="47.355442" lon="-121.462569"><ele>1484.0</ele></trkpt>
<trkpt lat="47.355451" lon="-121.462853"><ele>1491.0</ele></trkpt>
<trkpt lat="47.355567" lon="-121.462976"><ele>1492.0</ele></trkpt>
<trkpt lat="47.355683" lon="-121.463010"><ele>1493.0</ele></trkpt>
<trkpt lat="47.355945" lon="-121.462926"><ele>1496.0</ele></trkpt>
<trkpt lat="47.356235" lon="-121.462932"><ele>1499.0</ele></trkpt>
<trkpt lat="47.356286" lon="-121.462853"><ele>1502.0</ele></trkpt>
<trkpt lat="47.356364" lon="-121.462921"><ele>1507.0</ele></trkpt>
<trkpt lat="47.356482" lon="-121.462877"><ele>1512.0</ele></trkpt>
<trkpt lat="47.356681" lon="-121.462973"><ele>1519.0</ele></trkpt>
<trkpt lat="47.356845" lon="-121.462860"><ele>1529.0</ele></trkpt>
<trkpt lat="47.356897" lon="-121.462889"><ele>1532.0</ele></trkpt>
<trkpt lat="47.356944" lon="-121.462707"><ele>1538.0</ele></trkpt>
<trkpt lat="47.357192" lon="-121.462971"><ele>1552.0</ele></trkpt>
<trkpt lat="47.357230" lon="-121.462857"><ele>1555.0</ele></trkpt>
<trkpt lat="47.357385" lon="-121.462857"><ele>1562.0</ele></trkpt>
<trkpt lat="47.357549" lon="-121.462529"><ele>1573.0</ele></trkpt>
<trkpt lat="47.357651" lon="-121.462648"><ele>1577.0</ele></trkpt>
<trkpt lat="47.357928" lon="-121.462241"><ele>1588.0</ele></trkpt>
<trkpt lat="47.358098" lon="-121.462264"><ele>1594.0</ele></trkpt>
<trkpt lat="47.358404" lon="-121.461862"><ele>1602.0</ele></trkpt>
<trkpt lat="47.358494" lon="-121.461646"><ele>1605.0</ele></trkpt>
<trkpt lat="47.358679" lon="-121.461437"><ele>1609.0</ele></trkpt>
<trkpt lat="47.359103" lon="-121.461292"><ele>1614.0</ele></trkpt>
<trkpt lat="47.359444" lon="-121.461358"><ele>1610.0</ele></trkpt>
<trkpt lat="47.359895" lon="-121.461312"><ele>1618.0</ele></trkpt>
<trkpt lat="47.360244" lon="-121.461465"><ele>1635.0</ele></trkpt>
<trkpt lat="47.360550" lon="-121.461343"><ele>1644.0</ele></trkpt>
<trkpt lat="47.360741" lon="-121.461124"><ele>1655.0</ele></trkpt>
<trkpt lat="47.360915" lon="-121.461288"><ele>1667.0</ele></trkpt>
<trkpt lat="47.361504" lon="-121.461269"><ele>1701.0</ele></trkpt>
<trkpt lat="47.360915" lon="-121.461288"><ele>1667.0</ele></trkpt>
<trkpt lat="47.360741" lon="-121.461124"><ele>1655.0</ele></trkpt>
<trkpt lat="47.360550" lon="-121.461343"><ele>1644.0</ele></trkpt>
<trkpt lat="47.360244" lon="-121.461465"><ele>1635.0</ele></trkpt>
<trkpt lat="47.359895" lon="-121.461312"><ele>1618.0</ele></trkpt>
<trkpt lat="47.359444" lon="-121.461358"><ele>1610.0</ele></trkpt>
<trkpt lat="47.359103" lon="-121.461292"><ele>1614.0</ele></trkpt>
<trkpt lat="47.358679" lon="-121.461437"><ele>1609.0</ele></trkpt>
<trkpt lat="47.358494" lon="-121.461646"><ele>1605.0</ele></trkpt>
<trkpt lat="47.358404" lon="-121.461862"><ele>1602.0</ele></trkpt>
<trkpt lat="47.358098" lon="-121.462264"><ele>1594.0</ele></trkpt>
<trkpt lat="47.357928" lon="-121.462241"><ele>1588.0</ele></trkpt>
<trkpt lat="47.357651" lon="-121.462648"><ele>1577.0</ele></trkpt>
<trkpt lat="47.357549" lon="-121.462529"><ele>1573.0</ele></trkpt>
<trkpt lat="47.357385" lon="-121.462857"><ele>1562.0</ele></trkpt>
<trkpt lat="47.357230" lon="-121.462857"><ele>1555.0</ele></trkpt>
<trkpt lat="47.357192" lon="-121.462971"><ele>1552.0</ele></trkpt>
<trkpt lat="47.356944" lon="-121.462707"><ele>1538.0</ele></trkpt>
<trkpt lat="47.356897" lon="-121.462889"><ele>1532.0</ele></trkpt>
<trkpt lat="47.356845" lon="-121.462860"><ele>1529.0</ele></trkpt>
<trkpt lat="47.356681" lon="-121.462973"><ele>1519.0</ele></trkpt>
<trkpt lat="47.356482" lon="-121.462877"><ele>1512.0</ele></trkpt>
<trkpt lat="47.356364" lon="-121.462921"><ele>1507.0</ele></trkpt>
<trkpt lat="47.356286" lon="-121.462853"><ele>1502.0</ele></trkpt>
<trkpt lat="47.356235" lon="-121.462932"><ele>1499.0</ele></trkpt>
<trkpt lat="47.355945" lon="-121.462926"><ele>1496.0</ele></trkpt>
<trkpt lat="47.355683" lon="-121.463010"><ele>1493.0</ele></trkpt>
<trkpt lat="47.355567" lon="-121.462976"><ele>1492.0</ele></trkpt>
<trkpt lat="47.355451" lon="-121.462853"><ele>1491.0</ele></trkpt>
<trkpt lat="47.355442" lon="-121.462569"><ele>1484.0</ele></trkpt>
<trkpt lat="47.355285" lon="-121.462366"><ele>1479.0</ele></trkpt>
<trkpt lat="47.354896" lon="-121.462264"><ele>1477.0</ele></trkpt>
<trkpt lat="47.354634" lon="-121.462040"><ele>1474.0</ele></trkpt>
<trkpt lat="47.353985" lon="-121.461751"><ele>1480.0</ele></trkpt>
<trkpt lat="47.353887" lon="-121.461651"><ele>1482.0</ele></trkpt>
<trkpt lat="47.353558" lon="-121.461640"><ele>1490.0</ele></trkpt>
<trkpt lat="47.353463" lon="-121.461603"><ele>1488.0</ele></trkpt>
<trkpt lat="47.353360" lon="-121.461456"><ele>1484.0</ele></trkpt>
<trkpt lat="47.353060" lon="-121.461404"><ele>1479.0</ele></trkpt>
<trkpt lat="47.352995" lon="-121.461279"><ele>1477.0</ele></trkpt>
<trkpt lat="47.352879" lon="-121.461222"><ele>1474.0</ele></trkpt>
<trkpt lat="47.352874" lon="-121.461015"><ele>1469.0</ele></trkpt>
<trkpt lat="47.352676" lon="-121.460831"><ele>1471.0</ele></trkpt>
<trkpt lat="47.352661" lon="-121.460725"><ele>1470.0</ele></trkpt>
<trkpt lat="47.352731" lon="-121.460524"><ele>1467.0</ele></trkpt>
<trkpt lat="47.352541" lon="-121.460346"><ele>1461.0</ele></trkpt>
<trkpt lat="47.352572" lon="-121.460223"><ele>1457.0</ele></trkpt>
<trkpt lat="47.352528" lon="-121.459858"><ele>1443.0</ele></trkpt>
<trkpt lat="47.352090" lon="-121.459354"><ele>1434.0</ele></trkpt>
<trkpt lat="47.352140" lon="-121.459380"><ele>1433.0</ele></trkpt>
<trkpt lat="47.352167" lon="-121.459193"><ele>1429.0</ele></trkpt>
<trkpt lat="47.352283" lon="-121.459196"><ele>1426.0</ele></trkpt>
<trkpt lat="47.352283" lon="-121.459087"><ele>1422.0</ele></trkpt>
<trkpt lat="47.352181" lon="-121.458907"><ele>1420.0</ele></trkpt>
<trkpt lat="47.352114" lon="-121.458593"><ele>1411.0</ele></trkpt>
<trkpt lat="47.352157" lon="-121.458410"><ele>1407.0</ele></trkpt>
<trkpt lat="47.352246" lon="-121.458514"><ele>1403.0</ele></trkpt>
<trkpt lat="47.352301" lon="-121.458472"><ele>1401.0</ele></trkpt>
<trkpt lat="47.352347" lon="-121.458153"><ele>1396.0</ele></trkpt>
<trkpt lat="47.352444" lon="-121.458184"><ele>1391.0</ele></trkpt>
<trkpt lat="47.352547" lon="-121.458051"><ele>1385.0</ele></trkpt>
<trkpt lat="47.352466" lon="-121.457893"><ele>1382.0</ele></trkpt>
<trkpt lat="47.352533" lon="-121.457763"><ele>1376.0</ele></trkpt>
<trkpt lat="47.352528" lon="-121.457512"><ele>1372.0</ele></trkpt>
<trkpt lat="47.352765" lon="-121.457025"><ele>1364.0</ele></trkpt>
<trkpt lat="47.352766" lon="-121.456940"><ele>1362.0</ele></trkpt>
<trkpt lat="47.352829" lon="-121.457020"><ele>1361.0</ele></trkpt>
<trkpt lat="47.352882" lon="-121.456732"><ele>1358.0</ele></trkpt>
<trkpt lat="47.353120" lon="-121.456580"><ele>1348.0</ele></trkpt>
<trkpt lat="47.353187" lon="-121.456621"><ele>1348.0</ele></trkpt>
<trkpt lat="47.353262" lon="-121.456535"><ele>1346.0</ele></trkpt>
<trkpt lat="47.353374" lon="-121.456035"><ele>1338.0</ele></trkpt>
<trkpt lat="47.353542" lon="-121.455921"><ele>1336.0</ele></trkpt>
<trkpt lat="47.353709" lon="-121.455629"><ele>1333.0</ele></trkpt>
<trkpt lat="47.353711" lon="-121.455454"><ele>1331.0</ele></trkpt>
<trkpt lat="47.353772" lon="-121.455377"><ele>1328.0</ele></trkpt>
<trkpt lat="47.353935" lon="-121.454775"><ele>1313.0</ele></trkpt>
<trkpt lat="47.353937" lon="-121.454505"><ele>1310.0</ele></trkpt>
<trkpt lat="47.354210" lon="-121.454272"><ele>1305.0</ele></trkpt>
<trkpt lat="47.354322" lon="-121.454376"><ele>1304.0</ele></trkpt>
<trkpt lat="47.354360" lon="-121.454520"><ele>1304.0</ele></trkpt>
<trkpt lat="47.354531" lon="-121.454452"><ele>1301.0</ele></trkpt>
<trkpt lat="47.354902" lon="-121.454575"><ele>1292.0</ele></trkpt>
<trkpt lat="47.355131" lon="-121.454577"><ele>1290.0</ele></trkpt>
<trkpt lat="47.355218" lon="-121.454516"><ele>1287.0</ele></trkpt>
<trkpt lat="47.355322" lon="-121.454640"><ele>1285.0</ele></trkpt>
<trkpt lat="47.355456" lon="-121.454601"><ele>1283.0</ele></trkpt>
<trkpt lat="47.355600" lon="-121.454722"><ele>1282.0</ele></trkpt>
<trkpt lat="47.355684" lon="-121.454925"><ele>1283.0</ele></trkpt>
<trkpt lat="47.355834" lon="-121.455007"><ele>1283.0</ele></trkpt>
<trkpt lat="47.355990" lon="-121.454847"><ele>1283.0</ele></trkpt>
<trkpt lat="47.356222" lon="-121.454985"><ele>1286.0</ele></trkpt>
<trkpt lat="47.356440" lon="-121.454968"><ele>1289.0</ele></trkpt>
<trkpt lat="47.356450" lon="-121.455024"><ele>1289.0</ele></trkpt>
<trkpt lat="47.356369" lon="-121.455156"><ele>1291.0</ele></trkpt>
<trkpt lat="47.356127" lon="-121.455225"><ele>1295.0</ele></trkpt>
<trkpt lat="47.356305" lon="-121.455389"><ele>1297.0</ele></trkpt>
<trkpt lat="47.356442" lon="-121.455352"><ele>1299.0</ele></trkpt>
<trkpt lat="47.356414" lon="-121.455414"><ele>1300.0</ele></trkpt>
<trkpt lat="47.355978" lon="-121.455533"><ele>1306.0</ele></trkpt>
<trkpt lat="47.356123" lon="-121.455673"><ele>1308.0</ele></trkpt>
<trkpt lat="47.356443" lon="-121.455795"><ele>1314.0</ele></trkpt>
<trkpt lat="47.356810" lon="-121.455664"><ele>1315.0</ele></trkpt>
<trkpt lat="47.356932" lon="-121.455524"><ele>1315.0</ele></trkpt>
<trkpt lat="47.357201" lon="-121.455431"><ele>1312.0</ele></trkpt>
<trkpt lat="47.357417" lon="-121.455455"><ele>1312.0</ele></trkpt>
<trkpt lat="47.357685" lon="-121.455144"><ele>1311.0</ele></trkpt>
<trkpt lat="47.357913" lon="-121.454782"><ele>1312.0</ele></trkpt>
<trkpt lat="47.358076" lon="-121.454372"><ele>1308.0</ele></trkpt>
<trkpt lat="47.358223" lon="-121.454238"><ele>1308.0</ele></trkpt>
<trkpt lat="47.358395" lon="-121.453692"><ele>1307.0</ele></trkpt>
<trkpt lat="47.358682" lon="-121.453179"><ele>1303.0</ele></trkpt>
<trkpt lat="47.358811" lon="-121.452835"><ele>1301.0</ele></trkpt>
<trkpt lat="47.359021" lon="-121.452749"><ele>1300.0</ele></trkpt>
<trkpt lat="47.359194" lon="-121.452331"><ele>1303.0</ele></trkpt>
<trkpt lat="47.359956" lon="-121.452060"><ele>1296.0</ele></trkpt>
<trkpt lat="47.360041" lon="-121.451920"><ele>1293.0</ele></trkpt>
<trkpt lat="47.360167" lon="-121.451854"><ele>1291.0</ele></trkpt>
<trkpt lat="47.360280" lon="-121.451875"><ele>1289.0</ele></trkpt>
<trkpt lat="47.360339" lon="-121.452002"><ele>1288.0</ele></trkpt>
<trkpt lat="47.360549" lon="-121.452039"><ele>1288.0</ele></trkpt>
<trkpt lat="47.360656" lon="-121.452221"><ele>1284.0</ele></trkpt>
<trkpt lat="47.361114" lon="-121.452245"><ele>1283.0</ele></trkpt>
<trkpt lat="47.361346" lon="-121.451971"><ele>1283.0</ele></trkpt>
<trkpt lat="47.361437" lon="-121.451665"><ele>1280.0</ele></trkpt>
<trkpt lat="47.361795" lon="-121.451128"><ele>1270.0</ele></trkpt>
<trkpt lat="47.361992" lon="-121.451057"><ele>1268.0</ele></trkpt>
<trkpt lat="47.362286" lon="-121.451103"><ele>1266.0</ele></trkpt>
<trkpt lat="47.362388" lon="-121.451182"><ele>1267.0</ele></trkpt>
<trkpt lat="47.362598" lon="-121.451089"><ele>1268.0</ele></trkpt>
<trkpt lat="47.362888" lon="-121.450762"><ele>1263.0</ele></trkpt>
<trkpt lat="47.362991" lon="-121.450732"><ele>1262.0</ele></trkpt>
<trkpt lat="47.363054" lon="-121.450840"><ele>1262.0</ele></trkpt>
<trkpt lat="47.363125" lon="-121.450617"><ele>1261.0</ele></trkpt>
<trkpt lat="47.363310" lon="-121.450482"><ele>1259.0</ele></trkpt>
<trkpt lat="47.363711" lon="-121.450317"><ele>1254.0</ele></trkpt>
<trkpt lat="47.363950" lon="-121.450326"><ele>1251.0</ele></trkpt>
<trkpt lat="47.364037" lon="-121.450412"><ele>1253.0</ele></trkpt>
<trkpt lat="47.364097" lon="-121.450207"><ele>1252.0</ele></trkpt>
<trkpt lat="47.364275" lon="-121.450128"><ele>1251.0</ele></trkpt>
<trkpt lat="47.364696" lon="-121.449509"><ele>1242.0</ele></trkpt>
<trkpt lat="47.365061" lon="-121.449219"><ele>1237.0</ele></trkpt>
<trkpt lat="47.365416" lon="-121.448758"><ele>1231.0</ele></trkpt>
<trkpt lat="47.365588" lon="-121.448739"><ele>1229.0</ele></trkpt>
<trkpt lat="47.365868" lon="-121.448425"><ele>1223.0</ele></trkpt>
<trkpt lat="47.366103" lon="-121.448337"><ele>1220.0</ele></trkpt>
<trkpt lat="47.366233" lon="-121.448382"><ele>1218.0</ele></trkpt>
<trkpt lat="47.366335" lon="-121.448235"><ele>1219.0</ele></trkpt>
<trkpt lat="47.366698" lon="-121.448186"><ele>1216.0</ele></trkpt>
<trkpt lat="47.366986" lon="-121.447942"><ele>1213.0</ele></trkpt>
<trkpt lat="47.367519" lon="-121.447628"><ele>1210.0</ele></trkpt>
<trkpt lat="47.367893" lon="-121.447530"><ele>1207.0</ele></trkpt>
<trkpt lat="47.368041" lon="-121.447426"><ele>1206.0</ele></trkpt>
<trkpt lat="47.368373" lon="-121.447441"><ele>1203.0</ele></trkpt>
<trkpt lat="47.368673" lon="-121.447345"><ele>1201.0</ele></trkpt>
<trkpt lat="47.368852" lon="-121.447357"><ele>1200.0</ele></trkpt>
<trkpt lat="47.369059" lon="-121.447381"><ele>1197.0</ele></trkpt>
<trkpt lat="47.369134" lon="-121.447496"><ele>1195.0</ele></trkpt>
<trkpt lat="47.369264" lon="-121.447564"><ele>1193.0</ele></trkpt>
<trkpt lat="47.369531" lon="-121.447583"><ele>1189.0</ele></trkpt>
<trkpt lat="47.370277" lon="-121.447986"><ele>1180.0</ele></trkpt>
<trkpt lat="47.370581" lon="-121.448218"><ele>1177.0</ele></trkpt>
<trkpt lat="47.370645" lon="-121.448451"><ele>1175.0</ele></trkpt>
<trkpt lat="47.370748" lon="-121.448497"><ele>1175.0</ele></trkpt>
<trkpt lat="47.370790" lon="-121.448605"><ele>1175.0</ele></trkpt>
<trkpt lat="47.371035" lon="-121.448393"><ele>1177.0</ele></trkpt>
<trkpt lat="47.371218" lon="-121.448428"><ele>1176.0</ele></trkpt>
<trkpt lat="47.371274" lon="-121.448639"><ele>1174.0</ele></trkpt>
<trkpt lat="47.371384" lon="-121.448418"><ele>1176.0</ele></trkpt>
<trkpt lat="47.371492" lon="-121.448405"><ele>1175.0</ele></trkpt>
<trkpt lat="47.371532" lon="-121.448509"><ele>1175.0</ele></trkpt>
<trkpt lat="47.371480" lon="-121.448746"><ele>1175.0</ele></trkpt>
<trkpt lat="47.371530" lon="-121.448822"><ele>1176.0</ele></trkpt>
<trkpt lat="47.371659" lon="-121.448596"><ele>1178.0</ele></trkpt>
<trkpt lat="47.371821" lon="-121.448622"><ele>1176.0</ele></trkpt>
<trkpt lat="47.371973" lon="-121.448405"><ele>1175.0</ele></trkpt>
<trkpt lat="47.372273" lon="-121.448279"><ele>1172.0</ele></trkpt>
<trkpt lat="47.372458" lon="-121.447780"><ele>1170.0</ele></trkpt>
<trkpt lat="47.372687" lon="-121.447652"><ele>1167.0</ele></trkpt>
<trkpt lat="47.372857" lon="-121.447470"><ele>1166.0</ele></trkpt>
<trkpt lat="47.372884" lon="-121.447210"><ele>1165.0</ele></trkpt>
<trkpt lat="47.373055" lon="-121.447067"><ele>1162.0</ele></trkpt>
<trkpt lat="47.373112" lon="-121.446933"><ele>1161.0</ele></trkpt>
<trkpt lat="47.373085" lon="-121.446788"><ele>1161.0</ele></trkpt>
</trkseg></trk>
</gpx>
