<?xml version="1.0" encoding="UTF-8"?>
<gpx version="1.1" creator="The Lost Trailhead" xmlns="http://www.topografix.com/GPX/1/1" xmlns:xsi="http://www.w3.org/2001/XMLSchema-instance" xsi:schemaLocation="http://www.topografix.com/GPX/1/1 http://www.topografix.com/GPX/1/1/gpx.xsd">
<metadata><name>Lake Valhalla</name><desc>The Lost Trailhead, thelosttrailhead.com/hikes/lake-valhalla. Conditions change. Use at your own risk.</desc><link href="https://thelosttrailhead.com/hikes/lake-valhalla"><text>Lake Valhalla on The Lost Trailhead</text></link></metadata>
<trk><name>Lake Valhalla</name><link href="https://thelosttrailhead.com/hikes/lake-valhalla"><text>Lake Valhalla on The Lost Trailhead</text></link><trkseg>
<trkpt lat="47.802240" lon="-121.077344"><ele>1212.0</ele></trkpt>
<trkpt lat="47.802157" lon="-121.077549"><ele>1214.4</ele></trkpt>
<trkpt lat="47.802208" lon="-121.077681"><ele>1214.3</ele></trkpt>
<trkpt lat="47.802097" lon="-121.077982"><ele>1214.9</ele></trkpt>
<trkpt lat="47.801988" lon="-121.077942"><ele>1215.7</ele></trkpt>
<trkpt lat="47.801752" lon="-121.078296"><ele>1218.9</ele></trkpt>
<trkpt lat="47.801660" lon="-121.078552"><ele>1217.2</ele></trkpt>
<trkpt lat="47.801586" lon="-121.078561"><ele>1217.5</ele></trkpt>
<trkpt lat="47.801544" lon="-121.078641"><ele>1218.3</ele></trkpt>
<trkpt lat="47.801521" lon="-121.078863"><ele>1220.3</ele></trkpt>
<trkpt lat="47.801592" lon="-121.079015"><ele>1220.5</ele></trkpt>
<trkpt lat="47.801526" lon="-121.079210"><ele>1222.4</ele></trkpt>
<trkpt lat="47.801491" lon="-121.079568"><ele>1226.4</ele></trkpt>
<trkpt lat="47.801675" lon="-121.079457"><ele>1230.4</ele></trkpt>
<trkpt lat="47.801707" lon="-121.079502"><ele>1231.9</ele></trkpt>
<trkpt lat="47.801599" lon="-121.079662"><ele>1237.0</ele></trkpt>
<trkpt lat="47.801829" lon="-121.079642"><ele>1240.3</ele></trkpt>
<trkpt lat="47.801737" lon="-121.079778"><ele>1240.8</ele></trkpt>
<trkpt lat="47.801745" lon="-121.079886"><ele>1242.9</ele></trkpt>
<trkpt lat="47.801856" lon="-121.079878"><ele>1246.4</ele></trkpt>
<trkpt lat="47.802094" lon="-121.079708"><ele>1250.7</ele></trkpt>
<trkpt lat="47.801998" lon="-121.079905"><ele>1254.4</ele></trkpt>
<trkpt lat="47.802097" lon="-121.079912"><ele>1258.8</ele></trkpt>
<trkpt lat="47.802232" lon="-121.079764"><ele>1261.1</ele></trkpt>
<trkpt lat="47.802175" lon="-121.079872"><ele>1261.7</ele></trkpt>
<trkpt lat="47.802200" lon="-121.079907"><ele>1262.8</ele></trkpt>
<trkpt lat="47.802677" lon="-121.079333"><ele>1274.4</ele></trkpt>
<trkpt lat="47.802511" lon="-121.080162"><ele>1281.6</ele></trkpt>
<trkpt lat="47.802835" lon="-121.079692"><ele>1292.6</ele></trkpt>
<trkpt lat="47.803158" lon="-121.079343"><ele>1297.0</ele></trkpt>
<trkpt lat="47.803072" lon="-121.079428"><ele>1295.4</ele></trkpt>
<trkpt lat="47.802809" lon="-121.080555"><ele>1308.0</ele></trkpt>
<trkpt lat="47.803037" lon="-121.080391"><ele>1313.3</ele></trkpt>
<trkpt lat="47.803462" lon="-121.079810"><ele>1319.0</ele></trkpt>
<trkpt lat="47.803576" lon="-121.079752"><ele>1320.2</ele></trkpt>
<trkpt lat="47.803557" lon="-121.079690"><ele>1320.9</ele></trkpt>
<trkpt lat="47.803134" lon="-121.080978"><ele>1331.1</ele></trkpt>
<trkpt lat="47.803376" lon="-121.080793"><ele>1337.1</ele></trkpt>
<trkpt lat="47.803710" lon="-121.080241"><ele>1343.6</ele></trkpt>
<trkpt lat="47.803681" lon="-121.080194"><ele>1340.6</ele></trkpt>
<trkpt lat="47.803641" lon="-121.080750"><ele>1352.3</ele></trkpt>
<trkpt lat="47.803357" lon="-121.082234"><ele>1361.3</ele></trkpt>
<trkpt lat="47.803425" lon="-121.082319"><ele>1363.7</ele></trkpt>
<trkpt lat="47.803593" lon="-121.082221"><ele>1369.6</ele></trkpt>
<trkpt lat="47.803762" lon="-121.081838"><ele>1372.1</ele></trkpt>
<trkpt lat="47.803922" lon="-121.082143"><ele>1373.7</ele></trkpt>
<trkpt lat="47.803985" lon="-121.082077"><ele>1374.6</ele></trkpt>
<trkpt lat="47.804007" lon="-121.081882"><ele>1376.2</ele></trkpt>
<trkpt lat="47.804105" lon="-121.081942"><ele>1377.2</ele></trkpt>
<trkpt lat="47.804301" lon="-121.081886"><ele>1382.5</ele></trkpt>
<trkpt lat="47.804634" lon="-121.081920"><ele>1383.5</ele></trkpt>
<trkpt lat="47.805004" lon="-121.082028"><ele>1390.2</ele></trkpt>
<trkpt lat="47.805448" lon="-121.082304"><ele>1394.8</ele></trkpt>
<trkpt lat="47.805583" lon="-121.082541"><ele>1392.7</ele></trkpt>
<trkpt lat="47.806274" lon="-121.083338"><ele>1396.7</ele></trkpt>
<trkpt lat="47.806612" lon="-121.083994"><ele>1399.0</ele></trkpt>
<trkpt lat="47.806551" lon="-121.084244"><ele>1397.2</ele></trkpt>
<trkpt lat="47.806593" lon="-121.084659"><ele>1395.8</ele></trkpt>
<trkpt lat="47.806556" lon="-121.085325"><ele>1399.9</ele></trkpt>
<trkpt lat="47.806353" lon="-121.085756"><ele>1402.5</ele></trkpt>
<trkpt lat="47.806194" lon="-121.085967"><ele>1405.4</ele></trkpt>
<trkpt lat="47.806196" lon="-121.086081"><ele>1407.0</ele></trkpt>
<trkpt lat="47.806336" lon="-121.086152"><ele>1410.7</ele></trkpt>
<trkpt lat="47.806572" lon="-121.086073"><ele>1413.8</ele></trkpt>
<trkpt lat="47.806848" lon="-121.086110"><ele>1417.3</ele></trkpt>
<trkpt lat="47.806926" lon="-121.086198"><ele>1420.8</ele></trkpt>
<trkpt lat="47.806407" lon="-121.086401"><ele>1421.8</ele></trkpt>
<trkpt lat="47.806217" lon="-121.086603"><ele>1422.7</ele></trkpt>
<trkpt lat="47.805125" lon="-121.087454"><ele>1427.2</ele></trkpt>
<trkpt lat="47.804819" lon="-121.087507"><ele>1430.5</ele></trkpt>
<trkpt lat="47.804560" lon="-121.087430"><ele>1427.5</ele></trkpt>
<trkpt lat="47.804321" lon="-121.087185"><ele>1428.4</ele></trkpt>
<trkpt lat="47.804179" lon="-121.087113"><ele>1427.9</ele></trkpt>
<trkpt lat="47.803774" lon="-121.087071"><ele>1427.9</ele></trkpt>
<trkpt lat="47.803195" lon="-121.086795"><ele>1429.5</ele></trkpt>
<trkpt lat="47.802946" lon="-121.086338"><ele>1430.0</ele></trkpt>
<trkpt lat="47.802754" lon="-121.086156"><ele>1432.1</ele></trkpt>
<trkpt lat="47.802539" lon="-121.085820"><ele>1433.0</ele></trkpt>
<trkpt lat="47.802183" lon="-121.085721"><ele>1437.2</ele></trkpt>
<trkpt lat="47.802114" lon="-121.085757"><ele>1438.3</ele></trkpt>
<trkpt lat="47.802035" lon="-121.085914"><ele>1440.4</ele></trkpt>
<trkpt lat="47.801732" lon="-121.086076"><ele>1441.4</ele></trkpt>
<trkpt lat="47.801021" lon="-121.086676"><ele>1444.7</ele></trkpt>
<trkpt lat="47.801047" lon="-121.086718"><ele>1441.4</ele></trkpt>
<trkpt lat="47.800897" lon="-121.086807"><ele>1443.6</ele></trkpt>
<trkpt lat="47.800404" lon="-121.087412"><ele>1447.9</ele></trkpt>
<trkpt lat="47.799979" lon="-121.087642"><ele>1450.7</ele></trkpt>
<trkpt lat="47.799859" lon="-121.087862"><ele>1450.9</ele></trkpt>
<trkpt lat="47.799719" lon="-121.088314"><ele>1455.5</ele></trkpt>
<trkpt lat="47.799167" lon="-121.089052"><ele>1462.9</ele></trkpt>
<trkpt lat="47.799050" lon="-121.089304"><ele>1465.0</ele></trkpt>
<trkpt lat="47.798931" lon="-121.089757"><ele>1464.9</ele></trkpt>
<trkpt lat="47.798750" lon="-121.090153"><ele>1468.5</ele></trkpt>
<trkpt lat="47.798451" lon="-121.090568"><ele>1472.0</ele></trkpt>
<trkpt lat="47.798242" lon="-121.090701"><ele>1474.3</ele></trkpt>
<trkpt lat="47.797942" lon="-121.090753"><ele>1475.9</ele></trkpt>
<trkpt lat="47.797806" lon="-121.090896"><ele>1476.9</ele></trkpt>
<trkpt lat="47.797564" lon="-121.090891"><ele>1477.3</ele></trkpt>
<trkpt lat="47.797401" lon="-121.090989"><ele>1478.9</ele></trkpt>
<trkpt lat="47.797255" lon="-121.091113"><ele>1479.5</ele></trkpt>
<trkpt lat="47.796988" lon="-121.091625"><ele>1480.4</ele></trkpt>
<trkpt lat="47.796915" lon="-121.091859"><ele>1480.3</ele></trkpt>
<trkpt lat="47.796908" lon="-121.092173"><ele>1479.7</ele></trkpt>
<trkpt lat="47.796821" lon="-121.092512"><ele>1479.9</ele></trkpt>
<trkpt lat="47.796825" lon="-121.093623"><ele>1484.1</ele></trkpt>
<trkpt lat="47.796891" lon="-121.094235"><ele>1490.7</ele></trkpt>
<trkpt lat="47.796754" lon="-121.094834"><ele>1495.3</ele></trkpt>
<trkpt lat="47.796579" lon="-121.094913"><ele>1498.1</ele></trkpt>
<trkpt lat="47.796321" lon="-121.095281"><ele>1501.3</ele></trkpt>
<trkpt lat="47.796178" lon="-121.095353"><ele>1501.9</ele></trkpt>
<trkpt lat="47.795646" lon="-121.095934"><ele>1507.0</ele></trkpt>
<trkpt lat="47.795308" lon="-121.096148"><ele>1508.9</ele></trkpt>
<trkpt lat="47.795013" lon="-121.096145"><ele>1510.8</ele></trkpt>
<trkpt lat="47.794739" lon="-121.096599"><ele>1515.0</ele></trkpt>
<trkpt lat="47.794365" lon="-121.096982"><ele>1517.7</ele></trkpt>
<trkpt lat="47.794202" lon="-121.097290"><ele>1519.9</ele></trkpt>
<trkpt lat="47.794168" lon="-121.097538"><ele>1522.4</ele></trkpt>
<trkpt lat="47.793989" lon="-121.097442"><ele>1523.6</ele></trkpt>
<trkpt lat="47.793981" lon="-121.097509"><ele>1523.1</ele></trkpt>
<trkpt lat="47.793440" lon="-121.097641"><ele>1532.2</ele></trkpt>
<trkpt lat="47.793247" lon="-121.097833"><ele>1533.6</ele></trkpt>
<trkpt lat="47.793027" lon="-121.097825"><ele>1534.8</ele></trkpt>
<trkpt lat="47.792592" lon="-121.097959"><ele>1543.1</ele></trkpt>
<trkpt lat="47.792252" lon="-121.097879"><ele>1547.0</ele></trkpt>
<trkpt lat="47.792069" lon="-121.098053"><ele>1551.1</ele></trkpt>
<trkpt lat="47.792188" lon="-121.098520"><ele>1555.6</ele></trkpt>
<trkpt lat="47.791892" lon="-121.098561"><ele>1554.2</ele></trkpt>
<trkpt lat="47.791835" lon="-121.098627"><ele>1555.9</ele></trkpt>
<trkpt lat="47.791844" lon="-121.098725"><ele>1556.4</ele></trkpt>
<trkpt lat="47.792148" lon="-121.099772"><ele>1543.6</ele></trkpt>
<trkpt lat="47.792363" lon="-121.100121"><ele>1541.9</ele></trkpt>
<trkpt lat="47.792708" lon="-121.100986"><ele>1535.7</ele></trkpt>
<trkpt lat="47.792985" lon="-121.101508"><ele>1531.4</ele></trkpt>
<trkpt lat="47.793019" lon="-121.101980"><ele>1529.2</ele></trkpt>
<trkpt lat="47.792914" lon="-121.103148"><ele>1518.4</ele></trkpt>
<trkpt lat="47.792955" lon="-121.103464"><ele>1517.3</ele></trkpt>
<trkpt lat="47.793112" lon="-121.104019"><ele>1509.6</ele></trkpt>
<trkpt lat="47.792668" lon="-121.103641"><ele>1503.8</ele></trkpt>
<trkpt lat="47.792564" lon="-121.103684"><ele>1502.5</ele></trkpt>
<trkpt lat="47.792483" lon="-121.103926"><ele>1499.5</ele></trkpt>
<trkpt lat="47.792382" lon="-121.103587"><ele>1498.3</ele></trkpt>
<trkpt lat="47.792386" lon="-121.103358"><ele>1498.1</ele></trkpt>
<trkpt lat="47.792145" lon="-121.102825"><ele>1494.9</ele></trkpt>
<trkpt lat="47.792133" lon="-121.102567"><ele>1493.3</ele></trkpt>
<trkpt lat="47.792035" lon="-121.102425"><ele>1488.9</ele></trkpt>
<trkpt lat="47.791857" lon="-121.102500"><ele>1489.1</ele></trkpt>
<trkpt lat="47.791704" lon="-121.102419"><ele>1488.1</ele></trkpt>
<trkpt lat="47.791789" lon="-121.102567"><ele>1487.7</ele></trkpt>
<trkpt lat="47.791667" lon="-121.102695"><ele>1486.5</ele></trkpt>
<trkpt lat="47.791563" lon="-121.102952"><ele>1483.8</ele></trkpt>
<trkpt lat="47.791466" lon="-121.102979"><ele>1482.3</ele></trkpt>
<trkpt lat="47.791401" lon="-121.102815"><ele>1481.5</ele></trkpt>
<trkpt lat="47.791352" lon="-121.102954"><ele>1480.3</ele></trkpt>
<trkpt lat="47.791217" lon="-121.102950"><ele>1477.4</ele></trkpt>
<trkpt lat="47.791256" lon="-121.102853"><ele>1476.3</ele></trkpt>
<trkpt lat="47.791000" lon="-121.103130"><ele>1476.2</ele></trkpt>
<trkpt lat="47.790818" lon="-121.103127"><ele>1475.6</ele></trkpt>
<trkpt lat="47.790902" lon="-121.103177"><ele>1476.2</ele></trkpt>
<trkpt lat="47.790860" lon="-121.103072"><ele>1476.5</ele></trkpt>
<trkpt lat="47.790905" lon="-121.103129"><ele>1473.0</ele></trkpt>
<trkpt lat="47.790876" lon="-121.102967"><ele>1483.1</ele></trkpt>
<trkpt lat="47.790869" lon="-121.103065"><ele>1476.8</ele></trkpt>
<trkpt lat="47.790891" lon="-121.103004"><ele>1477.2</ele></trkpt>
<trkpt lat="47.790755" lon="-121.103094"><ele>1481.8</ele></trkpt>
<trkpt lat="47.790814" lon="-121.103011"><ele>1476.4</ele></trkpt>
<trkpt lat="47.790835" lon="-121.103150"><ele>1477.5</ele></trkpt>
<trkpt lat="47.790892" lon="-121.103178"><ele>1477.5</ele></trkpt>
<trkpt lat="47.790909" lon="-121.103101"><ele>1474.9</ele></trkpt>
<trkpt lat="47.790904" lon="-121.103144"><ele>1478.1</ele></trkpt>
<trkpt lat="47.790909" lon="-121.103101"><ele>1474.9</ele></trkpt>
<trkpt lat="47.790892" lon="-121.103178"><ele>1477.5</ele></trkpt>
<trkpt lat="47.790835" lon="-121.103150"><ele>1477.5</ele></trkpt>
<trkpt lat="47.790814" lon="-121.103011"><ele>1476.4</ele></trkpt>
<trkpt lat="47.790755" lon="-121.103094"><ele>1481.8</ele></trkpt>
<trkpt lat="47.790891" lon="-121.103004"><ele>1477.2</ele></trkpt>
<trkpt lat="47.790869" lon="-121.103065"><ele>1476.8</ele></trkpt>
<trkpt lat="47.790876" lon="-121.102967"><ele>1483.1</ele></trkpt>
<trkpt lat="47.790905" lon="-121.103129"><ele>1473.0</ele></trkpt>
<trkpt lat="47.790860" lon="-121.103072"><ele>1476.5</ele></trkpt>
<trkpt lat="47.790902" lon="-121.103177"><ele>1476.2</ele></trkpt>
<trkpt lat="47.790818" lon="-121.103127"><ele>1475.6</ele></trkpt>
<trkpt lat="47.791000" lon="-121.103130"><ele>1476.2</ele></trkpt>
<trkpt lat="47.791256" lon="-121.102853"><ele>1476.3</ele></trkpt>
<trkpt lat="47.791217" lon="-121.102950"><ele>1477.4</ele></trkpt>
<trkpt lat="47.791352" lon="-121.102954"><ele>1480.3</ele></trkpt>
<trkpt lat="47.791401" lon="-121.102815"><ele>1481.5</ele></trkpt>
<trkpt lat="47.791466" lon="-121.102979"><ele>1482.3</ele></trkpt>
<trkpt lat="47.791563" lon="-121.102952"><ele>1483.8</ele></trkpt>
<trkpt lat="47.791667" lon="-121.102695"><ele>1486.5</ele></trkpt>
<trkpt lat="47.791789" lon="-121.102567"><ele>1487.7</ele></trkpt>
<trkpt lat="47.791704" lon="-121.102419"><ele>1488.1</ele></trkpt>
<trkpt lat="47.791857" lon="-121.102500"><ele>1489.1</ele></trkpt>
<trkpt lat="47.792035" lon="-121.102425"><ele>1488.9</ele></trkpt>
<trkpt lat="47.792133" lon="-121.102567"><ele>1493.3</ele></trkpt>
<trkpt lat="47.792145" lon="-121.102825"><ele>1494.9</ele></trkpt>
<trkpt lat="47.792386" lon="-121.103358"><ele>1498.1</ele></trkpt>
<trkpt lat="47.792382" lon="-121.103587"><ele>1498.3</ele></trkpt>
<trkpt lat="47.792483" lon="-121.103926"><ele>1499.5</ele></trkpt>
<trkpt lat="47.792564" lon="-121.103684"><ele>1502.5</ele></trkpt>
<trkpt lat="47.792668" lon="-121.103641"><ele>1503.8</ele></trkpt>
<trkpt lat="47.793112" lon="-121.104019"><ele>1509.6</ele></trkpt>
<trkpt lat="47.792955" lon="-121.103464"><ele>1517.3</ele></trkpt>
<trkpt lat="47.792914" lon="-121.103148"><ele>1518.4</ele></trkpt>
<trkpt lat="47.793019" lon="-121.101980"><ele>1529.2</ele></trkpt>
<trkpt lat="47.792985" lon="-121.101508"><ele>1531.4</ele></trkpt>
<trkpt lat="47.792708" lon="-121.100986"><ele>1535.7</ele></trkpt>
<trkpt lat="47.792363" lon="-121.100121"><ele>1541.9</ele></trkpt>
<trkpt lat="47.792148" lon="-121.099772"><ele>1543.6</ele></trkpt>
<trkpt lat="47.791844" lon="-121.098725"><ele>1556.4</ele></trkpt>
<trkpt lat="47.791835" lon="-121.098627"><ele>1555.9</ele></trkpt>
<trkpt lat="47.791892" lon="-121.098561"><ele>1554.2</ele></trkpt>
<trkpt lat="47.792188" lon="-121.098520"><ele>1555.6</ele></trkpt>
<trkpt lat="47.792069" lon="-121.098053"><ele>1551.1</ele></trkpt>
<trkpt lat="47.792252" lon="-121.097879"><ele>1547.0</ele></trkpt>
<trkpt lat="47.792592" lon="-121.097959"><ele>1543.1</ele></trkpt>
<trkpt lat="47.793027" lon="-121.097825"><ele>1534.8</ele></trkpt>
<trkpt lat="47.793247" lon="-121.097833"><ele>1533.6</ele></trkpt>
<trkpt lat="47.793440" lon="-121.097641"><ele>1532.2</ele></trkpt>
<trkpt lat="47.793981" lon="-121.097509"><ele>1523.1</ele></trkpt>
<trkpt lat="47.793989" lon="-121.097442"><ele>1523.6</ele></trkpt>
<trkpt lat="47.794168" lon="-121.097538"><ele>1522.4</ele></trkpt>
<trkpt lat="47.794202" lon="-121.097290"><ele>1519.9</ele></trkpt>
<trkpt lat="47.794365" lon="-121.096982"><ele>1517.7</ele></trkpt>
<trkpt lat="47.794739" lon="-121.096599"><ele>1515.0</ele></trkpt>
<trkpt lat="47.795013" lon="-121.096145"><ele>1510.8</ele></trkpt>
<trkpt lat="47.795308" lon="-121.096148"><ele>1508.9</ele></trkpt>
<trkpt lat="47.795646" lon="-121.095934"><ele>1507.0</ele></trkpt>
<trkpt lat="47.796178" lon="-121.095353"><ele>1501.9</ele></trkpt>
<trkpt lat="47.796321" lon="-121.095281"><ele>1501.3</ele></trkpt>
<trkpt lat="47.796579" lon="-121.094913"><ele>1498.1</ele></trkpt>
<trkpt lat="47.796754" lon="-121.094834"><ele>1495.3</ele></trkpt>
<trkpt lat="47.796891" lon="-121.094235"><ele>1490.7</ele></trkpt>
<trkpt lat="47.796825" lon="-121.093623"><ele>1484.1</ele></trkpt>
<trkpt lat="47.796821" lon="-121.092512"><ele>1479.9</ele></trkpt>
<trkpt lat="47.796908" lon="-121.092173"><ele>1479.7</ele></trkpt>
<trkpt lat="47.796915" lon="-121.091859"><ele>1480.3</ele></trkpt>
<trkpt lat="47.796988" lon="-121.091625"><ele>1480.4</ele></trkpt>
<trkpt lat="47.797255" lon="-121.091113"><ele>1479.5</ele></trkpt>
<trkpt lat="47.797401" lon="-121.090989"><ele>1478.9</ele></trkpt>
<trkpt lat="47.797564" lon="-121.090891"><ele>1477.3</ele></trkpt>
<trkpt lat="47.797806" lon="-121.090896"><ele>1476.9</ele></trkpt>
<trkpt lat="47.797942" lon="-121.090753"><ele>1475.9</ele></trkpt>
<trkpt lat="47.798242" lon="-121.090701"><ele>1474.3</ele></trkpt>
<trkpt lat="47.798451" lon="-121.090568"><ele>1472.0</ele></trkpt>
<trkpt lat="47.798750" lon="-121.090153"><ele>1468.5</ele></trkpt>
<trkpt lat="47.798931" lon="-121.089757"><ele>1464.9</ele></trkpt>
<trkpt lat="47.799050" lon="-121.089304"><ele>1465.0</ele></trkpt>
<trkpt lat="47.799167" lon="-121.089052"><ele>1462.9</ele></trkpt>
<trkpt lat="47.799719" lon="-121.088314"><ele>1455.5</ele></trkpt>
<trkpt lat="47.799859" lon="-121.087862"><ele>1450.9</ele></trkpt>
<trkpt lat="47.799979" lon="-121.087642"><ele>1450.7</ele></trkpt>
<trkpt lat="47.800404" lon="-121.087412"><ele>1447.9</ele></trkpt>
<trkpt lat="47.800897" lon="-121.086807"><ele>1443.6</ele></trkpt>
<trkpt lat="47.801047" lon="-121.086718"><ele>1441.4</ele></trkpt>
<trkpt lat="47.801021" lon="-121.086676"><ele>1444.7</ele></trkpt>
<trkpt lat="47.801732" lon="-121.086076"><ele>1441.4</ele></trkpt>
<trkpt lat="47.802035" lon="-121.085914"><ele>1440.4</ele></trkpt>
<trkpt lat="47.802114" lon="-121.085757"><ele>1438.3</ele></trkpt>
<trkpt lat="47.802183" lon="-121.085721"><ele>1437.2</ele></trkpt>
<trkpt lat="47.802539" lon="-121.085820"><ele>1433.0</ele></trkpt>
<trkpt lat="47.802754" lon="-121.086156"><ele>1432.1</ele></trkpt>
<trkpt lat="47.802946" lon="-121.086338"><ele>1430.0</ele></trkpt>
<trkpt lat="47.803195" lon="-121.086795"><ele>1429.5</ele></trkpt>
<trkpt lat="47.803774" lon="-121.087071"><ele>1427.9</ele></trkpt>
<trkpt lat="47.804179" lon="-121.087113"><ele>1427.9</ele></trkpt>
<trkpt lat="47.804321" lon="-121.087185"><ele>1428.4</ele></trkpt>
<trkpt lat="47.804560" lon="-121.087430"><ele>1427.5</ele></trkpt>
<trkpt lat="47.804819" lon="-121.087507"><ele>1430.5</ele></trkpt>
<trkpt lat="47.805125" lon="-121.087454"><ele>1427.2</ele></trkpt>
<trkpt lat="47.806217" lon="-121.086603"><ele>1422.7</ele></trkpt>
<trkpt lat="47.806407" lon="-121.086401"><ele>1421.8</ele></trkpt>
<trkpt lat="47.806926" lon="-121.086198"><ele>1420.8</ele></trkpt>
<trkpt lat="47.806848" lon="-121.086110"><ele>1417.3</ele></trkpt>
<trkpt lat="47.806572" lon="-121.086073"><ele>1413.8</ele></trkpt>
<trkpt lat="47.806336" lon="-121.086152"><ele>1410.7</ele></trkpt>
<trkpt lat="47.806196" lon="-121.086081"><ele>1407.0</ele></trkpt>
<trkpt lat="47.806194" lon="-121.085967"><ele>1405.4</ele></trkpt>
<trkpt lat="47.806353" lon="-121.085756"><ele>1402.5</ele></trkpt>
<trkpt lat="47.806556" lon="-121.085325"><ele>1399.9</ele></trkpt>
<trkpt lat="47.806593" lon="-121.084659"><ele>1395.8</ele></trkpt>
<trkpt lat="47.806551" lon="-121.084244"><ele>1397.2</ele></trkpt>
<trkpt lat="47.806612" lon="-121.083994"><ele>1399.0</ele></trkpt>
<trkpt lat="47.806274" lon="-121.083338"><ele>1396.7</ele></trkpt>
<trkpt lat="47.805583" lon="-121.082541"><ele>1392.7</ele></trkpt>
<trkpt lat="47.805448" lon="-121.082304"><ele>1394.8</ele></trkpt>
<trkpt lat="47.805004" lon="-121.082028"><ele>1390.2</ele></trkpt>
<trkpt lat="47.804634" lon="-121.081920"><ele>1383.5</ele></trkpt>
<trkpt lat="47.804301" lon="-121.081886"><ele>1382.5</ele></trkpt>
<trkpt lat="47.804105" lon="-121.081942"><ele>1377.2</ele></trkpt>
<trkpt lat="47.804007" lon="-121.081882"><ele>1376.2</ele></trkpt>
<trkpt lat="47.803985" lon="-121.082077"><ele>1374.6</ele></trkpt>
<trkpt lat="47.803922" lon="-121.082143"><ele>1373.7</ele></trkpt>
<trkpt lat="47.803762" lon="-121.081838"><ele>1372.1</ele></trkpt>
<trkpt lat="47.803593" lon="-121.082221"><ele>1369.6</ele></trkpt>
<trkpt lat="47.803425" lon="-121.082319"><ele>1363.7</ele></trkpt>
<trkpt lat="47.803357" lon="-121.082234"><ele>1361.3</ele></trkpt>
<trkpt lat="47.803641" lon="-121.080750"><ele>1352.3</ele></trkpt>
<trkpt lat="47.803681" lon="-121.080194"><ele>1340.6</ele></trkpt>
<trkpt lat="47.803710" lon="-121.080241"><ele>1343.6</ele></trkpt>
<trkpt lat="47.803376" lon="-121.080793"><ele>1337.1</ele></trkpt>
<trkpt lat="47.803134" lon="-121.080978"><ele>1331.1</ele></trkpt>
<trkpt lat="47.803557" lon="-121.079690"><ele>1320.9</ele></trkpt>
<trkpt lat="47.803576" lon="-121.079752"><ele>1320.2</ele></trkpt>
<trkpt lat="47.803462" lon="-121.079810"><ele>1319.0</ele></trkpt>
<trkpt lat="47.803037" lon="-121.080391"><ele>1313.3</ele></trkpt>
<trkpt lat="47.802809" lon="-121.080555"><ele>1308.0</ele></trkpt>
<trkpt lat="47.803072" lon="-121.079428"><ele>1295.4</ele></trkpt>
<trkpt lat="47.803158" lon="-121.079343"><ele>1297.0</ele></trkpt>
<trkpt lat="47.802835" lon="-121.079692"><ele>1292.6</ele></trkpt>
<trkpt lat="47.802511" lon="-121.080162"><ele>1281.6</ele></trkpt>
<trkpt lat="47.802677" lon="-121.079333"><ele>1274.4</ele></trkpt>
<trkpt lat="47.802200" lon="-121.079907"><ele>1262.8</ele></trkpt>
<trkpt lat="47.802175" lon="-121.079872"><ele>1261.7</ele></trkpt>
<trkpt lat="47.802232" lon="-121.079764"><ele>1261.1</ele></trkpt>
<trkpt lat="47.802097" lon="-121.079912"><ele>1258.8</ele></trkpt>
<trkpt lat="47.801998" lon="-121.079905"><ele>1254.4</ele></trkpt>
<trkpt lat="47.802094" lon="-121.079708"><ele>1250.7</ele></trkpt>
<trkpt lat="47.801856" lon="-121.079878"><ele>1246.4</ele></trkpt>
<trkpt lat="47.801745" lon="-121.079886"><ele>1242.9</ele></trkpt>
<trkpt lat="47.801737" lon="-121.079778"><ele>1240.8</ele></trkpt>
<trkpt lat="47.801829" lon="-121.079642"><ele>1240.3</ele></trkpt>
<trkpt lat="47.801599" lon="-121.079662"><ele>1237.0</ele></trkpt>
<trkpt lat="47.801707" lon="-121.079502"><ele>1231.9</ele></trkpt>
<trkpt lat="47.801675" lon="-121.079457"><ele>1230.4</ele></trkpt>
<trkpt lat="47.801491" lon="-121.079568"><ele>1226.4</ele></trkpt>
<trkpt lat="47.801526" lon="-121.079210"><ele>1222.4</ele></trkpt>
<trkpt lat="47.801592" lon="-121.079015"><ele>1220.5</ele></trkpt>
<trkpt lat="47.801521" lon="-121.078863"><ele>1220.3</ele></trkpt>
<trkpt lat="47.801544" lon="-121.078641"><ele>1218.3</ele></trkpt>
<trkpt lat="47.801586" lon="-121.078561"><ele>1217.5</ele></trkpt>
<trkpt lat="47.801660" lon="-121.078552"><ele>1217.2</ele></trkpt>
<trkpt lat="47.801752" lon="-121.078296"><ele>1218.9</ele></trkpt>
<trkpt lat="47.801988" lon="-121.077942"><ele>1215.7</ele></trkpt>
<trkpt lat="47.802097" lon="-121.077982"><ele>1214.9</ele></trkpt>
<trkpt lat="47.802208" lon="-121.077681"><ele>1214.3</ele></trkpt>
<trkpt lat="47.802157" lon="-121.077549"><ele>1214.4</ele></trkpt>
<trkpt lat="47.802240" lon="-121.077344"><ele>1212.0</ele></trkpt>
</trkseg></trk>
</gpx>
