<?xml version="1.0" encoding="UTF-8"?>
<gpx version="1.1" creator="The Lost Trailhead" xmlns="http://www.topografix.com/GPX/1/1" xmlns:xsi="http://www.w3.org/2001/XMLSchema-instance" xsi:schemaLocation="http://www.topografix.com/GPX/1/1 http://www.topografix.com/GPX/1/1/gpx.xsd">
<metadata><name>Manastash Ridge</name><desc>The Lost Trailhead, thelosttrailhead.com/hikes/manastash. Conditions change. Use at your own risk.</desc><link href="https://thelosttrailhead.com/hikes/manastash"><text>Manastash Ridge on The Lost Trailhead</text></link></metadata>
<trk><name>Manastash Ridge</name><link href="https://thelosttrailhead.com/hikes/manastash"><text>Manastash Ridge on The Lost Trailhead</text></link><trkseg>
<trkpt lat="46.965507" lon="-120.645898"><ele>597.3</ele></trkpt>
<trkpt lat="46.965346" lon="-120.646183"><ele>598.8</ele></trkpt>
<trkpt lat="46.965046" lon="-120.646432"><ele>602.1</ele></trkpt>
<trkpt lat="46.964735" lon="-120.646653"><ele>606.5</ele></trkpt>
<trkpt lat="46.963980" lon="-120.647025"><ele>616.4</ele></trkpt>
<trkpt lat="46.963472" lon="-120.647594"><ele>622.9</ele></trkpt>
<trkpt lat="46.963226" lon="-120.647949"><ele>626.4</ele></trkpt>
<trkpt lat="46.962615" lon="-120.648271"><ele>635.9</ele></trkpt>
<trkpt lat="46.962349" lon="-120.648288"><ele>638.9</ele></trkpt>
<trkpt lat="46.962297" lon="-120.648152"><ele>640.0</ele></trkpt>
<trkpt lat="46.962327" lon="-120.648047"><ele>640.2</ele></trkpt>
<trkpt lat="46.962542" lon="-120.647812"><ele>640.5</ele></trkpt>
<trkpt lat="46.962784" lon="-120.647712"><ele>642.0</ele></trkpt>
<trkpt lat="46.962928" lon="-120.647567"><ele>642.7</ele></trkpt>
<trkpt lat="46.963127" lon="-120.647189"><ele>646.6</ele></trkpt>
<trkpt lat="46.963374" lon="-120.646545"><ele>653.3</ele></trkpt>
<trkpt lat="46.963615" lon="-120.646129"><ele>656.2</ele></trkpt>
<trkpt lat="46.963939" lon="-120.645720"><ele>660.6</ele></trkpt>
<trkpt lat="46.964003" lon="-120.645537"><ele>662.5</ele></trkpt>
<trkpt lat="46.963937" lon="-120.645485"><ele>663.7</ele></trkpt>
<trkpt lat="46.963704" lon="-120.645658"><ele>665.9</ele></trkpt>
<trkpt lat="46.963690" lon="-120.645596"><ele>666.2</ele></trkpt>
<trkpt lat="46.963788" lon="-120.645420"><ele>666.1</ele></trkpt>
<trkpt lat="46.963746" lon="-120.645361"><ele>666.6</ele></trkpt>
<trkpt lat="46.963450" lon="-120.645678"><ele>671.7</ele></trkpt>
<trkpt lat="46.963492" lon="-120.645482"><ele>675.0</ele></trkpt>
<trkpt lat="46.963451" lon="-120.645410"><ele>676.3</ele></trkpt>
<trkpt lat="46.963238" lon="-120.645596"><ele>679.4</ele></trkpt>
<trkpt lat="46.963219" lon="-120.645013"><ele>681.3</ele></trkpt>
<trkpt lat="46.963288" lon="-120.643867"><ele>678.9</ele></trkpt>
<trkpt lat="46.963346" lon="-120.643505"><ele>677.9</ele></trkpt>
<trkpt lat="46.963299" lon="-120.642870"><ele>674.6</ele></trkpt>
<trkpt lat="46.963185" lon="-120.642708"><ele>675.5</ele></trkpt>
<trkpt lat="46.962640" lon="-120.642357"><ele>679.9</ele></trkpt>
<trkpt lat="46.962268" lon="-120.642390"><ele>681.3</ele></trkpt>
<trkpt lat="46.961582" lon="-120.642642"><ele>690.7</ele></trkpt>
<trkpt lat="46.961081" lon="-120.643070"><ele>697.4</ele></trkpt>
<trkpt lat="46.960648" lon="-120.643570"><ele>700.7</ele></trkpt>
<trkpt lat="46.960507" lon="-120.643487"><ele>701.0</ele></trkpt>
<trkpt lat="46.960326" lon="-120.643475"><ele>701.3</ele></trkpt>
<trkpt lat="46.960253" lon="-120.643324"><ele>701.7</ele></trkpt>
<trkpt lat="46.960352" lon="-120.642746"><ele>704.1</ele></trkpt>
<trkpt lat="46.960187" lon="-120.641380"><ele>709.8</ele></trkpt>
<trkpt lat="46.959984" lon="-120.640851"><ele>713.1</ele></trkpt>
<trkpt lat="46.959514" lon="-120.640362"><ele>716.8</ele></trkpt>
<trkpt lat="46.959398" lon="-120.640436"><ele>718.0</ele></trkpt>
<trkpt lat="46.959330" lon="-120.641173"><ele>722.4</ele></trkpt>
<trkpt lat="46.959309" lon="-120.641755"><ele>725.5</ele></trkpt>
<trkpt lat="46.959381" lon="-120.642373"><ele>725.8</ele></trkpt>
<trkpt lat="46.959310" lon="-120.642628"><ele>728.8</ele></trkpt>
<trkpt lat="46.959202" lon="-120.642507"><ele>730.4</ele></trkpt>
<trkpt lat="46.959070" lon="-120.642139"><ele>734.1</ele></trkpt>
<trkpt lat="46.958841" lon="-120.641712"><ele>737.7</ele></trkpt>
<trkpt lat="46.958528" lon="-120.641411"><ele>740.2</ele></trkpt>
<trkpt lat="46.958378" lon="-120.641511"><ele>740.8</ele></trkpt>
<trkpt lat="46.958347" lon="-120.642352"><ele>745.6</ele></trkpt>
<trkpt lat="46.958320" lon="-120.642396"><ele>746.2</ele></trkpt>
<trkpt lat="46.958263" lon="-120.642365"><ele>746.9</ele></trkpt>
<trkpt lat="46.958209" lon="-120.642292"><ele>747.3</ele></trkpt>
<trkpt lat="46.958121" lon="-120.641884"><ele>747.8</ele></trkpt>
<trkpt lat="46.958038" lon="-120.641762"><ele>748.9</ele></trkpt>
<trkpt lat="46.957713" lon="-120.641551"><ele>749.2</ele></trkpt>
<trkpt lat="46.957357" lon="-120.641457"><ele>750.5</ele></trkpt>
<trkpt lat="46.957331" lon="-120.641327"><ele>750.5</ele></trkpt>
<trkpt lat="46.957386" lon="-120.640797"><ele>749.7</ele></trkpt>
<trkpt lat="46.957182" lon="-120.640633"><ele>752.6</ele></trkpt>
<trkpt lat="46.957127" lon="-120.640685"><ele>753.7</ele></trkpt>
<trkpt lat="46.957149" lon="-120.640840"><ele>754.5</ele></trkpt>
<trkpt lat="46.957112" lon="-120.640920"><ele>754.9</ele></trkpt>
<trkpt lat="46.956946" lon="-120.640746"><ele>757.6</ele></trkpt>
<trkpt lat="46.956862" lon="-120.640800"><ele>759.5</ele></trkpt>
<trkpt lat="46.956935" lon="-120.641371"><ele>763.1</ele></trkpt>
<trkpt lat="46.956690" lon="-120.641802"><ele>766.3</ele></trkpt>
<trkpt lat="46.956914" lon="-120.642171"><ele>766.9</ele></trkpt>
<trkpt lat="46.957211" lon="-120.642271"><ele>767.6</ele></trkpt>
<trkpt lat="46.957282" lon="-120.642351"><ele>768.2</ele></trkpt>
<trkpt lat="46.957256" lon="-120.643214"><ele>771.0</ele></trkpt>
<trkpt lat="46.957193" lon="-120.643469"><ele>771.5</ele></trkpt>
<trkpt lat="46.957112" lon="-120.643498"><ele>773.1</ele></trkpt>
<trkpt lat="46.957082" lon="-120.643003"><ele>777.1</ele></trkpt>
<trkpt lat="46.956977" lon="-120.642675"><ele>778.6</ele></trkpt>
<trkpt lat="46.956908" lon="-120.642619"><ele>779.4</ele></trkpt>
<trkpt lat="46.956856" lon="-120.642719"><ele>781.0</ele></trkpt>
<trkpt lat="46.956825" lon="-120.643147"><ele>783.5</ele></trkpt>
<trkpt lat="46.956706" lon="-120.643349"><ele>785.8</ele></trkpt>
<trkpt lat="46.956471" lon="-120.643537"><ele>790.8</ele></trkpt>
<trkpt lat="46.956462" lon="-120.643140"><ele>791.1</ele></trkpt>
<trkpt lat="46.956371" lon="-120.642972"><ele>793.7</ele></trkpt>
<trkpt lat="46.956311" lon="-120.643061"><ele>795.1</ele></trkpt>
<trkpt lat="46.956240" lon="-120.643400"><ele>797.6</ele></trkpt>
<trkpt lat="46.956176" lon="-120.643428"><ele>799.5</ele></trkpt>
<trkpt lat="46.955971" lon="-120.642770"><ele>803.4</ele></trkpt>
<trkpt lat="46.955511" lon="-120.642004"><ele>806.8</ele></trkpt>
<trkpt lat="46.955448" lon="-120.642031"><ele>807.2</ele></trkpt>
<trkpt lat="46.955414" lon="-120.642127"><ele>809.4</ele></trkpt>
<trkpt lat="46.955498" lon="-120.642400"><ele>809.9</ele></trkpt>
<trkpt lat="46.955522" lon="-120.642689"><ele>810.6</ele></trkpt>
<trkpt lat="46.955649" lon="-120.642924"><ele>812.2</ele></trkpt>
<trkpt lat="46.955703" lon="-120.643158"><ele>812.9</ele></trkpt>
<trkpt lat="46.955660" lon="-120.643246"><ele>813.7</ele></trkpt>
<trkpt lat="46.955585" lon="-120.643251"><ele>815.6</ele></trkpt>
<trkpt lat="46.955419" lon="-120.642948"><ele>816.8</ele></trkpt>
<trkpt lat="46.955219" lon="-120.642782"><ele>819.1</ele></trkpt>
<trkpt lat="46.955090" lon="-120.642268"><ele>819.6</ele></trkpt>
<trkpt lat="46.954826" lon="-120.642030"><ele>823.0</ele></trkpt>
<trkpt lat="46.954441" lon="-120.641316"><ele>826.8</ele></trkpt>
<trkpt lat="46.954200" lon="-120.641045"><ele>828.3</ele></trkpt>
<trkpt lat="46.954083" lon="-120.640698"><ele>828.7</ele></trkpt>
<trkpt lat="46.953810" lon="-120.640208"><ele>830.5</ele></trkpt>
<trkpt lat="46.953882" lon="-120.640032"><ele>829.0</ele></trkpt>
<trkpt lat="46.954669" lon="-120.639128"><ele>828.8</ele></trkpt>
<trkpt lat="46.954856" lon="-120.638589"><ele>826.2</ele></trkpt>
<trkpt lat="46.954988" lon="-120.638418"><ele>823.3</ele></trkpt>
<trkpt lat="46.955021" lon="-120.638234"><ele>822.1</ele></trkpt>
<trkpt lat="46.954893" lon="-120.637782"><ele>822.5</ele></trkpt>
<trkpt lat="46.954921" lon="-120.637538"><ele>825.1</ele></trkpt>
<trkpt lat="46.954831" lon="-120.636793"><ele>831.1</ele></trkpt>
<trkpt lat="46.954524" lon="-120.635841"><ele>839.1</ele></trkpt>
<trkpt lat="46.953927" lon="-120.634442"><ele>844.3</ele></trkpt>
<trkpt lat="46.954021" lon="-120.634677"><ele>843.7</ele></trkpt>
<trkpt lat="46.953884" lon="-120.634673"><ele>844.3</ele></trkpt>
<trkpt lat="46.953784" lon="-120.634763"><ele>846.1</ele></trkpt>
<trkpt lat="46.953719" lon="-120.635301"><ele>850.5</ele></trkpt>
<trkpt lat="46.954043" lon="-120.635866"><ele>852.2</ele></trkpt>
<trkpt lat="46.954109" lon="-120.636162"><ele>853.4</ele></trkpt>
<trkpt lat="46.954036" lon="-120.636264"><ele>854.9</ele></trkpt>
<trkpt lat="46.953861" lon="-120.636355"><ele>857.8</ele></trkpt>
<trkpt lat="46.953873" lon="-120.636687"><ele>859.6</ele></trkpt>
<trkpt lat="46.953829" lon="-120.636806"><ele>860.1</ele></trkpt>
<trkpt lat="46.953538" lon="-120.636887"><ele>864.3</ele></trkpt>
<trkpt lat="46.953400" lon="-120.637049"><ele>866.6</ele></trkpt>
<trkpt lat="46.953319" lon="-120.637317"><ele>869.1</ele></trkpt>
<trkpt lat="46.953397" lon="-120.637710"><ele>870.4</ele></trkpt>
<trkpt lat="46.953379" lon="-120.637823"><ele>870.9</ele></trkpt>
<trkpt lat="46.953326" lon="-120.637883"><ele>871.7</ele></trkpt>
<trkpt lat="46.953170" lon="-120.637789"><ele>875.0</ele></trkpt>
<trkpt lat="46.953114" lon="-120.637859"><ele>875.8</ele></trkpt>
<trkpt lat="46.953081" lon="-120.638039"><ele>876.3</ele></trkpt>
<trkpt lat="46.952905" lon="-120.638044"><ele>880.9</ele></trkpt>
<trkpt lat="46.952874" lon="-120.638219"><ele>881.6</ele></trkpt>
<trkpt lat="46.952722" lon="-120.638368"><ele>884.4</ele></trkpt>
<trkpt lat="46.952680" lon="-120.638673"><ele>886.1</ele></trkpt>
<trkpt lat="46.952631" lon="-120.638607"><ele>887.1</ele></trkpt>
<trkpt lat="46.952609" lon="-120.638230"><ele>886.5</ele></trkpt>
<trkpt lat="46.952544" lon="-120.638213"><ele>887.7</ele></trkpt>
<trkpt lat="46.952514" lon="-120.638329"><ele>888.4</ele></trkpt>
<trkpt lat="46.952560" lon="-120.638892"><ele>889.8</ele></trkpt>
<trkpt lat="46.952528" lon="-120.638957"><ele>890.5</ele></trkpt>
<trkpt lat="46.952473" lon="-120.638870"><ele>891.4</ele></trkpt>
<trkpt lat="46.952472" lon="-120.638573"><ele>891.1</ele></trkpt>
<trkpt lat="46.952246" lon="-120.638481"><ele>893.8</ele></trkpt>
<trkpt lat="46.952390" lon="-120.638957"><ele>895.4</ele></trkpt>
<trkpt lat="46.952383" lon="-120.639175"><ele>895.4</ele></trkpt>
<trkpt lat="46.952286" lon="-120.639505"><ele>897.6</ele></trkpt>
<trkpt lat="46.952261" lon="-120.639444"><ele>897.7</ele></trkpt>
<trkpt lat="46.952300" lon="-120.639196"><ele>897.8</ele></trkpt>
<trkpt lat="46.952261" lon="-120.639013"><ele>899.2</ele></trkpt>
<trkpt lat="46.952152" lon="-120.638682"><ele>897.3</ele></trkpt>
<trkpt lat="46.952101" lon="-120.638669"><ele>897.7</ele></trkpt>
<trkpt lat="46.952201" lon="-120.639144"><ele>901.0</ele></trkpt>
<trkpt lat="46.952164" lon="-120.639178"><ele>900.9</ele></trkpt>
<trkpt lat="46.951930" lon="-120.638343"><ele>900.8</ele></trkpt>
<trkpt lat="46.951882" lon="-120.638346"><ele>901.0</ele></trkpt>
<trkpt lat="46.951850" lon="-120.638443"><ele>901.5</ele></trkpt>
<trkpt lat="46.951905" lon="-120.638715"><ele>901.8</ele></trkpt>
<trkpt lat="46.952075" lon="-120.639095"><ele>902.6</ele></trkpt>
<trkpt lat="46.952124" lon="-120.639505"><ele>904.2</ele></trkpt>
<trkpt lat="46.952076" lon="-120.639471"><ele>905.2</ele></trkpt>
<trkpt lat="46.952009" lon="-120.639117"><ele>904.8</ele></trkpt>
<trkpt lat="46.951885" lon="-120.638952"><ele>905.4</ele></trkpt>
<trkpt lat="46.951833" lon="-120.638945"><ele>905.9</ele></trkpt>
<trkpt lat="46.951805" lon="-120.639019"><ele>906.2</ele></trkpt>
<trkpt lat="46.951917" lon="-120.639192"><ele>906.5</ele></trkpt>
<trkpt lat="46.951919" lon="-120.639351"><ele>908.4</ele></trkpt>
<trkpt lat="46.951699" lon="-120.639056"><ele>909.7</ele></trkpt>
<trkpt lat="46.951622" lon="-120.639121"><ele>911.4</ele></trkpt>
<trkpt lat="46.951638" lon="-120.639312"><ele>912.7</ele></trkpt>
<trkpt lat="46.951729" lon="-120.639461"><ele>912.8</ele></trkpt>
<trkpt lat="46.951759" lon="-120.639670"><ele>914.6</ele></trkpt>
<trkpt lat="46.951905" lon="-120.639943"><ele>915.3</ele></trkpt>
<trkpt lat="46.951922" lon="-120.640559"><ele>917.6</ele></trkpt>
<trkpt lat="46.952164" lon="-120.640941"><ele>918.2</ele></trkpt>
<trkpt lat="46.952127" lon="-120.641523"><ele>922.2</ele></trkpt>
<trkpt lat="46.952185" lon="-120.641709"><ele>922.4</ele></trkpt>
<trkpt lat="46.952115" lon="-120.641818"><ele>922.2</ele></trkpt>
<trkpt lat="46.952093" lon="-120.641979"><ele>922.8</ele></trkpt>
<trkpt lat="46.952116" lon="-120.642172"><ele>924.2</ele></trkpt>
<trkpt lat="46.952228" lon="-120.642367"><ele>925.4</ele></trkpt>
<trkpt lat="46.952196" lon="-120.642581"><ele>927.2</ele></trkpt>
<trkpt lat="46.952320" lon="-120.642753"><ele>927.1</ele></trkpt>
<trkpt lat="46.952311" lon="-120.643014"><ele>927.5</ele></trkpt>
<trkpt lat="46.952235" lon="-120.643269"><ele>926.7</ele></trkpt>
<trkpt lat="46.952092" lon="-120.643317"><ele>927.6</ele></trkpt>
<trkpt lat="46.951982" lon="-120.642914"><ele>929.3</ele></trkpt>
<trkpt lat="46.951809" lon="-120.642846"><ele>930.4</ele></trkpt>
<trkpt lat="46.951721" lon="-120.642603"><ele>930.6</ele></trkpt>
<trkpt lat="46.951434" lon="-120.642262"><ele>933.1</ele></trkpt>
<trkpt lat="46.951307" lon="-120.642325"><ele>934.3</ele></trkpt>
<trkpt lat="46.951189" lon="-120.642224"><ele>934.8</ele></trkpt>
<trkpt lat="46.951024" lon="-120.642217"><ele>936.7</ele></trkpt>
<trkpt lat="46.950982" lon="-120.642373"><ele>937.0</ele></trkpt>
<trkpt lat="46.950894" lon="-120.642418"><ele>940.0</ele></trkpt>
<trkpt lat="46.950799" lon="-120.642229"><ele>939.3</ele></trkpt>
<trkpt lat="46.950809" lon="-120.641988"><ele>937.9</ele></trkpt>
<trkpt lat="46.950744" lon="-120.641852"><ele>937.5</ele></trkpt>
<trkpt lat="46.950447" lon="-120.641620"><ele>937.0</ele></trkpt>
<trkpt lat="46.950291" lon="-120.641585"><ele>936.5</ele></trkpt>
<trkpt lat="46.950023" lon="-120.641782"><ele>940.1</ele></trkpt>
<trkpt lat="46.949642" lon="-120.641793"><ele>941.9</ele></trkpt>
<trkpt lat="46.949544" lon="-120.641896"><ele>942.8</ele></trkpt>
<trkpt lat="46.949501" lon="-120.642179"><ele>944.5</ele></trkpt>
<trkpt lat="46.949569" lon="-120.642717"><ele>948.0</ele></trkpt>
<trkpt lat="46.949688" lon="-120.642991"><ele>950.5</ele></trkpt>
<trkpt lat="46.949845" lon="-120.643147"><ele>949.7</ele></trkpt>
<trkpt lat="46.949942" lon="-120.643472"><ele>951.8</ele></trkpt>
<trkpt lat="46.950308" lon="-120.643593"><ele>954.9</ele></trkpt>
<trkpt lat="46.950340" lon="-120.643878"><ele>956.5</ele></trkpt>
<trkpt lat="46.950517" lon="-120.644204"><ele>956.9</ele></trkpt>
<trkpt lat="46.950546" lon="-120.644618"><ele>958.0</ele></trkpt>
<trkpt lat="46.950726" lon="-120.644377"><ele>954.3</ele></trkpt>
<trkpt lat="46.950768" lon="-120.644417"><ele>953.6</ele></trkpt>
<trkpt lat="46.950755" lon="-120.644713"><ele>953.7</ele></trkpt>
<trkpt lat="46.950826" lon="-120.645186"><ele>952.6</ele></trkpt>
<trkpt lat="46.950752" lon="-120.645754"><ele>952.4</ele></trkpt>
<trkpt lat="46.950510" lon="-120.646334"><ele>948.2</ele></trkpt>
<trkpt lat="46.950560" lon="-120.646776"><ele>944.5</ele></trkpt>
<trkpt lat="46.950191" lon="-120.647480"><ele>940.1</ele></trkpt>
<trkpt lat="46.950058" lon="-120.648196"><ele>937.9</ele></trkpt>
<trkpt lat="46.949662" lon="-120.649363"><ele>938.2</ele></trkpt>
<trkpt lat="46.949441" lon="-120.649779"><ele>941.9</ele></trkpt>
<trkpt lat="46.949337" lon="-120.650198"><ele>946.0</ele></trkpt>
<trkpt lat="46.949118" lon="-120.651635"><ele>954.2</ele></trkpt>
<trkpt lat="46.949092" lon="-120.652104"><ele>958.4</ele></trkpt>
<trkpt lat="46.948938" lon="-120.652344"><ele>959.6</ele></trkpt>
<trkpt lat="46.949011" lon="-120.652712"><ele>962.0</ele></trkpt>
<trkpt lat="46.949129" lon="-120.653000"><ele>964.8</ele></trkpt>
<trkpt lat="46.949093" lon="-120.653288"><ele>967.2</ele></trkpt>
<trkpt lat="46.949199" lon="-120.653581"><ele>969.3</ele></trkpt>
<trkpt lat="46.949212" lon="-120.653907"><ele>973.8</ele></trkpt>
<trkpt lat="46.949119" lon="-120.653948"><ele>975.5</ele></trkpt>
<trkpt lat="46.948935" lon="-120.654356"><ele>976.9</ele></trkpt>
<trkpt lat="46.948936" lon="-120.654676"><ele>977.0</ele></trkpt>
<trkpt lat="46.948433" lon="-120.654718"><ele>974.6</ele></trkpt>
<trkpt lat="46.948471" lon="-120.654845"><ele>975.0</ele></trkpt>
<trkpt lat="46.948264" lon="-120.654990"><ele>975.1</ele></trkpt>
<trkpt lat="46.948302" lon="-120.655077"><ele>975.2</ele></trkpt>
<trkpt lat="46.948410" lon="-120.655107"><ele>974.6</ele></trkpt>
<trkpt lat="46.948413" lon="-120.655310"><ele>973.1</ele></trkpt>
<trkpt lat="46.948537" lon="-120.655417"><ele>971.8</ele></trkpt>
<trkpt lat="46.948521" lon="-120.655638"><ele>969.6</ele></trkpt>
<trkpt lat="46.948954" lon="-120.655640"><ele>965.2</ele></trkpt>
<trkpt lat="46.950030" lon="-120.655301"><ele>945.4</ele></trkpt>
<trkpt lat="46.950299" lon="-120.655091"><ele>938.3</ele></trkpt>
<trkpt lat="46.950790" lon="-120.654892"><ele>922.1</ele></trkpt>
<trkpt lat="46.951827" lon="-120.654310"><ele>886.9</ele></trkpt>
<trkpt lat="46.952145" lon="-120.654091"><ele>880.3</ele></trkpt>
<trkpt lat="46.952354" lon="-120.653865"><ele>871.0</ele></trkpt>
<trkpt lat="46.952828" lon="-120.653706"><ele>862.9</ele></trkpt>
<trkpt lat="46.953247" lon="-120.653475"><ele>853.8</ele></trkpt>
<trkpt lat="46.953496" lon="-120.653179"><ele>848.3</ele></trkpt>
<trkpt lat="46.954019" lon="-120.652800"><ele>839.3</ele></trkpt>
<trkpt lat="46.954253" lon="-120.652688"><ele>835.3</ele></trkpt>
<trkpt lat="46.954509" lon="-120.652697"><ele>833.8</ele></trkpt>
<trkpt lat="46.954645" lon="-120.652544"><ele>832.4</ele></trkpt>
<trkpt lat="46.954886" lon="-120.652474"><ele>830.4</ele></trkpt>
<trkpt lat="46.955152" lon="-120.652143"><ele>826.2</ele></trkpt>
<trkpt lat="46.955355" lon="-120.652026"><ele>822.3</ele></trkpt>
<trkpt lat="46.955810" lon="-120.651563"><ele>813.0</ele></trkpt>
<trkpt lat="46.956143" lon="-120.650976"><ele>803.4</ele></trkpt>
<trkpt lat="46.956291" lon="-120.650496"><ele>795.5</ele></trkpt>
<trkpt lat="46.956519" lon="-120.650163"><ele>785.1</ele></trkpt>
<trkpt lat="46.956919" lon="-120.649868"><ele>769.7</ele></trkpt>
<trkpt lat="46.957304" lon="-120.649712"><ele>760.0</ele></trkpt>
<trkpt lat="46.957948" lon="-120.649243"><ele>747.5</ele></trkpt>
<trkpt lat="46.958457" lon="-120.649095"><ele>742.4</ele></trkpt>
<trkpt lat="46.958895" lon="-120.648792"><ele>735.7</ele></trkpt>
<trkpt lat="46.959147" lon="-120.648722"><ele>729.9</ele></trkpt>
<trkpt lat="46.959301" lon="-120.648599"><ele>724.7</ele></trkpt>
<trkpt lat="46.959509" lon="-120.648616"><ele>718.3</ele></trkpt>
<trkpt lat="46.959705" lon="-120.648460"><ele>712.7</ele></trkpt>
<trkpt lat="46.960054" lon="-120.648442"><ele>701.8</ele></trkpt>
<trkpt lat="46.960375" lon="-120.648507"><ele>692.6</ele></trkpt>
<trkpt lat="46.961912" lon="-120.648483"><ele>655.6</ele></trkpt>
<trkpt lat="46.962156" lon="-120.648339"><ele>646.9</ele></trkpt>
<trkpt lat="46.962733" lon="-120.648245"><ele>636.6</ele></trkpt>
<trkpt lat="46.963324" lon="-120.647884"><ele>628.9</ele></trkpt>
<trkpt lat="46.963612" lon="-120.647445"><ele>624.2</ele></trkpt>
<trkpt lat="46.964017" lon="-120.647031"><ele>618.1</ele></trkpt>
<trkpt lat="46.964743" lon="-120.646662"><ele>608.9</ele></trkpt>
<trkpt lat="46.965136" lon="-120.646389"><ele>603.7</ele></trkpt>
<trkpt lat="46.965326" lon="-120.646208"><ele>601.5</ele></trkpt>
<trkpt lat="46.965513" lon="-120.645893"><ele>596.9</ele></trkpt>
</trkseg></trk>
</gpx>
