<?xml version="1.0" encoding="UTF-8"?>
<gpx version="1.1" creator="The Lost Trailhead" xmlns="http://www.topografix.com/GPX/1/1" xmlns:xsi="http://www.w3.org/2001/XMLSchema-instance" xsi:schemaLocation="http://www.topografix.com/GPX/1/1 http://www.topografix.com/GPX/1/1/gpx.xsd">
<metadata><name>Lake Serene</name><desc>The Lost Trailhead, thelosttrailhead.com/hikes/lake-serene. Conditions change. Use at your own risk.</desc><link href="https://thelosttrailhead.com/hikes/lake-serene"><text>Lake Serene on The Lost Trailhead</text></link></metadata>
<trk><name>Lake Serene</name><link href="https://thelosttrailhead.com/hikes/lake-serene"><text>Lake Serene on The Lost Trailhead</text></link><trkseg>
<trkpt lat="47.809278" lon="-121.573835"><ele>173.9</ele></trkpt>
<trkpt lat="47.809234" lon="-121.573840"><ele>170.4</ele></trkpt>
<trkpt lat="47.809129" lon="-121.574048"><ele>169.8</ele></trkpt>
<trkpt lat="47.808940" lon="-121.573879"><ele>173.4</ele></trkpt>
<trkpt lat="47.808880" lon="-121.573887"><ele>174.6</ele></trkpt>
<trkpt lat="47.808957" lon="-121.573809"><ele>178.9</ele></trkpt>
<trkpt lat="47.808758" lon="-121.573815"><ele>175.7</ele></trkpt>
<trkpt lat="47.808316" lon="-121.573584"><ele>178.2</ele></trkpt>
<trkpt lat="47.807638" lon="-121.573841"><ele>187.1</ele></trkpt>
<trkpt lat="47.807057" lon="-121.573506"><ele>187.6</ele></trkpt>
<trkpt lat="47.806637" lon="-121.573647"><ele>193.5</ele></trkpt>
<trkpt lat="47.805575" lon="-121.573570"><ele>192.9</ele></trkpt>
<trkpt lat="47.805363" lon="-121.573491"><ele>203.0</ele></trkpt>
<trkpt lat="47.805068" lon="-121.573532"><ele>205.4</ele></trkpt>
<trkpt lat="47.804607" lon="-121.573379"><ele>209.3</ele></trkpt>
<trkpt lat="47.804295" lon="-121.573142"><ele>216.3</ele></trkpt>
<trkpt lat="47.803908" lon="-121.573039"><ele>224.0</ele></trkpt>
<trkpt lat="47.803366" lon="-121.573486"><ele>233.2</ele></trkpt>
<trkpt lat="47.803113" lon="-121.573780"><ele>232.7</ele></trkpt>
<trkpt lat="47.802873" lon="-121.573897"><ele>236.6</ele></trkpt>
<trkpt lat="47.802700" lon="-121.574095"><ele>242.4</ele></trkpt>
<trkpt lat="47.802492" lon="-121.574186"><ele>241.9</ele></trkpt>
<trkpt lat="47.802068" lon="-121.574701"><ele>240.7</ele></trkpt>
<trkpt lat="47.801687" lon="-121.574690"><ele>243.3</ele></trkpt>
<trkpt lat="47.801515" lon="-121.574915"><ele>245.5</ele></trkpt>
<trkpt lat="47.801182" lon="-121.575153"><ele>244.3</ele></trkpt>
<trkpt lat="47.800971" lon="-121.575483"><ele>244.1</ele></trkpt>
<trkpt lat="47.800553" lon="-121.575733"><ele>244.3</ele></trkpt>
<trkpt lat="47.800463" lon="-121.575840"><ele>246.4</ele></trkpt>
<trkpt lat="47.800464" lon="-121.575935"><ele>249.9</ele></trkpt>
<trkpt lat="47.800300" lon="-121.576113"><ele>251.0</ele></trkpt>
<trkpt lat="47.800089" lon="-121.576194"><ele>252.9</ele></trkpt>
<trkpt lat="47.800116" lon="-121.576253"><ele>250.3</ele></trkpt>
<trkpt lat="47.800069" lon="-121.576205"><ele>251.3</ele></trkpt>
<trkpt lat="47.799816" lon="-121.576380"><ele>250.3</ele></trkpt>
<trkpt lat="47.799755" lon="-121.576136"><ele>255.4</ele></trkpt>
<trkpt lat="47.799300" lon="-121.575947"><ele>260.9</ele></trkpt>
<trkpt lat="47.798401" lon="-121.576264"><ele>274.2</ele></trkpt>
<trkpt lat="47.797995" lon="-121.576805"><ele>278.8</ele></trkpt>
<trkpt lat="47.797829" lon="-121.577136"><ele>282.3</ele></trkpt>
<trkpt lat="47.797738" lon="-121.577867"><ele>284.4</ele></trkpt>
<trkpt lat="47.797562" lon="-121.578110"><ele>288.7</ele></trkpt>
<trkpt lat="47.797588" lon="-121.578163"><ele>290.0</ele></trkpt>
<trkpt lat="47.797550" lon="-121.578074"><ele>287.2</ele></trkpt>
<trkpt lat="47.797539" lon="-121.578124"><ele>291.0</ele></trkpt>
<trkpt lat="47.797523" lon="-121.578048"><ele>294.3</ele></trkpt>
<trkpt lat="47.797398" lon="-121.577996"><ele>296.9</ele></trkpt>
<trkpt lat="47.797111" lon="-121.577681"><ele>298.7</ele></trkpt>
<trkpt lat="47.796761" lon="-121.577610"><ele>302.7</ele></trkpt>
<trkpt lat="47.796554" lon="-121.577272"><ele>307.1</ele></trkpt>
<trkpt lat="47.796438" lon="-121.576973"><ele>311.6</ele></trkpt>
<trkpt lat="47.796479" lon="-121.576652"><ele>315.4</ele></trkpt>
<trkpt lat="47.796372" lon="-121.576349"><ele>312.5</ele></trkpt>
<trkpt lat="47.796289" lon="-121.576246"><ele>312.4</ele></trkpt>
<trkpt lat="47.796030" lon="-121.575464"><ele>321.1</ele></trkpt>
<trkpt lat="47.795989" lon="-121.574808"><ele>324.6</ele></trkpt>
<trkpt lat="47.795663" lon="-121.574124"><ele>331.2</ele></trkpt>
<trkpt lat="47.795791" lon="-121.573698"><ele>333.2</ele></trkpt>
<trkpt lat="47.795932" lon="-121.573496"><ele>336.4</ele></trkpt>
<trkpt lat="47.795887" lon="-121.573246"><ele>336.2</ele></trkpt>
<trkpt lat="47.795788" lon="-121.573092"><ele>336.1</ele></trkpt>
<trkpt lat="47.795772" lon="-121.572780"><ele>335.6</ele></trkpt>
<trkpt lat="47.795725" lon="-121.572771"><ele>334.2</ele></trkpt>
<trkpt lat="47.795869" lon="-121.572498"><ele>344.5</ele></trkpt>
<trkpt lat="47.795905" lon="-121.572269"><ele>343.5</ele></trkpt>
<trkpt lat="47.795849" lon="-121.572261"><ele>342.7</ele></trkpt>
<trkpt lat="47.796010" lon="-121.572149"><ele>347.4</ele></trkpt>
<trkpt lat="47.795964" lon="-121.571915"><ele>343.8</ele></trkpt>
<trkpt lat="47.796030" lon="-121.571749"><ele>348.9</ele></trkpt>
<trkpt lat="47.795884" lon="-121.570830"><ele>354.8</ele></trkpt>
<trkpt lat="47.795775" lon="-121.570522"><ele>352.8</ele></trkpt>
<trkpt lat="47.795421" lon="-121.570433"><ele>356.5</ele></trkpt>
<trkpt lat="47.795321" lon="-121.570333"><ele>361.6</ele></trkpt>
<trkpt lat="47.794681" lon="-121.570041"><ele>367.3</ele></trkpt>
<trkpt lat="47.794431" lon="-121.570001"><ele>360.2</ele></trkpt>
<trkpt lat="47.794313" lon="-121.569882"><ele>362.4</ele></trkpt>
<trkpt lat="47.794074" lon="-121.569835"><ele>366.8</ele></trkpt>
<trkpt lat="47.794036" lon="-121.569862"><ele>367.6</ele></trkpt>
<trkpt lat="47.794054" lon="-121.569917"><ele>368.6</ele></trkpt>
<trkpt lat="47.793852" lon="-121.569805"><ele>365.1</ele></trkpt>
<trkpt lat="47.793787" lon="-121.570330"><ele>355.3</ele></trkpt>
<trkpt lat="47.793637" lon="-121.570635"><ele>350.9</ele></trkpt>
<trkpt lat="47.793519" lon="-121.570726"><ele>355.3</ele></trkpt>
<trkpt lat="47.793275" lon="-121.570733"><ele>355.0</ele></trkpt>
<trkpt lat="47.793200" lon="-121.570793"><ele>356.2</ele></trkpt>
<trkpt lat="47.793067" lon="-121.570682"><ele>354.6</ele></trkpt>
<trkpt lat="47.792944" lon="-121.570713"><ele>353.4</ele></trkpt>
<trkpt lat="47.792870" lon="-121.570625"><ele>355.0</ele></trkpt>
<trkpt lat="47.792862" lon="-121.570310"><ele>347.6</ele></trkpt>
<trkpt lat="47.792615" lon="-121.570285"><ele>350.6</ele></trkpt>
<trkpt lat="47.792678" lon="-121.570150"><ele>352.8</ele></trkpt>
<trkpt lat="47.792619" lon="-121.569727"><ele>342.0</ele></trkpt>
<trkpt lat="47.792688" lon="-121.569566"><ele>341.4</ele></trkpt>
<trkpt lat="47.792560" lon="-121.569254"><ele>342.6</ele></trkpt>
<trkpt lat="47.792425" lon="-121.569161"><ele>346.2</ele></trkpt>
<trkpt lat="47.792090" lon="-121.569230"><ele>346.9</ele></trkpt>
<trkpt lat="47.791986" lon="-121.569182"><ele>346.6</ele></trkpt>
<trkpt lat="47.791882" lon="-121.568923"><ele>349.3</ele></trkpt>
<trkpt lat="47.791739" lon="-121.568804"><ele>347.4</ele></trkpt>
<trkpt lat="47.791724" lon="-121.568557"><ele>349.9</ele></trkpt>
<trkpt lat="47.791488" lon="-121.568481"><ele>352.2</ele></trkpt>
<trkpt lat="47.791355" lon="-121.568557"><ele>352.2</ele></trkpt>
<trkpt lat="47.791321" lon="-121.568398"><ele>349.8</ele></trkpt>
<trkpt lat="47.791354" lon="-121.568251"><ele>354.7</ele></trkpt>
<trkpt lat="47.791290" lon="-121.568002"><ele>350.6</ele></trkpt>
<trkpt lat="47.791174" lon="-121.567913"><ele>347.9</ele></trkpt>
<trkpt lat="47.791082" lon="-121.567943"><ele>342.0</ele></trkpt>
<trkpt lat="47.791014" lon="-121.567844"><ele>343.5</ele></trkpt>
<trkpt lat="47.791008" lon="-121.567689"><ele>344.2</ele></trkpt>
<trkpt lat="47.791065" lon="-121.567517"><ele>351.4</ele></trkpt>
<trkpt lat="47.791002" lon="-121.567466"><ele>347.7</ele></trkpt>
<trkpt lat="47.791043" lon="-121.567448"><ele>346.6</ele></trkpt>
<trkpt lat="47.791021" lon="-121.567312"><ele>345.4</ele></trkpt>
<trkpt lat="47.791131" lon="-121.567107"><ele>349.4</ele></trkpt>
<trkpt lat="47.791235" lon="-121.567033"><ele>349.1</ele></trkpt>
<trkpt lat="47.791220" lon="-121.566812"><ele>341.3</ele></trkpt>
<trkpt lat="47.791313" lon="-121.566622"><ele>349.4</ele></trkpt>
<trkpt lat="47.791316" lon="-121.566326"><ele>351.5</ele></trkpt>
<trkpt lat="47.791454" lon="-121.566013"><ele>361.6</ele></trkpt>
<trkpt lat="47.791652" lon="-121.565767"><ele>368.8</ele></trkpt>
<trkpt lat="47.791584" lon="-121.565680"><ele>365.8</ele></trkpt>
<trkpt lat="47.791371" lon="-121.565721"><ele>376.1</ele></trkpt>
<trkpt lat="47.791420" lon="-121.565590"><ele>373.3</ele></trkpt>
<trkpt lat="47.791558" lon="-121.565479"><ele>379.2</ele></trkpt>
<trkpt lat="47.791558" lon="-121.565302"><ele>383.2</ele></trkpt>
<trkpt lat="47.791595" lon="-121.565246"><ele>385.7</ele></trkpt>
<trkpt lat="47.791470" lon="-121.565262"><ele>387.0</ele></trkpt>
<trkpt lat="47.791368" lon="-121.565352"><ele>390.9</ele></trkpt>
<trkpt lat="47.791498" lon="-121.565170"><ele>390.0</ele></trkpt>
<trkpt lat="47.791478" lon="-121.565086"><ele>389.9</ele></trkpt>
<trkpt lat="47.791435" lon="-121.565081"><ele>390.6</ele></trkpt>
<trkpt lat="47.791456" lon="-121.565036"><ele>391.6</ele></trkpt>
<trkpt lat="47.791434" lon="-121.565088"><ele>394.9</ele></trkpt>
<trkpt lat="47.791473" lon="-121.565122"><ele>398.6</ele></trkpt>
<trkpt lat="47.791298" lon="-121.565205"><ele>402.2</ele></trkpt>
<trkpt lat="47.791462" lon="-121.565025"><ele>410.9</ele></trkpt>
<trkpt lat="47.791555" lon="-121.564677"><ele>413.2</ele></trkpt>
<trkpt lat="47.791628" lon="-121.564617"><ele>413.8</ele></trkpt>
<trkpt lat="47.791655" lon="-121.564199"><ele>415.4</ele></trkpt>
<trkpt lat="47.791744" lon="-121.564082"><ele>425.7</ele></trkpt>
<trkpt lat="47.791837" lon="-121.563591"><ele>428.7</ele></trkpt>
<trkpt lat="47.791667" lon="-121.563272"><ele>433.6</ele></trkpt>
<trkpt lat="47.791666" lon="-121.562915"><ele>441.5</ele></trkpt>
<trkpt lat="47.791722" lon="-121.562915"><ele>446.5</ele></trkpt>
<trkpt lat="47.791672" lon="-121.562886"><ele>448.8</ele></trkpt>
<trkpt lat="47.791511" lon="-121.563155"><ele>447.0</ele></trkpt>
<trkpt lat="47.791455" lon="-121.563479"><ele>455.4</ele></trkpt>
<trkpt lat="47.791364" lon="-121.563484"><ele>446.2</ele></trkpt>
<trkpt lat="47.791341" lon="-121.563683"><ele>457.8</ele></trkpt>
<trkpt lat="47.791275" lon="-121.563448"><ele>467.4</ele></trkpt>
<trkpt lat="47.791304" lon="-121.563065"><ele>477.2</ele></trkpt>
<trkpt lat="47.791222" lon="-121.562886"><ele>478.9</ele></trkpt>
<trkpt lat="47.791165" lon="-121.562357"><ele>486.5</ele></trkpt>
<trkpt lat="47.791107" lon="-121.562304"><ele>487.7</ele></trkpt>
<trkpt lat="47.791144" lon="-121.562211"><ele>491.3</ele></trkpt>
<trkpt lat="47.791106" lon="-121.562140"><ele>494.1</ele></trkpt>
<trkpt lat="47.791119" lon="-121.562031"><ele>495.0</ele></trkpt>
<trkpt lat="47.791059" lon="-121.561939"><ele>494.5</ele></trkpt>
<trkpt lat="47.791024" lon="-121.561623"><ele>497.3</ele></trkpt>
<trkpt lat="47.790914" lon="-121.561475"><ele>496.8</ele></trkpt>
<trkpt lat="47.790872" lon="-121.561154"><ele>505.7</ele></trkpt>
<trkpt lat="47.790745" lon="-121.560969"><ele>506.6</ele></trkpt>
<trkpt lat="47.790757" lon="-121.560869"><ele>508.3</ele></trkpt>
<trkpt lat="47.790605" lon="-121.560426"><ele>507.8</ele></trkpt>
<trkpt lat="47.790488" lon="-121.559713"><ele>515.9</ele></trkpt>
<trkpt lat="47.790366" lon="-121.559607"><ele>516.9</ele></trkpt>
<trkpt lat="47.790333" lon="-121.559847"><ele>524.0</ele></trkpt>
<trkpt lat="47.790253" lon="-121.559702"><ele>530.6</ele></trkpt>
<trkpt lat="47.790244" lon="-121.559544"><ele>537.8</ele></trkpt>
<trkpt lat="47.790184" lon="-121.559506"><ele>543.0</ele></trkpt>
<trkpt lat="47.790272" lon="-121.559212"><ele>547.4</ele></trkpt>
<trkpt lat="47.790250" lon="-121.559175"><ele>547.6</ele></trkpt>
<trkpt lat="47.790102" lon="-121.559311"><ele>549.6</ele></trkpt>
<trkpt lat="47.790000" lon="-121.559521"><ele>556.2</ele></trkpt>
<trkpt lat="47.790033" lon="-121.559421"><ele>557.3</ele></trkpt>
<trkpt lat="47.790002" lon="-121.559192"><ele>561.2</ele></trkpt>
<trkpt lat="47.790072" lon="-121.559090"><ele>563.4</ele></trkpt>
<trkpt lat="47.790098" lon="-121.558907"><ele>564.8</ele></trkpt>
<trkpt lat="47.790075" lon="-121.558547"><ele>570.3</ele></trkpt>
<trkpt lat="47.789881" lon="-121.558232"><ele>572.4</ele></trkpt>
<trkpt lat="47.789857" lon="-121.558116"><ele>577.0</ele></trkpt>
<trkpt lat="47.789679" lon="-121.557950"><ele>582.2</ele></trkpt>
<trkpt lat="47.789652" lon="-121.558014"><ele>585.0</ele></trkpt>
<trkpt lat="47.789549" lon="-121.557867"><ele>586.2</ele></trkpt>
<trkpt lat="47.789519" lon="-121.557983"><ele>589.8</ele></trkpt>
<trkpt lat="47.789589" lon="-121.558113"><ele>593.5</ele></trkpt>
<trkpt lat="47.789572" lon="-121.558330"><ele>595.1</ele></trkpt>
<trkpt lat="47.789616" lon="-121.558527"><ele>598.7</ele></trkpt>
<trkpt lat="47.789541" lon="-121.558255"><ele>602.9</ele></trkpt>
<trkpt lat="47.789389" lon="-121.558100"><ele>606.7</ele></trkpt>
<trkpt lat="47.789286" lon="-121.558121"><ele>610.4</ele></trkpt>
<trkpt lat="47.789373" lon="-121.558275"><ele>613.3</ele></trkpt>
<trkpt lat="47.789340" lon="-121.558591"><ele>622.8</ele></trkpt>
<trkpt lat="47.789377" lon="-121.558849"><ele>626.3</ele></trkpt>
<trkpt lat="47.789441" lon="-121.558944"><ele>626.6</ele></trkpt>
<trkpt lat="47.789446" lon="-121.559155"><ele>625.4</ele></trkpt>
<trkpt lat="47.789385" lon="-121.559301"><ele>625.5</ele></trkpt>
<trkpt lat="47.789434" lon="-121.559633"><ele>625.4</ele></trkpt>
<trkpt lat="47.789427" lon="-121.560070"><ele>629.0</ele></trkpt>
<trkpt lat="47.789375" lon="-121.560275"><ele>629.2</ele></trkpt>
<trkpt lat="47.789467" lon="-121.560619"><ele>631.9</ele></trkpt>
<trkpt lat="47.789449" lon="-121.560752"><ele>631.3</ele></trkpt>
<trkpt lat="47.789547" lon="-121.560852"><ele>633.3</ele></trkpt>
<trkpt lat="47.789547" lon="-121.561105"><ele>638.0</ele></trkpt>
<trkpt lat="47.789600" lon="-121.561262"><ele>640.7</ele></trkpt>
<trkpt lat="47.789593" lon="-121.561532"><ele>642.9</ele></trkpt>
<trkpt lat="47.789470" lon="-121.561896"><ele>648.4</ele></trkpt>
<trkpt lat="47.789522" lon="-121.562209"><ele>652.6</ele></trkpt>
<trkpt lat="47.789482" lon="-121.562383"><ele>651.6</ele></trkpt>
<trkpt lat="47.789493" lon="-121.562444"><ele>654.5</ele></trkpt>
<trkpt lat="47.789532" lon="-121.562428"><ele>658.9</ele></trkpt>
<trkpt lat="47.789426" lon="-121.562338"><ele>655.6</ele></trkpt>
<trkpt lat="47.789280" lon="-121.561931"><ele>662.8</ele></trkpt>
<trkpt lat="47.789285" lon="-121.561723"><ele>671.8</ele></trkpt>
<trkpt lat="47.789239" lon="-121.561718"><ele>671.8</ele></trkpt>
<trkpt lat="47.789266" lon="-121.561542"><ele>678.4</ele></trkpt>
<trkpt lat="47.789125" lon="-121.561413"><ele>679.8</ele></trkpt>
<trkpt lat="47.789068" lon="-121.561432"><ele>682.2</ele></trkpt>
<trkpt lat="47.789074" lon="-121.561771"><ele>687.7</ele></trkpt>
<trkpt lat="47.788974" lon="-121.561921"><ele>690.7</ele></trkpt>
<trkpt lat="47.788899" lon="-121.562249"><ele>698.0</ele></trkpt>
<trkpt lat="47.788902" lon="-121.562516"><ele>701.4</ele></trkpt>
<trkpt lat="47.788683" lon="-121.562919"><ele>704.3</ele></trkpt>
<trkpt lat="47.788619" lon="-121.563250"><ele>717.0</ele></trkpt>
<trkpt lat="47.788561" lon="-121.563342"><ele>716.7</ele></trkpt>
<trkpt lat="47.788566" lon="-121.563482"><ele>716.5</ele></trkpt>
<trkpt lat="47.788492" lon="-121.563593"><ele>717.1</ele></trkpt>
<trkpt lat="47.788500" lon="-121.563698"><ele>718.7</ele></trkpt>
<trkpt lat="47.788384" lon="-121.563814"><ele>718.2</ele></trkpt>
<trkpt lat="47.788349" lon="-121.563924"><ele>717.4</ele></trkpt>
<trkpt lat="47.788019" lon="-121.564209"><ele>724.6</ele></trkpt>
<trkpt lat="47.787960" lon="-121.564371"><ele>725.9</ele></trkpt>
<trkpt lat="47.787717" lon="-121.564614"><ele>728.2</ele></trkpt>
<trkpt lat="47.787579" lon="-121.564962"><ele>732.2</ele></trkpt>
<trkpt lat="47.787491" lon="-121.564998"><ele>734.0</ele></trkpt>
<trkpt lat="47.787373" lon="-121.564945"><ele>733.8</ele></trkpt>
<trkpt lat="47.787094" lon="-121.565234"><ele>733.8</ele></trkpt>
<trkpt lat="47.786615" lon="-121.565575"><ele>743.5</ele></trkpt>
<trkpt lat="47.786549" lon="-121.565745"><ele>746.9</ele></trkpt>
<trkpt lat="47.786414" lon="-121.565792"><ele>752.7</ele></trkpt>
<trkpt lat="47.786110" lon="-121.566346"><ele>762.4</ele></trkpt>
<trkpt lat="47.786064" lon="-121.566618"><ele>765.5</ele></trkpt>
<trkpt lat="47.785954" lon="-121.566678"><ele>766.6</ele></trkpt>
<trkpt lat="47.785874" lon="-121.566805"><ele>769.8</ele></trkpt>
<trkpt lat="47.785662" lon="-121.566909"><ele>771.8</ele></trkpt>
<trkpt lat="47.785618" lon="-121.567047"><ele>772.9</ele></trkpt>
<trkpt lat="47.785358" lon="-121.567355"><ele>773.8</ele></trkpt>
<trkpt lat="47.785389" lon="-121.568038"><ele>775.2</ele></trkpt>
<trkpt lat="47.785341" lon="-121.568360"><ele>775.9</ele></trkpt>
<trkpt lat="47.785269" lon="-121.568492"><ele>775.6</ele></trkpt>
<trkpt lat="47.785495" lon="-121.569488"><ele>788.5</ele></trkpt>
<trkpt lat="47.785487" lon="-121.569738"><ele>784.3</ele></trkpt>
<trkpt lat="47.785337" lon="-121.570183"><ele>781.8</ele></trkpt>
<trkpt lat="47.785252" lon="-121.570271"><ele>781.4</ele></trkpt>
<trkpt lat="47.785224" lon="-121.570423"><ele>777.5</ele></trkpt>
<trkpt lat="47.785160" lon="-121.570418"><ele>775.6</ele></trkpt>
<trkpt lat="47.785155" lon="-121.570520"><ele>773.0</ele></trkpt>
<trkpt lat="47.785056" lon="-121.570475"><ele>774.7</ele></trkpt>
<trkpt lat="47.785095" lon="-121.570579"><ele>774.4</ele></trkpt>
<trkpt lat="47.785061" lon="-121.570611"><ele>773.0</ele></trkpt>
<trkpt lat="47.785093" lon="-121.570574"><ele>775.4</ele></trkpt>
<trkpt lat="47.784992" lon="-121.570401"><ele>769.1</ele></trkpt>
<trkpt lat="47.785085" lon="-121.570567"><ele>773.1</ele></trkpt>
<trkpt lat="47.785125" lon="-121.570824"><ele>770.6</ele></trkpt>
<trkpt lat="47.785108" lon="-121.571131"><ele>776.2</ele></trkpt>
<trkpt lat="47.785085" lon="-121.571067"><ele>777.1</ele></trkpt>
<trkpt lat="47.784966" lon="-121.571611"><ele>774.1</ele></trkpt>
<trkpt lat="47.784882" lon="-121.571781"><ele>776.6</ele></trkpt>
<trkpt lat="47.784966" lon="-121.571611"><ele>774.1</ele></trkpt>
<trkpt lat="47.785085" lon="-121.571067"><ele>777.1</ele></trkpt>
<trkpt lat="47.785108" lon="-121.571131"><ele>776.2</ele></trkpt>
<trkpt lat="47.785125" lon="-121.570824"><ele>770.6</ele></trkpt>
<trkpt lat="47.785085" lon="-121.570567"><ele>773.1</ele></trkpt>
<trkpt lat="47.784992" lon="-121.570401"><ele>769.1</ele></trkpt>
<trkpt lat="47.785093" lon="-121.570574"><ele>775.4</ele></trkpt>
<trkpt lat="47.785061" lon="-121.570611"><ele>773.0</ele></trkpt>
<trkpt lat="47.785095" lon="-121.570579"><ele>774.4</ele></trkpt>
<trkpt lat="47.785056" lon="-121.570475"><ele>774.7</ele></trkpt>
<trkpt lat="47.785155" lon="-121.570520"><ele>773.0</ele></trkpt>
<trkpt lat="47.785160" lon="-121.570418"><ele>775.6</ele></trkpt>
<trkpt lat="47.785224" lon="-121.570423"><ele>777.5</ele></trkpt>
<trkpt lat="47.785252" lon="-121.570271"><ele>781.4</ele></trkpt>
<trkpt lat="47.785337" lon="-121.570183"><ele>781.8</ele></trkpt>
<trkpt lat="47.785487" lon="-121.569738"><ele>784.3</ele></trkpt>
<trkpt lat="47.785495" lon="-121.569488"><ele>788.5</ele></trkpt>
<trkpt lat="47.785269" lon="-121.568492"><ele>775.6</ele></trkpt>
<trkpt lat="47.785341" lon="-121.568360"><ele>775.9</ele></trkpt>
<trkpt lat="47.785389" lon="-121.568038"><ele>775.2</ele></trkpt>
<trkpt lat="47.785358" lon="-121.567355"><ele>773.8</ele></trkpt>
<trkpt lat="47.785618" lon="-121.567047"><ele>772.9</ele></trkpt>
<trkpt lat="47.785662" lon="-121.566909"><ele>771.8</ele></trkpt>
<trkpt lat="47.785874" lon="-121.566805"><ele>769.8</ele></trkpt>
<trkpt lat="47.785954" lon="-121.566678"><ele>766.6</ele></trkpt>
<trkpt lat="47.786064" lon="-121.566618"><ele>765.5</ele></trkpt>
<trkpt lat="47.786110" lon="-121.566346"><ele>762.4</ele></trkpt>
<trkpt lat="47.786414" lon="-121.565792"><ele>752.7</ele></trkpt>
<trkpt lat="47.786549" lon="-121.565745"><ele>746.9</ele></trkpt>
<trkpt lat="47.786615" lon="-121.565575"><ele>743.5</ele></trkpt>
<trkpt lat="47.787094" lon="-121.565234"><ele>733.8</ele></trkpt>
<trkpt lat="47.787373" lon="-121.564945"><ele>733.8</ele></trkpt>
<trkpt lat="47.787491" lon="-121.564998"><ele>734.0</ele></trkpt>
<trkpt lat="47.787579" lon="-121.564962"><ele>732.2</ele></trkpt>
<trkpt lat="47.787717" lon="-121.564614"><ele>728.2</ele></trkpt>
<trkpt lat="47.787960" lon="-121.564371"><ele>725.9</ele></trkpt>
<trkpt lat="47.788019" lon="-121.564209"><ele>724.6</ele></trkpt>
<trkpt lat="47.788349" lon="-121.563924"><ele>717.4</ele></trkpt>
<trkpt lat="47.788384" lon="-121.563814"><ele>718.2</ele></trkpt>
<trkpt lat="47.788500" lon="-121.563698"><ele>718.7</ele></trkpt>
<trkpt lat="47.788492" lon="-121.563593"><ele>717.1</ele></trkpt>
<trkpt lat="47.788566" lon="-121.563482"><ele>716.5</ele></trkpt>
<trkpt lat="47.788561" lon="-121.563342"><ele>716.7</ele></trkpt>
<trkpt lat="47.788619" lon="-121.563250"><ele>717.0</ele></trkpt>
<trkpt lat="47.788683" lon="-121.562919"><ele>704.3</ele></trkpt>
<trkpt lat="47.788902" lon="-121.562516"><ele>701.4</ele></trkpt>
<trkpt lat="47.788899" lon="-121.562249"><ele>698.0</ele></trkpt>
<trkpt lat="47.788974" lon="-121.561921"><ele>690.7</ele></trkpt>
<trkpt lat="47.789074" lon="-121.561771"><ele>687.7</ele></trkpt>
<trkpt lat="47.789068" lon="-121.561432"><ele>682.2</ele></trkpt>
<trkpt lat="47.789125" lon="-121.561413"><ele>679.8</ele></trkpt>
<trkpt lat="47.789266" lon="-121.561542"><ele>678.4</ele></trkpt>
<trkpt lat="47.789239" lon="-121.561718"><ele>671.8</ele></trkpt>
<trkpt lat="47.789285" lon="-121.561723"><ele>671.8</ele></trkpt>
<trkpt lat="47.789280" lon="-121.561931"><ele>662.8</ele></trkpt>
<trkpt lat="47.789426" lon="-121.562338"><ele>655.6</ele></trkpt>
<trkpt lat="47.789532" lon="-121.562428"><ele>658.9</ele></trkpt>
<trkpt lat="47.789493" lon="-121.562444"><ele>654.5</ele></trkpt>
<trkpt lat="47.789482" lon="-121.562383"><ele>651.6</ele></trkpt>
<trkpt lat="47.789522" lon="-121.562209"><ele>652.6</ele></trkpt>
<trkpt lat="47.789470" lon="-121.561896"><ele>648.4</ele></trkpt>
<trkpt lat="47.789593" lon="-121.561532"><ele>642.9</ele></trkpt>
<trkpt lat="47.789600" lon="-121.561262"><ele>640.7</ele></trkpt>
<trkpt lat="47.789547" lon="-121.561105"><ele>638.0</ele></trkpt>
<trkpt lat="47.789547" lon="-121.560852"><ele>633.3</ele></trkpt>
<trkpt lat="47.789449" lon="-121.560752"><ele>631.3</ele></trkpt>
<trkpt lat="47.789467" lon="-121.560619"><ele>631.9</ele></trkpt>
<trkpt lat="47.789375" lon="-121.560275"><ele>629.2</ele></trkpt>
<trkpt lat="47.789427" lon="-121.560070"><ele>629.0</ele></trkpt>
<trkpt lat="47.789434" lon="-121.559633"><ele>625.4</ele></trkpt>
<trkpt lat="47.789385" lon="-121.559301"><ele>625.5</ele></trkpt>
<trkpt lat="47.789446" lon="-121.559155"><ele>625.4</ele></trkpt>
<trkpt lat="47.789441" lon="-121.558944"><ele>626.6</ele></trkpt>
<trkpt lat="47.789377" lon="-121.558849"><ele>626.3</ele></trkpt>
<trkpt lat="47.789340" lon="-121.558591"><ele>622.8</ele></trkpt>
<trkpt lat="47.789373" lon="-121.558275"><ele>613.3</ele></trkpt>
<trkpt lat="47.789286" lon="-121.558121"><ele>610.4</ele></trkpt>
<trkpt lat="47.789389" lon="-121.558100"><ele>606.7</ele></trkpt>
<trkpt lat="47.789541" lon="-121.558255"><ele>602.9</ele></trkpt>
<trkpt lat="47.789616" lon="-121.558527"><ele>598.7</ele></trkpt>
<trkpt lat="47.789572" lon="-121.558330"><ele>595.1</ele></trkpt>
<trkpt lat="47.789589" lon="-121.558113"><ele>593.5</ele></trkpt>
<trkpt lat="47.789519" lon="-121.557983"><ele>589.8</ele></trkpt>
<trkpt lat="47.789549" lon="-121.557867"><ele>586.2</ele></trkpt>
<trkpt lat="47.789652" lon="-121.558014"><ele>585.0</ele></trkpt>
<trkpt lat="47.789679" lon="-121.557950"><ele>582.2</ele></trkpt>
<trkpt lat="47.789857" lon="-121.558116"><ele>577.0</ele></trkpt>
<trkpt lat="47.789881" lon="-121.558232"><ele>572.4</ele></trkpt>
<trkpt lat="47.790075" lon="-121.558547"><ele>570.3</ele></trkpt>
<trkpt lat="47.790098" lon="-121.558907"><ele>564.8</ele></trkpt>
<trkpt lat="47.790072" lon="-121.559090"><ele>563.4</ele></trkpt>
<trkpt lat="47.790002" lon="-121.559192"><ele>561.2</ele></trkpt>
<trkpt lat="47.790033" lon="-121.559421"><ele>557.3</ele></trkpt>
<trkpt lat="47.790000" lon="-121.559521"><ele>556.2</ele></trkpt>
<trkpt lat="47.790102" lon="-121.559311"><ele>549.6</ele></trkpt>
<trkpt lat="47.790250" lon="-121.559175"><ele>547.6</ele></trkpt>
<trkpt lat="47.790272" lon="-121.559212"><ele>547.4</ele></trkpt>
<trkpt lat="47.790184" lon="-121.559506"><ele>543.0</ele></trkpt>
<trkpt lat="47.790244" lon="-121.559544"><ele>537.8</ele></trkpt>
<trkpt lat="47.790253" lon="-121.559702"><ele>530.6</ele></trkpt>
<trkpt lat="47.790333" lon="-121.559847"><ele>524.0</ele></trkpt>
<trkpt lat="47.790366" lon="-121.559607"><ele>516.9</ele></trkpt>
<trkpt lat="47.790488" lon="-121.559713"><ele>515.9</ele></trkpt>
<trkpt lat="47.790605" lon="-121.560426"><ele>507.8</ele></trkpt>
<trkpt lat="47.790757" lon="-121.560869"><ele>508.3</ele></trkpt>
<trkpt lat="47.790745" lon="-121.560969"><ele>506.6</ele></trkpt>
<trkpt lat="47.790872" lon="-121.561154"><ele>505.7</ele></trkpt>
<trkpt lat="47.790914" lon="-121.561475"><ele>496.8</ele></trkpt>
<trkpt lat="47.791024" lon="-121.561623"><ele>497.3</ele></trkpt>
<trkpt lat="47.791059" lon="-121.561939"><ele>494.5</ele></trkpt>
<trkpt lat="47.791119" lon="-121.562031"><ele>495.0</ele></trkpt>
<trkpt lat="47.791106" lon="-121.562140"><ele>494.1</ele></trkpt>
<trkpt lat="47.791144" lon="-121.562211"><ele>491.3</ele></trkpt>
<trkpt lat="47.791107" lon="-121.562304"><ele>487.7</ele></trkpt>
<trkpt lat="47.791165" lon="-121.562357"><ele>486.5</ele></trkpt>
<trkpt lat="47.791222" lon="-121.562886"><ele>478.9</ele></trkpt>
<trkpt lat="47.791304" lon="-121.563065"><ele>477.2</ele></trkpt>
<trkpt lat="47.791275" lon="-121.563448"><ele>467.4</ele></trkpt>
<trkpt lat="47.791341" lon="-121.563683"><ele>457.8</ele></trkpt>
<trkpt lat="47.791364" lon="-121.563484"><ele>446.2</ele></trkpt>
<trkpt lat="47.791455" lon="-121.563479"><ele>455.4</ele></trkpt>
<trkpt lat="47.791511" lon="-121.563155"><ele>447.0</ele></trkpt>
<trkpt lat="47.791672" lon="-121.562886"><ele>448.8</ele></trkpt>
<trkpt lat="47.791722" lon="-121.562915"><ele>446.5</ele></trkpt>
<trkpt lat="47.791666" lon="-121.562915"><ele>441.5</ele></trkpt>
<trkpt lat="47.791667" lon="-121.563272"><ele>433.6</ele></trkpt>
<trkpt lat="47.791837" lon="-121.563591"><ele>428.7</ele></trkpt>
<trkpt lat="47.791744" lon="-121.564082"><ele>425.7</ele></trkpt>
<trkpt lat="47.791655" lon="-121.564199"><ele>415.4</ele></trkpt>
<trkpt lat="47.791628" lon="-121.564617"><ele>413.8</ele></trkpt>
<trkpt lat="47.791555" lon="-121.564677"><ele>413.2</ele></trkpt>
<trkpt lat="47.791462" lon="-121.565025"><ele>410.9</ele></trkpt>
<trkpt lat="47.791298" lon="-121.565205"><ele>402.2</ele></trkpt>
<trkpt lat="47.791473" lon="-121.565122"><ele>398.6</ele></trkpt>
<trkpt lat="47.791434" lon="-121.565088"><ele>394.9</ele></trkpt>
<trkpt lat="47.791456" lon="-121.565036"><ele>391.6</ele></trkpt>
<trkpt lat="47.791435" lon="-121.565081"><ele>390.6</ele></trkpt>
<trkpt lat="47.791478" lon="-121.565086"><ele>389.9</ele></trkpt>
<trkpt lat="47.791498" lon="-121.565170"><ele>390.0</ele></trkpt>
<trkpt lat="47.791368" lon="-121.565352"><ele>390.9</ele></trkpt>
<trkpt lat="47.791470" lon="-121.565262"><ele>387.0</ele></trkpt>
<trkpt lat="47.791595" lon="-121.565246"><ele>385.7</ele></trkpt>
<trkpt lat="47.791558" lon="-121.565302"><ele>383.2</ele></trkpt>
<trkpt lat="47.791558" lon="-121.565479"><ele>379.2</ele></trkpt>
<trkpt lat="47.791420" lon="-121.565590"><ele>373.3</ele></trkpt>
<trkpt lat="47.791371" lon="-121.565721"><ele>376.1</ele></trkpt>
<trkpt lat="47.791584" lon="-121.565680"><ele>365.8</ele></trkpt>
<trkpt lat="47.791652" lon="-121.565767"><ele>368.8</ele></trkpt>
<trkpt lat="47.791454" lon="-121.566013"><ele>361.6</ele></trkpt>
<trkpt lat="47.791316" lon="-121.566326"><ele>351.5</ele></trkpt>
<trkpt lat="47.791313" lon="-121.566622"><ele>349.4</ele></trkpt>
<trkpt lat="47.791220" lon="-121.566812"><ele>341.3</ele></trkpt>
<trkpt lat="47.791235" lon="-121.567033"><ele>349.1</ele></trkpt>
<trkpt lat="47.791131" lon="-121.567107"><ele>349.4</ele></trkpt>
<trkpt lat="47.791021" lon="-121.567312"><ele>345.4</ele></trkpt>
<trkpt lat="47.791043" lon="-121.567448"><ele>346.6</ele></trkpt>
<trkpt lat="47.791002" lon="-121.567466"><ele>347.7</ele></trkpt>
<trkpt lat="47.791065" lon="-121.567517"><ele>351.4</ele></trkpt>
<trkpt lat="47.791008" lon="-121.567689"><ele>344.2</ele></trkpt>
<trkpt lat="47.791014" lon="-121.567844"><ele>343.5</ele></trkpt>
<trkpt lat="47.791082" lon="-121.567943"><ele>342.0</ele></trkpt>
<trkpt lat="47.791174" lon="-121.567913"><ele>347.9</ele></trkpt>
<trkpt lat="47.791290" lon="-121.568002"><ele>350.6</ele></trkpt>
<trkpt lat="47.791354" lon="-121.568251"><ele>354.7</ele></trkpt>
<trkpt lat="47.791321" lon="-121.568398"><ele>349.8</ele></trkpt>
<trkpt lat="47.791355" lon="-121.568557"><ele>352.2</ele></trkpt>
<trkpt lat="47.791488" lon="-121.568481"><ele>352.2</ele></trkpt>
<trkpt lat="47.791724" lon="-121.568557"><ele>349.9</ele></trkpt>
<trkpt lat="47.791739" lon="-121.568804"><ele>347.4</ele></trkpt>
<trkpt lat="47.791882" lon="-121.568923"><ele>349.3</ele></trkpt>
<trkpt lat="47.791986" lon="-121.569182"><ele>346.6</ele></trkpt>
<trkpt lat="47.792090" lon="-121.569230"><ele>346.9</ele></trkpt>
<trkpt lat="47.792425" lon="-121.569161"><ele>346.2</ele></trkpt>
<trkpt lat="47.792560" lon="-121.569254"><ele>342.6</ele></trkpt>
<trkpt lat="47.792688" lon="-121.569566"><ele>341.4</ele></trkpt>
<trkpt lat="47.792619" lon="-121.569727"><ele>342.0</ele></trkpt>
<trkpt lat="47.792678" lon="-121.570150"><ele>352.8</ele></trkpt>
<trkpt lat="47.792615" lon="-121.570285"><ele>350.6</ele></trkpt>
<trkpt lat="47.792862" lon="-121.570310"><ele>347.6</ele></trkpt>
<trkpt lat="47.792870" lon="-121.570625"><ele>355.0</ele></trkpt>
<trkpt lat="47.792944" lon="-121.570713"><ele>353.4</ele></trkpt>
<trkpt lat="47.793067" lon="-121.570682"><ele>354.6</ele></trkpt>
<trkpt lat="47.793200" lon="-121.570793"><ele>356.2</ele></trkpt>
<trkpt lat="47.793275" lon="-121.570733"><ele>355.0</ele></trkpt>
<trkpt lat="47.793519" lon="-121.570726"><ele>355.3</ele></trkpt>
<trkpt lat="47.793637" lon="-121.570635"><ele>350.9</ele></trkpt>
<trkpt lat="47.793787" lon="-121.570330"><ele>355.3</ele></trkpt>
<trkpt lat="47.793852" lon="-121.569805"><ele>365.1</ele></trkpt>
<trkpt lat="47.794054" lon="-121.569917"><ele>368.6</ele></trkpt>
<trkpt lat="47.794036" lon="-121.569862"><ele>367.6</ele></trkpt>
<trkpt lat="47.794074" lon="-121.569835"><ele>366.8</ele></trkpt>
<trkpt lat="47.794313" lon="-121.569882"><ele>362.4</ele></trkpt>
<trkpt lat="47.794431" lon="-121.570001"><ele>360.2</ele></trkpt>
<trkpt lat="47.794681" lon="-121.570041"><ele>367.3</ele></trkpt>
<trkpt lat="47.795321" lon="-121.570333"><ele>361.6</ele></trkpt>
<trkpt lat="47.795421" lon="-121.570433"><ele>356.5</ele></trkpt>
<trkpt lat="47.795775" lon="-121.570522"><ele>352.8</ele></trkpt>
<trkpt lat="47.795884" lon="-121.570830"><ele>354.8</ele></trkpt>
<trkpt lat="47.796030" lon="-121.571749"><ele>348.9</ele></trkpt>
<trkpt lat="47.795964" lon="-121.571915"><ele>343.8</ele></trkpt>
<trkpt lat="47.796010" lon="-121.572149"><ele>347.4</ele></trkpt>
<trkpt lat="47.795849" lon="-121.572261"><ele>342.7</ele></trkpt>
<trkpt lat="47.795905" lon="-121.572269"><ele>343.5</ele></trkpt>
<trkpt lat="47.795869" lon="-121.572498"><ele>344.5</ele></trkpt>
<trkpt lat="47.795725" lon="-121.572771"><ele>334.2</ele></trkpt>
<trkpt lat="47.795772" lon="-121.572780"><ele>335.6</ele></trkpt>
<trkpt lat="47.795788" lon="-121.573092"><ele>336.1</ele></trkpt>
<trkpt lat="47.795887" lon="-121.573246"><ele>336.2</ele></trkpt>
<trkpt lat="47.795932" lon="-121.573496"><ele>336.4</ele></trkpt>
<trkpt lat="47.795791" lon="-121.573698"><ele>333.2</ele></trkpt>
<trkpt lat="47.795663" lon="-121.574124"><ele>331.2</ele></trkpt>
<trkpt lat="47.795989" lon="-121.574808"><ele>324.6</ele></trkpt>
<trkpt lat="47.796030" lon="-121.575464"><ele>321.1</ele></trkpt>
<trkpt lat="47.796289" lon="-121.576246"><ele>312.4</ele></trkpt>
<trkpt lat="47.796372" lon="-121.576349"><ele>312.5</ele></trkpt>
<trkpt lat="47.796479" lon="-121.576652"><ele>315.4</ele></trkpt>
<trkpt lat="47.796438" lon="-121.576973"><ele>311.6</ele></trkpt>
<trkpt lat="47.796554" lon="-121.577272"><ele>307.1</ele></trkpt>
<trkpt lat="47.796761" lon="-121.577610"><ele>302.7</ele></trkpt>
<trkpt lat="47.797111" lon="-121.577681"><ele>298.7</ele></trkpt>
<trkpt lat="47.797398" lon="-121.577996"><ele>296.9</ele></trkpt>
<trkpt lat="47.797523" lon="-121.578048"><ele>294.3</ele></trkpt>
<trkpt lat="47.797539" lon="-121.578124"><ele>291.0</ele></trkpt>
<trkpt lat="47.797550" lon="-121.578074"><ele>287.2</ele></trkpt>
<trkpt lat="47.797588" lon="-121.578163"><ele>290.0</ele></trkpt>
<trkpt lat="47.797562" lon="-121.578110"><ele>288.7</ele></trkpt>
<trkpt lat="47.797738" lon="-121.577867"><ele>284.4</ele></trkpt>
<trkpt lat="47.797829" lon="-121.577136"><ele>282.3</ele></trkpt>
<trkpt lat="47.797995" lon="-121.576805"><ele>278.8</ele></trkpt>
<trkpt lat="47.798401" lon="-121.576264"><ele>274.2</ele></trkpt>
<trkpt lat="47.799300" lon="-121.575947"><ele>260.9</ele></trkpt>
<trkpt lat="47.799755" lon="-121.576136"><ele>255.4</ele></trkpt>
<trkpt lat="47.799816" lon="-121.576380"><ele>250.3</ele></trkpt>
<trkpt lat="47.800069" lon="-121.576205"><ele>251.3</ele></trkpt>
<trkpt lat="47.800116" lon="-121.576253"><ele>250.3</ele></trkpt>
<trkpt lat="47.800089" lon="-121.576194"><ele>252.9</ele></trkpt>
<trkpt lat="47.800300" lon="-121.576113"><ele>251.0</ele></trkpt>
<trkpt lat="47.800464" lon="-121.575935"><ele>249.9</ele></trkpt>
<trkpt lat="47.800463" lon="-121.575840"><ele>246.4</ele></trkpt>
<trkpt lat="47.800553" lon="-121.575733"><ele>244.3</ele></trkpt>
<trkpt lat="47.800971" lon="-121.575483"><ele>244.1</ele></trkpt>
<trkpt lat="47.801182" lon="-121.575153"><ele>244.3</ele></trkpt>
<trkpt lat="47.801515" lon="-121.574915"><ele>245.5</ele></trkpt>
<trkpt lat="47.801687" lon="-121.574690"><ele>243.3</ele></trkpt>
<trkpt lat="47.802068" lon="-121.574701"><ele>240.7</ele></trkpt>
<trkpt lat="47.802492" lon="-121.574186"><ele>241.9</ele></trkpt>
<trkpt lat="47.802700" lon="-121.574095"><ele>242.4</ele></trkpt>
<trkpt lat="47.802873" lon="-121.573897"><ele>236.6</ele></trkpt>
<trkpt lat="47.803113" lon="-121.573780"><ele>232.7</ele></trkpt>
<trkpt lat="47.803366" lon="-121.573486"><ele>233.2</ele></trkpt>
<trkpt lat="47.803908" lon="-121.573039"><ele>224.0</ele></trkpt>
<trkpt lat="47.804295" lon="-121.573142"><ele>216.3</ele></trkpt>
<trkpt lat="47.804607" lon="-121.573379"><ele>209.3</ele></trkpt>
<trkpt lat="47.805068" lon="-121.573532"><ele>205.4</ele></trkpt>
<trkpt lat="47.805363" lon="-121.573491"><ele>203.0</ele></trkpt>
<trkpt lat="47.805575" lon="-121.573570"><ele>192.9</ele></trkpt>
<trkpt lat="47.806637" lon="-121.573647"><ele>193.5</ele></trkpt>
<trkpt lat="47.807057" lon="-121.573506"><ele>187.6</ele></trkpt>
<trkpt lat="47.807638" lon="-121.573841"><ele>187.1</ele></trkpt>
<trkpt lat="47.808316" lon="-121.573584"><ele>178.2</ele></trkpt>
<trkpt lat="47.808758" lon="-121.573815"><ele>175.7</ele></trkpt>
<trkpt lat="47.808957" lon="-121.573809"><ele>178.9</ele></trkpt>
<trkpt lat="47.808880" lon="-121.573887"><ele>174.6</ele></trkpt>
<trkpt lat="47.808940" lon="-121.573879"><ele>173.4</ele></trkpt>
<trkpt lat="47.809129" lon="-121.574048"><ele>169.8</ele></trkpt>
<trkpt lat="47.809234" lon="-121.573840"><ele>170.4</ele></trkpt>
<trkpt lat="47.809278" lon="-121.573835"><ele>173.9</ele></trkpt>
</trkseg></trk>
</gpx>
