<?xml version="1.0" encoding="UTF-8"?>
<gpx version="1.1" creator="The Lost Trailhead" xmlns="http://www.topografix.com/GPX/1/1" xmlns:xsi="http://www.w3.org/2001/XMLSchema-instance" xsi:schemaLocation="http://www.topografix.com/GPX/1/1 http://www.topografix.com/GPX/1/1/gpx.xsd">
<metadata><name>Hidden Lake</name><desc>The Lost Trailhead, thelosttrailhead.com/hikes/hidden-lake. Conditions change. Use at your own risk.</desc><link href="https://thelosttrailhead.com/hikes/hidden-lake"><text>Hidden Lake on The Lost Trailhead</text></link></metadata>
<trk><name>Hidden Lake</name><link href="https://thelosttrailhead.com/hikes/hidden-lake"><text>Hidden Lake on The Lost Trailhead</text></link><trkseg>
<trkpt lat="48.514187" lon="-121.221650"><ele>1071.6</ele></trkpt>
<trkpt lat="48.514146" lon="-121.221608"><ele>1068.3</ele></trkpt>
<trkpt lat="48.514178" lon="-121.221572"><ele>1070.8</ele></trkpt>
<trkpt lat="48.514185" lon="-121.221623"><ele>1071.7</ele></trkpt>
<trkpt lat="48.514235" lon="-121.221218"><ele>1074.9</ele></trkpt>
<trkpt lat="48.514129" lon="-121.220819"><ele>1075.7</ele></trkpt>
<trkpt lat="48.514186" lon="-121.219740"><ele>1090.6</ele></trkpt>
<trkpt lat="48.514151" lon="-121.219383"><ele>1089.4</ele></trkpt>
<trkpt lat="48.514216" lon="-121.218727"><ele>1092.1</ele></trkpt>
<trkpt lat="48.514344" lon="-121.218282"><ele>1103.4</ele></trkpt>
<trkpt lat="48.514382" lon="-121.217936"><ele>1107.5</ele></trkpt>
<trkpt lat="48.514710" lon="-121.217093"><ele>1111.6</ele></trkpt>
<trkpt lat="48.514717" lon="-121.216924"><ele>1109.6</ele></trkpt>
<trkpt lat="48.514761" lon="-121.216922"><ele>1113.9</ele></trkpt>
<trkpt lat="48.514763" lon="-121.216594"><ele>1118.1</ele></trkpt>
<trkpt lat="48.515020" lon="-121.216185"><ele>1123.1</ele></trkpt>
<trkpt lat="48.515064" lon="-121.216034"><ele>1126.6</ele></trkpt>
<trkpt lat="48.515062" lon="-121.215939"><ele>1127.9</ele></trkpt>
<trkpt lat="48.515015" lon="-121.215927"><ele>1128.9</ele></trkpt>
<trkpt lat="48.514791" lon="-121.216027"><ele>1131.4</ele></trkpt>
<trkpt lat="48.514847" lon="-121.216030"><ele>1131.2</ele></trkpt>
<trkpt lat="48.514890" lon="-121.215849"><ele>1134.3</ele></trkpt>
<trkpt lat="48.514955" lon="-121.215813"><ele>1135.1</ele></trkpt>
<trkpt lat="48.514941" lon="-121.215744"><ele>1134.0</ele></trkpt>
<trkpt lat="48.514998" lon="-121.215610"><ele>1140.1</ele></trkpt>
<trkpt lat="48.514969" lon="-121.215531"><ele>1141.1</ele></trkpt>
<trkpt lat="48.514803" lon="-121.215586"><ele>1148.0</ele></trkpt>
<trkpt lat="48.514720" lon="-121.215544"><ele>1150.0</ele></trkpt>
<trkpt lat="48.514785" lon="-121.215541"><ele>1152.2</ele></trkpt>
<trkpt lat="48.514820" lon="-121.215443"><ele>1149.4</ele></trkpt>
<trkpt lat="48.514817" lon="-121.215268"><ele>1151.9</ele></trkpt>
<trkpt lat="48.514967" lon="-121.215179"><ele>1154.7</ele></trkpt>
<trkpt lat="48.514989" lon="-121.215044"><ele>1153.8</ele></trkpt>
<trkpt lat="48.515172" lon="-121.214721"><ele>1159.0</ele></trkpt>
<trkpt lat="48.515246" lon="-121.214671"><ele>1161.0</ele></trkpt>
<trkpt lat="48.515276" lon="-121.214419"><ele>1160.6</ele></trkpt>
<trkpt lat="48.515441" lon="-121.214273"><ele>1162.6</ele></trkpt>
<trkpt lat="48.515504" lon="-121.214068"><ele>1164.9</ele></trkpt>
<trkpt lat="48.515557" lon="-121.214058"><ele>1167.6</ele></trkpt>
<trkpt lat="48.515679" lon="-121.213593"><ele>1171.4</ele></trkpt>
<trkpt lat="48.515640" lon="-121.213500"><ele>1170.8</ele></trkpt>
<trkpt lat="48.515760" lon="-121.213133"><ele>1176.4</ele></trkpt>
<trkpt lat="48.515669" lon="-121.213048"><ele>1174.9</ele></trkpt>
<trkpt lat="48.515394" lon="-121.213462"><ele>1190.3</ele></trkpt>
<trkpt lat="48.515471" lon="-121.213243"><ele>1191.9</ele></trkpt>
<trkpt lat="48.515445" lon="-121.212909"><ele>1192.0</ele></trkpt>
<trkpt lat="48.515551" lon="-121.212597"><ele>1204.4</ele></trkpt>
<trkpt lat="48.515517" lon="-121.212547"><ele>1202.4</ele></trkpt>
<trkpt lat="48.515588" lon="-121.212232"><ele>1205.6</ele></trkpt>
<trkpt lat="48.515859" lon="-121.212008"><ele>1211.9</ele></trkpt>
<trkpt lat="48.515927" lon="-121.211782"><ele>1213.1</ele></trkpt>
<trkpt lat="48.515799" lon="-121.211804"><ele>1215.6</ele></trkpt>
<trkpt lat="48.515590" lon="-121.211554"><ele>1228.1</ele></trkpt>
<trkpt lat="48.515580" lon="-121.211468"><ele>1234.6</ele></trkpt>
<trkpt lat="48.515650" lon="-121.211484"><ele>1235.7</ele></trkpt>
<trkpt lat="48.515649" lon="-121.211417"><ele>1235.0</ele></trkpt>
<trkpt lat="48.515537" lon="-121.211304"><ele>1236.0</ele></trkpt>
<trkpt lat="48.515627" lon="-121.211341"><ele>1241.0</ele></trkpt>
<trkpt lat="48.515694" lon="-121.211205"><ele>1242.2</ele></trkpt>
<trkpt lat="48.515568" lon="-121.211018"><ele>1249.5</ele></trkpt>
<trkpt lat="48.515642" lon="-121.210944"><ele>1251.4</ele></trkpt>
<trkpt lat="48.515652" lon="-121.210841"><ele>1254.1</ele></trkpt>
<trkpt lat="48.515556" lon="-121.210671"><ele>1251.9</ele></trkpt>
<trkpt lat="48.515512" lon="-121.210469"><ele>1256.7</ele></trkpt>
<trkpt lat="48.515139" lon="-121.210696"><ele>1269.9</ele></trkpt>
<trkpt lat="48.515013" lon="-121.210880"><ele>1269.6</ele></trkpt>
<trkpt lat="48.514851" lon="-121.210988"><ele>1279.1</ele></trkpt>
<trkpt lat="48.514969" lon="-121.210791"><ele>1276.2</ele></trkpt>
<trkpt lat="48.515021" lon="-121.210372"><ele>1277.4</ele></trkpt>
<trkpt lat="48.515314" lon="-121.209785"><ele>1286.7</ele></trkpt>
<trkpt lat="48.515426" lon="-121.209258"><ele>1292.9</ele></trkpt>
<trkpt lat="48.515412" lon="-121.209052"><ele>1294.3</ele></trkpt>
<trkpt lat="48.515497" lon="-121.208854"><ele>1292.6</ele></trkpt>
<trkpt lat="48.515465" lon="-121.208674"><ele>1293.7</ele></trkpt>
<trkpt lat="48.515503" lon="-121.208463"><ele>1295.0</ele></trkpt>
<trkpt lat="48.515406" lon="-121.208010"><ele>1304.0</ele></trkpt>
<trkpt lat="48.515406" lon="-121.207730"><ele>1307.9</ele></trkpt>
<trkpt lat="48.515364" lon="-121.207692"><ele>1307.8</ele></trkpt>
<trkpt lat="48.515265" lon="-121.207742"><ele>1312.3</ele></trkpt>
<trkpt lat="48.515194" lon="-121.207353"><ele>1315.4</ele></trkpt>
<trkpt lat="48.515205" lon="-121.207002"><ele>1320.3</ele></trkpt>
<trkpt lat="48.515108" lon="-121.206586"><ele>1324.3</ele></trkpt>
<trkpt lat="48.515237" lon="-121.206450"><ele>1326.1</ele></trkpt>
<trkpt lat="48.515304" lon="-121.206088"><ele>1329.1</ele></trkpt>
<trkpt lat="48.515348" lon="-121.206093"><ele>1330.7</ele></trkpt>
<trkpt lat="48.515405" lon="-121.205963"><ele>1331.3</ele></trkpt>
<trkpt lat="48.515390" lon="-121.205891"><ele>1330.9</ele></trkpt>
<trkpt lat="48.515458" lon="-121.205671"><ele>1337.8</ele></trkpt>
<trkpt lat="48.515292" lon="-121.205290"><ele>1344.6</ele></trkpt>
<trkpt lat="48.515530" lon="-121.205292"><ele>1354.1</ele></trkpt>
<trkpt lat="48.515681" lon="-121.205194"><ele>1352.9</ele></trkpt>
<trkpt lat="48.515900" lon="-121.205315"><ele>1363.5</ele></trkpt>
<trkpt lat="48.515979" lon="-121.205503"><ele>1364.3</ele></trkpt>
<trkpt lat="48.516004" lon="-121.205449"><ele>1363.5</ele></trkpt>
<trkpt lat="48.515934" lon="-121.204986"><ele>1372.9</ele></trkpt>
<trkpt lat="48.515624" lon="-121.204546"><ele>1382.7</ele></trkpt>
<trkpt lat="48.515495" lon="-121.204269"><ele>1387.4</ele></trkpt>
<trkpt lat="48.515512" lon="-121.204185"><ele>1389.9</ele></trkpt>
<trkpt lat="48.515123" lon="-121.203501"><ele>1403.9</ele></trkpt>
<trkpt lat="48.515314" lon="-121.203641"><ele>1406.5</ele></trkpt>
<trkpt lat="48.515335" lon="-121.203594"><ele>1408.1</ele></trkpt>
<trkpt lat="48.515071" lon="-121.203156"><ele>1413.0</ele></trkpt>
<trkpt lat="48.514982" lon="-121.202515"><ele>1423.3</ele></trkpt>
<trkpt lat="48.514722" lon="-121.201906"><ele>1436.4</ele></trkpt>
<trkpt lat="48.514877" lon="-121.201942"><ele>1438.6</ele></trkpt>
<trkpt lat="48.515082" lon="-121.202110"><ele>1442.0</ele></trkpt>
<trkpt lat="48.515386" lon="-121.202555"><ele>1448.9</ele></trkpt>
<trkpt lat="48.515600" lon="-121.202624"><ele>1453.6</ele></trkpt>
<trkpt lat="48.515927" lon="-121.202859"><ele>1459.7</ele></trkpt>
<trkpt lat="48.515615" lon="-121.202238"><ele>1468.8</ele></trkpt>
<trkpt lat="48.515382" lon="-121.201287"><ele>1486.1</ele></trkpt>
<trkpt lat="48.515271" lon="-121.201042"><ele>1491.1</ele></trkpt>
<trkpt lat="48.515118" lon="-121.200865"><ele>1491.1</ele></trkpt>
<trkpt lat="48.514941" lon="-121.200423"><ele>1497.7</ele></trkpt>
<trkpt lat="48.514861" lon="-121.200071"><ele>1503.7</ele></trkpt>
<trkpt lat="48.514826" lon="-121.200072"><ele>1505.7</ele></trkpt>
<trkpt lat="48.514823" lon="-121.199882"><ele>1508.4</ele></trkpt>
<trkpt lat="48.514735" lon="-121.199761"><ele>1508.7</ele></trkpt>
<trkpt lat="48.514708" lon="-121.199324"><ele>1518.0</ele></trkpt>
<trkpt lat="48.514742" lon="-121.199403"><ele>1523.0</ele></trkpt>
<trkpt lat="48.514842" lon="-121.199397"><ele>1525.8</ele></trkpt>
<trkpt lat="48.514977" lon="-121.199544"><ele>1530.0</ele></trkpt>
<trkpt lat="48.515142" lon="-121.199917"><ele>1529.9</ele></trkpt>
<trkpt lat="48.515179" lon="-121.199827"><ele>1529.9</ele></trkpt>
<trkpt lat="48.515132" lon="-121.199539"><ele>1539.1</ele></trkpt>
<trkpt lat="48.515022" lon="-121.199265"><ele>1541.6</ele></trkpt>
<trkpt lat="48.515013" lon="-121.198652"><ele>1553.2</ele></trkpt>
<trkpt lat="48.514920" lon="-121.198487"><ele>1553.6</ele></trkpt>
<trkpt lat="48.514905" lon="-121.198020"><ele>1562.5</ele></trkpt>
<trkpt lat="48.514857" lon="-121.197800"><ele>1565.7</ele></trkpt>
<trkpt lat="48.514684" lon="-121.197539"><ele>1571.9</ele></trkpt>
<trkpt lat="48.514488" lon="-121.197524"><ele>1574.0</ele></trkpt>
<trkpt lat="48.514295" lon="-121.197379"><ele>1580.2</ele></trkpt>
<trkpt lat="48.513967" lon="-121.197259"><ele>1589.6</ele></trkpt>
<trkpt lat="48.514182" lon="-121.197269"><ele>1593.1</ele></trkpt>
<trkpt lat="48.514319" lon="-121.197083"><ele>1595.4</ele></trkpt>
<trkpt lat="48.514488" lon="-121.197007"><ele>1599.3</ele></trkpt>
<trkpt lat="48.514196" lon="-121.196781"><ele>1605.4</ele></trkpt>
<trkpt lat="48.514188" lon="-121.196725"><ele>1605.3</ele></trkpt>
<trkpt lat="48.514153" lon="-121.196751"><ele>1608.2</ele></trkpt>
<trkpt lat="48.514241" lon="-121.196667"><ele>1610.9</ele></trkpt>
<trkpt lat="48.514393" lon="-121.196671"><ele>1613.7</ele></trkpt>
<trkpt lat="48.514332" lon="-121.196489"><ele>1617.7</ele></trkpt>
<trkpt lat="48.514184" lon="-121.196415"><ele>1619.7</ele></trkpt>
<trkpt lat="48.513960" lon="-121.196511"><ele>1622.4</ele></trkpt>
<trkpt lat="48.513841" lon="-121.196431"><ele>1623.5</ele></trkpt>
<trkpt lat="48.513416" lon="-121.196447"><ele>1633.1</ele></trkpt>
<trkpt lat="48.513220" lon="-121.196344"><ele>1636.3</ele></trkpt>
<trkpt lat="48.513081" lon="-121.196735"><ele>1641.3</ele></trkpt>
<trkpt lat="48.512969" lon="-121.196900"><ele>1644.9</ele></trkpt>
<trkpt lat="48.512851" lon="-121.196775"><ele>1651.3</ele></trkpt>
<trkpt lat="48.512848" lon="-121.196637"><ele>1653.5</ele></trkpt>
<trkpt lat="48.512810" lon="-121.196625"><ele>1654.0</ele></trkpt>
<trkpt lat="48.512720" lon="-121.196825"><ele>1656.4</ele></trkpt>
<trkpt lat="48.512511" lon="-121.196817"><ele>1661.3</ele></trkpt>
<trkpt lat="48.512304" lon="-121.197114"><ele>1665.8</ele></trkpt>
<trkpt lat="48.512144" lon="-121.197189"><ele>1667.3</ele></trkpt>
<trkpt lat="48.511988" lon="-121.197539"><ele>1668.1</ele></trkpt>
<trkpt lat="48.511400" lon="-121.197872"><ele>1676.7</ele></trkpt>
<trkpt lat="48.511275" lon="-121.198610"><ele>1680.0</ele></trkpt>
<trkpt lat="48.511157" lon="-121.198758"><ele>1681.0</ele></trkpt>
<trkpt lat="48.511131" lon="-121.199090"><ele>1679.1</ele></trkpt>
<trkpt lat="48.510958" lon="-121.199462"><ele>1678.3</ele></trkpt>
<trkpt lat="48.510871" lon="-121.199532"><ele>1678.8</ele></trkpt>
<trkpt lat="48.510802" lon="-121.199904"><ele>1673.3</ele></trkpt>
<trkpt lat="48.510658" lon="-121.200030"><ele>1671.5</ele></trkpt>
<trkpt lat="48.510555" lon="-121.200262"><ele>1672.1</ele></trkpt>
<trkpt lat="48.510348" lon="-121.200540"><ele>1674.8</ele></trkpt>
<trkpt lat="48.509982" lon="-121.200853"><ele>1678.3</ele></trkpt>
<trkpt lat="48.509972" lon="-121.200954"><ele>1678.3</ele></trkpt>
<trkpt lat="48.509904" lon="-121.200951"><ele>1678.3</ele></trkpt>
<trkpt lat="48.509894" lon="-121.201064"><ele>1677.9</ele></trkpt>
<trkpt lat="48.509746" lon="-121.201177"><ele>1679.5</ele></trkpt>
<trkpt lat="48.509691" lon="-121.201409"><ele>1681.4</ele></trkpt>
<trkpt lat="48.509404" lon="-121.201735"><ele>1682.2</ele></trkpt>
<trkpt lat="48.509198" lon="-121.202253"><ele>1685.9</ele></trkpt>
<trkpt lat="48.509035" lon="-121.202248"><ele>1688.5</ele></trkpt>
<trkpt lat="48.508867" lon="-121.202644"><ele>1688.2</ele></trkpt>
<trkpt lat="48.508766" lon="-121.202733"><ele>1691.4</ele></trkpt>
<trkpt lat="48.508773" lon="-121.202914"><ele>1693.2</ele></trkpt>
<trkpt lat="48.508612" lon="-121.202929"><ele>1696.8</ele></trkpt>
<trkpt lat="48.508563" lon="-121.203118"><ele>1696.7</ele></trkpt>
<trkpt lat="48.508522" lon="-121.203116"><ele>1697.1</ele></trkpt>
<trkpt lat="48.508575" lon="-121.203215"><ele>1692.4</ele></trkpt>
<trkpt lat="48.508520" lon="-121.203348"><ele>1695.3</ele></trkpt>
<trkpt lat="48.508164" lon="-121.203975"><ele>1700.2</ele></trkpt>
<trkpt lat="48.507910" lon="-121.203975"><ele>1704.1</ele></trkpt>
<trkpt lat="48.507845" lon="-121.204112"><ele>1703.5</ele></trkpt>
<trkpt lat="48.507720" lon="-121.204126"><ele>1707.8</ele></trkpt>
<trkpt lat="48.507729" lon="-121.204192"><ele>1708.0</ele></trkpt>
<trkpt lat="48.507653" lon="-121.204275"><ele>1710.5</ele></trkpt>
<trkpt lat="48.507652" lon="-121.204147"><ele>1713.4</ele></trkpt>
<trkpt lat="48.507615" lon="-121.204123"><ele>1713.9</ele></trkpt>
<trkpt lat="48.507483" lon="-121.204204"><ele>1717.4</ele></trkpt>
<trkpt lat="48.507377" lon="-121.204385"><ele>1721.3</ele></trkpt>
<trkpt lat="48.507302" lon="-121.204696"><ele>1722.2</ele></trkpt>
<trkpt lat="48.507222" lon="-121.204712"><ele>1725.1</ele></trkpt>
<trkpt lat="48.507177" lon="-121.204820"><ele>1723.9</ele></trkpt>
<trkpt lat="48.507051" lon="-121.205245"><ele>1722.1</ele></trkpt>
<trkpt lat="48.506906" lon="-121.205392"><ele>1726.7</ele></trkpt>
<trkpt lat="48.506877" lon="-121.205548"><ele>1727.6</ele></trkpt>
<trkpt lat="48.506721" lon="-121.205752"><ele>1729.7</ele></trkpt>
<trkpt lat="48.506703" lon="-121.205844"><ele>1728.8</ele></trkpt>
<trkpt lat="48.506569" lon="-121.205965"><ele>1731.3</ele></trkpt>
<trkpt lat="48.506536" lon="-121.206156"><ele>1732.7</ele></trkpt>
<trkpt lat="48.506463" lon="-121.206283"><ele>1734.4</ele></trkpt>
<trkpt lat="48.506093" lon="-121.206548"><ele>1739.7</ele></trkpt>
<trkpt lat="48.506075" lon="-121.206711"><ele>1740.2</ele></trkpt>
<trkpt lat="48.506028" lon="-121.206761"><ele>1741.3</ele></trkpt>
<trkpt lat="48.506060" lon="-121.207015"><ele>1743.8</ele></trkpt>
<trkpt lat="48.506028" lon="-121.207146"><ele>1745.9</ele></trkpt>
<trkpt lat="48.505837" lon="-121.207351"><ele>1750.2</ele></trkpt>
<trkpt lat="48.505721" lon="-121.207643"><ele>1752.1</ele></trkpt>
<trkpt lat="48.505611" lon="-121.207728"><ele>1756.8</ele></trkpt>
<trkpt lat="48.505667" lon="-121.207624"><ele>1760.9</ele></trkpt>
<trkpt lat="48.505559" lon="-121.207591"><ele>1763.0</ele></trkpt>
<trkpt lat="48.505397" lon="-121.207755"><ele>1765.5</ele></trkpt>
<trkpt lat="48.505360" lon="-121.207872"><ele>1766.7</ele></trkpt>
<trkpt lat="48.505352" lon="-121.207763"><ele>1767.7</ele></trkpt>
<trkpt lat="48.505252" lon="-121.207629"><ele>1771.9</ele></trkpt>
<trkpt lat="48.504995" lon="-121.207781"><ele>1779.7</ele></trkpt>
<trkpt lat="48.504761" lon="-121.207721"><ele>1787.5</ele></trkpt>
<trkpt lat="48.504636" lon="-121.207800"><ele>1789.2</ele></trkpt>
<trkpt lat="48.504611" lon="-121.207883"><ele>1790.7</ele></trkpt>
<trkpt lat="48.504557" lon="-121.207803"><ele>1792.5</ele></trkpt>
<trkpt lat="48.504375" lon="-121.207763"><ele>1797.2</ele></trkpt>
<trkpt lat="48.504143" lon="-121.207866"><ele>1802.5</ele></trkpt>
<trkpt lat="48.503962" lon="-121.207726"><ele>1805.7</ele></trkpt>
<trkpt lat="48.504004" lon="-121.207802"><ele>1807.9</ele></trkpt>
<trkpt lat="48.503993" lon="-121.207751"><ele>1808.2</ele></trkpt>
<trkpt lat="48.504077" lon="-121.207749"><ele>1809.7</ele></trkpt>
<trkpt lat="48.503965" lon="-121.207661"><ele>1811.9</ele></trkpt>
<trkpt lat="48.504011" lon="-121.207556"><ele>1815.6</ele></trkpt>
<trkpt lat="48.503913" lon="-121.207562"><ele>1818.6</ele></trkpt>
<trkpt lat="48.504009" lon="-121.207260"><ele>1825.5</ele></trkpt>
<trkpt lat="48.504011" lon="-121.207191"><ele>1825.9</ele></trkpt>
<trkpt lat="48.503961" lon="-121.207185"><ele>1826.9</ele></trkpt>
<trkpt lat="48.504174" lon="-121.206973"><ele>1830.1</ele></trkpt>
<trkpt lat="48.504196" lon="-121.206912"><ele>1830.6</ele></trkpt>
<trkpt lat="48.504161" lon="-121.206849"><ele>1831.7</ele></trkpt>
<trkpt lat="48.504088" lon="-121.206931"><ele>1833.0</ele></trkpt>
<trkpt lat="48.504058" lon="-121.206867"><ele>1835.4</ele></trkpt>
<trkpt lat="48.503807" lon="-121.206960"><ele>1839.0</ele></trkpt>
<trkpt lat="48.503665" lon="-121.206926"><ele>1841.3</ele></trkpt>
<trkpt lat="48.503492" lon="-121.207018"><ele>1845.5</ele></trkpt>
<trkpt lat="48.503452" lon="-121.207125"><ele>1845.8</ele></trkpt>
<trkpt lat="48.503340" lon="-121.207041"><ele>1849.1</ele></trkpt>
<trkpt lat="48.503264" lon="-121.207153"><ele>1850.5</ele></trkpt>
<trkpt lat="48.503243" lon="-121.206949"><ele>1855.3</ele></trkpt>
<trkpt lat="48.503105" lon="-121.207074"><ele>1857.3</ele></trkpt>
<trkpt lat="48.503071" lon="-121.207177"><ele>1860.1</ele></trkpt>
<trkpt lat="48.503008" lon="-121.207150"><ele>1861.9</ele></trkpt>
<trkpt lat="48.502934" lon="-121.206964"><ele>1866.0</ele></trkpt>
<trkpt lat="48.502875" lon="-121.207021"><ele>1866.9</ele></trkpt>
<trkpt lat="48.502695" lon="-121.207063"><ele>1872.4</ele></trkpt>
<trkpt lat="48.502595" lon="-121.207004"><ele>1874.2</ele></trkpt>
<trkpt lat="48.502542" lon="-121.207058"><ele>1876.3</ele></trkpt>
<trkpt lat="48.502515" lon="-121.207033"><ele>1876.5</ele></trkpt>
<trkpt lat="48.502554" lon="-121.206971"><ele>1878.4</ele></trkpt>
<trkpt lat="48.502519" lon="-121.206916"><ele>1879.7</ele></trkpt>
<trkpt lat="48.502544" lon="-121.206816"><ele>1881.7</ele></trkpt>
<trkpt lat="48.502231" lon="-121.206743"><ele>1886.8</ele></trkpt>
<trkpt lat="48.502072" lon="-121.206933"><ele>1889.4</ele></trkpt>
<trkpt lat="48.501962" lon="-121.206866"><ele>1891.4</ele></trkpt>
<trkpt lat="48.501840" lon="-121.206947"><ele>1893.9</ele></trkpt>
<trkpt lat="48.501196" lon="-121.206837"><ele>1886.8</ele></trkpt>
<trkpt lat="48.501023" lon="-121.206886"><ele>1883.2</ele></trkpt>
<trkpt lat="48.500974" lon="-121.206985"><ele>1883.8</ele></trkpt>
<trkpt lat="48.500812" lon="-121.206883"><ele>1882.6</ele></trkpt>
<trkpt lat="48.500799" lon="-121.206937"><ele>1882.7</ele></trkpt>
<trkpt lat="48.500654" lon="-121.206956"><ele>1886.3</ele></trkpt>
<trkpt lat="48.500520" lon="-121.206914"><ele>1888.5</ele></trkpt>
<trkpt lat="48.500493" lon="-121.206991"><ele>1889.0</ele></trkpt>
<trkpt lat="48.500371" lon="-121.206870"><ele>1892.8</ele></trkpt>
<trkpt lat="48.500401" lon="-121.207036"><ele>1894.1</ele></trkpt>
<trkpt lat="48.500365" lon="-121.207042"><ele>1895.1</ele></trkpt>
<trkpt lat="48.500218" lon="-121.206914"><ele>1898.4</ele></trkpt>
<trkpt lat="48.499914" lon="-121.206885"><ele>1902.6</ele></trkpt>
<trkpt lat="48.499816" lon="-121.206930"><ele>1904.6</ele></trkpt>
<trkpt lat="48.499618" lon="-121.206889"><ele>1906.7</ele></trkpt>
<trkpt lat="48.499450" lon="-121.207020"><ele>1909.2</ele></trkpt>
<trkpt lat="48.499359" lon="-121.206885"><ele>1913.5</ele></trkpt>
<trkpt lat="48.498885" lon="-121.206811"><ele>1917.4</ele></trkpt>
<trkpt lat="48.498730" lon="-121.207029"><ele>1919.2</ele></trkpt>
<trkpt lat="48.498667" lon="-121.206868"><ele>1923.0</ele></trkpt>
<trkpt lat="48.498586" lon="-121.206874"><ele>1925.5</ele></trkpt>
<trkpt lat="48.498577" lon="-121.207009"><ele>1931.7</ele></trkpt>
<trkpt lat="48.498328" lon="-121.206807"><ele>1938.9</ele></trkpt>
<trkpt lat="48.498218" lon="-121.206895"><ele>1944.4</ele></trkpt>
<trkpt lat="48.498206" lon="-121.206770"><ele>1946.9</ele></trkpt>
<trkpt lat="48.498056" lon="-121.206721"><ele>1951.0</ele></trkpt>
<trkpt lat="48.498007" lon="-121.206738"><ele>1952.2</ele></trkpt>
<trkpt lat="48.497953" lon="-121.206897"><ele>1952.8</ele></trkpt>
<trkpt lat="48.497929" lon="-121.206750"><ele>1957.1</ele></trkpt>
<trkpt lat="48.497872" lon="-121.206783"><ele>1958.6</ele></trkpt>
<trkpt lat="48.497852" lon="-121.206704"><ele>1960.2</ele></trkpt>
<trkpt lat="48.497730" lon="-121.206626"><ele>1964.5</ele></trkpt>
<trkpt lat="48.497757" lon="-121.206586"><ele>1965.9</ele></trkpt>
<trkpt lat="48.497696" lon="-121.206421"><ele>1967.0</ele></trkpt>
<trkpt lat="48.497564" lon="-121.206376"><ele>1968.1</ele></trkpt>
<trkpt lat="48.497516" lon="-121.205922"><ele>1978.9</ele></trkpt>
<trkpt lat="48.497361" lon="-121.205742"><ele>1978.5</ele></trkpt>
<trkpt lat="48.497147" lon="-121.205335"><ele>1976.5</ele></trkpt>
<trkpt lat="48.497093" lon="-121.204970"><ele>1982.3</ele></trkpt>
<trkpt lat="48.497007" lon="-121.204822"><ele>1984.5</ele></trkpt>
<trkpt lat="48.497052" lon="-121.204809"><ele>1985.1</ele></trkpt>
<trkpt lat="48.497034" lon="-121.204711"><ele>1984.9</ele></trkpt>
<trkpt lat="48.496857" lon="-121.204744"><ele>1989.2</ele></trkpt>
<trkpt lat="48.496811" lon="-121.204555"><ele>1991.9</ele></trkpt>
<trkpt lat="48.496833" lon="-121.204186"><ele>2001.3</ele></trkpt>
<trkpt lat="48.496755" lon="-121.204161"><ele>2010.1</ele></trkpt>
<trkpt lat="48.496764" lon="-121.204058"><ele>2013.4</ele></trkpt>
<trkpt lat="48.496679" lon="-121.203895"><ele>2013.8</ele></trkpt>
<trkpt lat="48.496653" lon="-121.203938"><ele>2012.8</ele></trkpt>
<trkpt lat="48.496618" lon="-121.203891"><ele>2012.8</ele></trkpt>
<trkpt lat="48.496669" lon="-121.203911"><ele>2011.2</ele></trkpt>
<trkpt lat="48.496590" lon="-121.203742"><ele>2009.0</ele></trkpt>
<trkpt lat="48.496556" lon="-121.203769"><ele>2006.9</ele></trkpt>
<trkpt lat="48.496608" lon="-121.203916"><ele>2011.6</ele></trkpt>
<trkpt lat="48.496667" lon="-121.203918"><ele>2011.5</ele></trkpt>
<trkpt lat="48.496602" lon="-121.203974"><ele>2012.9</ele></trkpt>
<trkpt lat="48.496604" lon="-121.204150"><ele>2014.3</ele></trkpt>
<trkpt lat="48.496495" lon="-121.204173"><ele>2022.9</ele></trkpt>
<trkpt lat="48.496387" lon="-121.204057"><ele>2018.1</ele></trkpt>
<trkpt lat="48.496152" lon="-121.204024"><ele>2021.7</ele></trkpt>
<trkpt lat="48.496010" lon="-121.204150"><ele>2026.4</ele></trkpt>
<trkpt lat="48.495767" lon="-121.204177"><ele>2033.1</ele></trkpt>
<trkpt lat="48.495578" lon="-121.204277"><ele>2037.3</ele></trkpt>
<trkpt lat="48.495559" lon="-121.204228"><ele>2038.7</ele></trkpt>
<trkpt lat="48.495514" lon="-121.204285"><ele>2044.5</ele></trkpt>
<trkpt lat="48.495394" lon="-121.204253"><ele>2048.4</ele></trkpt>
<trkpt lat="48.495636" lon="-121.204501"><ele>2054.5</ele></trkpt>
<trkpt lat="48.495158" lon="-121.204486"><ele>2067.7</ele></trkpt>
<trkpt lat="48.495027" lon="-121.204420"><ele>2072.6</ele></trkpt>
<trkpt lat="48.495169" lon="-121.204612"><ele>2078.3</ele></trkpt>
<trkpt lat="48.495161" lon="-121.204692"><ele>2081.5</ele></trkpt>
<trkpt lat="48.495257" lon="-121.204713"><ele>2084.0</ele></trkpt>
<trkpt lat="48.495343" lon="-121.204861"><ele>2090.7</ele></trkpt>
<trkpt lat="48.495328" lon="-121.205045"><ele>2094.6</ele></trkpt>
<trkpt lat="48.495394" lon="-121.205254"><ele>2102.0</ele></trkpt>
<trkpt lat="48.495472" lon="-121.205195"><ele>2103.9</ele></trkpt>
<trkpt lat="48.495389" lon="-121.205243"><ele>2104.5</ele></trkpt>
<trkpt lat="48.495430" lon="-121.205272"><ele>2103.2</ele></trkpt>
<trkpt lat="48.495396" lon="-121.205257"><ele>2102.4</ele></trkpt>
<trkpt lat="48.495470" lon="-121.205173"><ele>2105.0</ele></trkpt>
<trkpt lat="48.495401" lon="-121.205239"><ele>2104.1</ele></trkpt>
<trkpt lat="48.495375" lon="-121.205204"><ele>2102.3</ele></trkpt>
<trkpt lat="48.495411" lon="-121.205345"><ele>2100.5</ele></trkpt>
<trkpt lat="48.495268" lon="-121.205010"><ele>2093.6</ele></trkpt>
<trkpt lat="48.495215" lon="-121.205057"><ele>2089.6</ele></trkpt>
<trkpt lat="48.495242" lon="-121.205143"><ele>2087.7</ele></trkpt>
<trkpt lat="48.495100" lon="-121.205294"><ele>2083.2</ele></trkpt>
<trkpt lat="48.495017" lon="-121.205242"><ele>2082.5</ele></trkpt>
<trkpt lat="48.494931" lon="-121.205339"><ele>2077.6</ele></trkpt>
<trkpt lat="48.494909" lon="-121.205289"><ele>2076.6</ele></trkpt>
<trkpt lat="48.494836" lon="-121.205371"><ele>2073.9</ele></trkpt>
<trkpt lat="48.494841" lon="-121.205328"><ele>2072.9</ele></trkpt>
<trkpt lat="48.494762" lon="-121.205357"><ele>2070.0</ele></trkpt>
<trkpt lat="48.494770" lon="-121.205411"><ele>2068.9</ele></trkpt>
<trkpt lat="48.494740" lon="-121.205404"><ele>2069.5</ele></trkpt>
<trkpt lat="48.494771" lon="-121.205384"><ele>2071.4</ele></trkpt>
<trkpt lat="48.494757" lon="-121.205266"><ele>2071.1</ele></trkpt>
<trkpt lat="48.494686" lon="-121.205364"><ele>2063.9</ele></trkpt>
<trkpt lat="48.494648" lon="-121.205381"><ele>2064.4</ele></trkpt>
<trkpt lat="48.494657" lon="-121.205340"><ele>2064.2</ele></trkpt>
<trkpt lat="48.494648" lon="-121.205381"><ele>2064.4</ele></trkpt>
<trkpt lat="48.494686" lon="-121.205364"><ele>2063.9</ele></trkpt>
<trkpt lat="48.494757" lon="-121.205266"><ele>2071.1</ele></trkpt>
<trkpt lat="48.494771" lon="-121.205384"><ele>2071.4</ele></trkpt>
<trkpt lat="48.494740" lon="-121.205404"><ele>2069.5</ele></trkpt>
<trkpt lat="48.494770" lon="-121.205411"><ele>2068.9</ele></trkpt>
<trkpt lat="48.494762" lon="-121.205357"><ele>2070.0</ele></trkpt>
<trkpt lat="48.494841" lon="-121.205328"><ele>2072.9</ele></trkpt>
<trkpt lat="48.494836" lon="-121.205371"><ele>2073.9</ele></trkpt>
<trkpt lat="48.494909" lon="-121.205289"><ele>2076.6</ele></trkpt>
<trkpt lat="48.494931" lon="-121.205339"><ele>2077.6</ele></trkpt>
<trkpt lat="48.495017" lon="-121.205242"><ele>2082.5</ele></trkpt>
<trkpt lat="48.495100" lon="-121.205294"><ele>2083.2</ele></trkpt>
<trkpt lat="48.495242" lon="-121.205143"><ele>2087.7</ele></trkpt>
<trkpt lat="48.495215" lon="-121.205057"><ele>2089.6</ele></trkpt>
<trkpt lat="48.495268" lon="-121.205010"><ele>2093.6</ele></trkpt>
<trkpt lat="48.495411" lon="-121.205345"><ele>2100.5</ele></trkpt>
<trkpt lat="48.495375" lon="-121.205204"><ele>2102.3</ele></trkpt>
<trkpt lat="48.495401" lon="-121.205239"><ele>2104.1</ele></trkpt>
<trkpt lat="48.495470" lon="-121.205173"><ele>2105.0</ele></trkpt>
<trkpt lat="48.495396" lon="-121.205257"><ele>2102.4</ele></trkpt>
<trkpt lat="48.495430" lon="-121.205272"><ele>2103.2</ele></trkpt>
<trkpt lat="48.495389" lon="-121.205243"><ele>2104.5</ele></trkpt>
<trkpt lat="48.495472" lon="-121.205195"><ele>2103.9</ele></trkpt>
<trkpt lat="48.495394" lon="-121.205254"><ele>2102.0</ele></trkpt>
<trkpt lat="48.495328" lon="-121.205045"><ele>2094.6</ele></trkpt>
<trkpt lat="48.495343" lon="-121.204861"><ele>2090.7</ele></trkpt>
<trkpt lat="48.495257" lon="-121.204713"><ele>2084.0</ele></trkpt>
<trkpt lat="48.495161" lon="-121.204692"><ele>2081.5</ele></trkpt>
<trkpt lat="48.495169" lon="-121.204612"><ele>2078.3</ele></trkpt>
<trkpt lat="48.495027" lon="-121.204420"><ele>2072.6</ele></trkpt>
<trkpt lat="48.495158" lon="-121.204486"><ele>2067.7</ele></trkpt>
<trkpt lat="48.495636" lon="-121.204501"><ele>2054.5</ele></trkpt>
<trkpt lat="48.495394" lon="-121.204253"><ele>2048.4</ele></trkpt>
<trkpt lat="48.495514" lon="-121.204285"><ele>2044.5</ele></trkpt>
<trkpt lat="48.495559" lon="-121.204228"><ele>2038.7</ele></trkpt>
<trkpt lat="48.495578" lon="-121.204277"><ele>2037.3</ele></trkpt>
<trkpt lat="48.495767" lon="-121.204177"><ele>2033.1</ele></trkpt>
<trkpt lat="48.496010" lon="-121.204150"><ele>2026.4</ele></trkpt>
<trkpt lat="48.496152" lon="-121.204024"><ele>2021.7</ele></trkpt>
<trkpt lat="48.496387" lon="-121.204057"><ele>2018.1</ele></trkpt>
<trkpt lat="48.496495" lon="-121.204173"><ele>2022.9</ele></trkpt>
<trkpt lat="48.496604" lon="-121.204150"><ele>2014.3</ele></trkpt>
<trkpt lat="48.496602" lon="-121.203974"><ele>2012.9</ele></trkpt>
<trkpt lat="48.496667" lon="-121.203918"><ele>2011.5</ele></trkpt>
<trkpt lat="48.496608" lon="-121.203916"><ele>2011.6</ele></trkpt>
<trkpt lat="48.496556" lon="-121.203769"><ele>2006.9</ele></trkpt>
<trkpt lat="48.496590" lon="-121.203742"><ele>2009.0</ele></trkpt>
<trkpt lat="48.496669" lon="-121.203911"><ele>2011.2</ele></trkpt>
<trkpt lat="48.496618" lon="-121.203891"><ele>2012.8</ele></trkpt>
<trkpt lat="48.496653" lon="-121.203938"><ele>2012.8</ele></trkpt>
<trkpt lat="48.496679" lon="-121.203895"><ele>2013.8</ele></trkpt>
<trkpt lat="48.496764" lon="-121.204058"><ele>2013.4</ele></trkpt>
<trkpt lat="48.496755" lon="-121.204161"><ele>2010.1</ele></trkpt>
<trkpt lat="48.496833" lon="-121.204186"><ele>2001.3</ele></trkpt>
<trkpt lat="48.496811" lon="-121.204555"><ele>1991.9</ele></trkpt>
<trkpt lat="48.496857" lon="-121.204744"><ele>1989.2</ele></trkpt>
<trkpt lat="48.497034" lon="-121.204711"><ele>1984.9</ele></trkpt>
<trkpt lat="48.497052" lon="-121.204809"><ele>1985.1</ele></trkpt>
<trkpt lat="48.497007" lon="-121.204822"><ele>1984.5</ele></trkpt>
<trkpt lat="48.497093" lon="-121.204970"><ele>1982.3</ele></trkpt>
<trkpt lat="48.497147" lon="-121.205335"><ele>1976.5</ele></trkpt>
<trkpt lat="48.497361" lon="-121.205742"><ele>1978.5</ele></trkpt>
<trkpt lat="48.497516" lon="-121.205922"><ele>1978.9</ele></trkpt>
<trkpt lat="48.497564" lon="-121.206376"><ele>1968.1</ele></trkpt>
<trkpt lat="48.497696" lon="-121.206421"><ele>1967.0</ele></trkpt>
<trkpt lat="48.497757" lon="-121.206586"><ele>1965.9</ele></trkpt>
<trkpt lat="48.497730" lon="-121.206626"><ele>1964.5</ele></trkpt>
<trkpt lat="48.497852" lon="-121.206704"><ele>1960.2</ele></trkpt>
<trkpt lat="48.497872" lon="-121.206783"><ele>1958.6</ele></trkpt>
<trkpt lat="48.497929" lon="-121.206750"><ele>1957.1</ele></trkpt>
<trkpt lat="48.497953" lon="-121.206897"><ele>1952.8</ele></trkpt>
<trkpt lat="48.498007" lon="-121.206738"><ele>1952.2</ele></trkpt>
<trkpt lat="48.498056" lon="-121.206721"><ele>1951.0</ele></trkpt>
<trkpt lat="48.498206" lon="-121.206770"><ele>1946.9</ele></trkpt>
<trkpt lat="48.498218" lon="-121.206895"><ele>1944.4</ele></trkpt>
<trkpt lat="48.498328" lon="-121.206807"><ele>1938.9</ele></trkpt>
<trkpt lat="48.498577" lon="-121.207009"><ele>1931.7</ele></trkpt>
<trkpt lat="48.498586" lon="-121.206874"><ele>1925.5</ele></trkpt>
<trkpt lat="48.498667" lon="-121.206868"><ele>1923.0</ele></trkpt>
<trkpt lat="48.498730" lon="-121.207029"><ele>1919.2</ele></trkpt>
<trkpt lat="48.498885" lon="-121.206811"><ele>1917.4</ele></trkpt>
<trkpt lat="48.499359" lon="-121.206885"><ele>1913.5</ele></trkpt>
<trkpt lat="48.499450" lon="-121.207020"><ele>1909.2</ele></trkpt>
<trkpt lat="48.499618" lon="-121.206889"><ele>1906.7</ele></trkpt>
<trkpt lat="48.499816" lon="-121.206930"><ele>1904.6</ele></trkpt>
<trkpt lat="48.499914" lon="-121.206885"><ele>1902.6</ele></trkpt>
<trkpt lat="48.500218" lon="-121.206914"><ele>1898.4</ele></trkpt>
<trkpt lat="48.500365" lon="-121.207042"><ele>1895.1</ele></trkpt>
<trkpt lat="48.500401" lon="-121.207036"><ele>1894.1</ele></trkpt>
<trkpt lat="48.500371" lon="-121.206870"><ele>1892.8</ele></trkpt>
<trkpt lat="48.500493" lon="-121.206991"><ele>1889.0</ele></trkpt>
<trkpt lat="48.500520" lon="-121.206914"><ele>1888.5</ele></trkpt>
<trkpt lat="48.500654" lon="-121.206956"><ele>1886.3</ele></trkpt>
<trkpt lat="48.500799" lon="-121.206937"><ele>1882.7</ele></trkpt>
<trkpt lat="48.500812" lon="-121.206883"><ele>1882.6</ele></trkpt>
<trkpt lat="48.500974" lon="-121.206985"><ele>1883.8</ele></trkpt>
<trkpt lat="48.501023" lon="-121.206886"><ele>1883.2</ele></trkpt>
<trkpt lat="48.501196" lon="-121.206837"><ele>1886.8</ele></trkpt>
<trkpt lat="48.501840" lon="-121.206947"><ele>1893.9</ele></trkpt>
<trkpt lat="48.501962" lon="-121.206866"><ele>1891.4</ele></trkpt>
<trkpt lat="48.502072" lon="-121.206933"><ele>1889.4</ele></trkpt>
<trkpt lat="48.502231" lon="-121.206743"><ele>1886.8</ele></trkpt>
<trkpt lat="48.502544" lon="-121.206816"><ele>1881.7</ele></trkpt>
<trkpt lat="48.502519" lon="-121.206916"><ele>1879.7</ele></trkpt>
<trkpt lat="48.502554" lon="-121.206971"><ele>1878.4</ele></trkpt>
<trkpt lat="48.502515" lon="-121.207033"><ele>1876.5</ele></trkpt>
<trkpt lat="48.502542" lon="-121.207058"><ele>1876.3</ele></trkpt>
<trkpt lat="48.502595" lon="-121.207004"><ele>1874.2</ele></trkpt>
<trkpt lat="48.502695" lon="-121.207063"><ele>1872.4</ele></trkpt>
<trkpt lat="48.502875" lon="-121.207021"><ele>1866.9</ele></trkpt>
<trkpt lat="48.502934" lon="-121.206964"><ele>1866.0</ele></trkpt>
<trkpt lat="48.503008" lon="-121.207150"><ele>1861.9</ele></trkpt>
<trkpt lat="48.503071" lon="-121.207177"><ele>1860.1</ele></trkpt>
<trkpt lat="48.503105" lon="-121.207074"><ele>1857.3</ele></trkpt>
<trkpt lat="48.503243" lon="-121.206949"><ele>1855.3</ele></trkpt>
<trkpt lat="48.503264" lon="-121.207153"><ele>1850.5</ele></trkpt>
<trkpt lat="48.503340" lon="-121.207041"><ele>1849.1</ele></trkpt>
<trkpt lat="48.503452" lon="-121.207125"><ele>1845.8</ele></trkpt>
<trkpt lat="48.503492" lon="-121.207018"><ele>1845.5</ele></trkpt>
<trkpt lat="48.503665" lon="-121.206926"><ele>1841.3</ele></trkpt>
<trkpt lat="48.503807" lon="-121.206960"><ele>1839.0</ele></trkpt>
<trkpt lat="48.504058" lon="-121.206867"><ele>1835.4</ele></trkpt>
<trkpt lat="48.504088" lon="-121.206931"><ele>1833.0</ele></trkpt>
<trkpt lat="48.504161" lon="-121.206849"><ele>1831.7</ele></trkpt>
<trkpt lat="48.504196" lon="-121.206912"><ele>1830.6</ele></trkpt>
<trkpt lat="48.504174" lon="-121.206973"><ele>1830.1</ele></trkpt>
<trkpt lat="48.503961" lon="-121.207185"><ele>1826.9</ele></trkpt>
<trkpt lat="48.504011" lon="-121.207191"><ele>1825.9</ele></trkpt>
<trkpt lat="48.504009" lon="-121.207260"><ele>1825.5</ele></trkpt>
<trkpt lat="48.503913" lon="-121.207562"><ele>1818.6</ele></trkpt>
<trkpt lat="48.504011" lon="-121.207556"><ele>1815.6</ele></trkpt>
<trkpt lat="48.503965" lon="-121.207661"><ele>1811.9</ele></trkpt>
<trkpt lat="48.504077" lon="-121.207749"><ele>1809.7</ele></trkpt>
<trkpt lat="48.503993" lon="-121.207751"><ele>1808.2</ele></trkpt>
<trkpt lat="48.504004" lon="-121.207802"><ele>1807.9</ele></trkpt>
<trkpt lat="48.503962" lon="-121.207726"><ele>1805.7</ele></trkpt>
<trkpt lat="48.504143" lon="-121.207866"><ele>1802.5</ele></trkpt>
<trkpt lat="48.504375" lon="-121.207763"><ele>1797.2</ele></trkpt>
<trkpt lat="48.504557" lon="-121.207803"><ele>1792.5</ele></trkpt>
<trkpt lat="48.504611" lon="-121.207883"><ele>1790.7</ele></trkpt>
<trkpt lat="48.504636" lon="-121.207800"><ele>1789.2</ele></trkpt>
<trkpt lat="48.504761" lon="-121.207721"><ele>1787.5</ele></trkpt>
<trkpt lat="48.504995" lon="-121.207781"><ele>1779.7</ele></trkpt>
<trkpt lat="48.505252" lon="-121.207629"><ele>1771.9</ele></trkpt>
<trkpt lat="48.505352" lon="-121.207763"><ele>1767.7</ele></trkpt>
<trkpt lat="48.505360" lon="-121.207872"><ele>1766.7</ele></trkpt>
<trkpt lat="48.505397" lon="-121.207755"><ele>1765.5</ele></trkpt>
<trkpt lat="48.505559" lon="-121.207591"><ele>1763.0</ele></trkpt>
<trkpt lat="48.505667" lon="-121.207624"><ele>1760.9</ele></trkpt>
<trkpt lat="48.505611" lon="-121.207728"><ele>1756.8</ele></trkpt>
<trkpt lat="48.505721" lon="-121.207643"><ele>1752.1</ele></trkpt>
<trkpt lat="48.505837" lon="-121.207351"><ele>1750.2</ele></trkpt>
<trkpt lat="48.506028" lon="-121.207146"><ele>1745.9</ele></trkpt>
<trkpt lat="48.506060" lon="-121.207015"><ele>1743.8</ele></trkpt>
<trkpt lat="48.506028" lon="-121.206761"><ele>1741.3</ele></trkpt>
<trkpt lat="48.506075" lon="-121.206711"><ele>1740.2</ele></trkpt>
<trkpt lat="48.506093" lon="-121.206548"><ele>1739.7</ele></trkpt>
<trkpt lat="48.506463" lon="-121.206283"><ele>1734.4</ele></trkpt>
<trkpt lat="48.506536" lon="-121.206156"><ele>1732.7</ele></trkpt>
<trkpt lat="48.506569" lon="-121.205965"><ele>1731.3</ele></trkpt>
<trkpt lat="48.506703" lon="-121.205844"><ele>1728.8</ele></trkpt>
<trkpt lat="48.506721" lon="-121.205752"><ele>1729.7</ele></trkpt>
<trkpt lat="48.506877" lon="-121.205548"><ele>1727.6</ele></trkpt>
<trkpt lat="48.506906" lon="-121.205392"><ele>1726.7</ele></trkpt>
<trkpt lat="48.507051" lon="-121.205245"><ele>1722.1</ele></trkpt>
<trkpt lat="48.507177" lon="-121.204820"><ele>1723.9</ele></trkpt>
<trkpt lat="48.507222" lon="-121.204712"><ele>1725.1</ele></trkpt>
<trkpt lat="48.507302" lon="-121.204696"><ele>1722.2</ele></trkpt>
<trkpt lat="48.507377" lon="-121.204385"><ele>1721.3</ele></trkpt>
<trkpt lat="48.507483" lon="-121.204204"><ele>1717.4</ele></trkpt>
<trkpt lat="48.507615" lon="-121.204123"><ele>1713.9</ele></trkpt>
<trkpt lat="48.507652" lon="-121.204147"><ele>1713.4</ele></trkpt>
<trkpt lat="48.507653" lon="-121.204275"><ele>1710.5</ele></trkpt>
<trkpt lat="48.507729" lon="-121.204192"><ele>1708.0</ele></trkpt>
<trkpt lat="48.507720" lon="-121.204126"><ele>1707.8</ele></trkpt>
<trkpt lat="48.507845" lon="-121.204112"><ele>1703.5</ele></trkpt>
<trkpt lat="48.507910" lon="-121.203975"><ele>1704.1</ele></trkpt>
<trkpt lat="48.508164" lon="-121.203975"><ele>1700.2</ele></trkpt>
<trkpt lat="48.508520" lon="-121.203348"><ele>1695.3</ele></trkpt>
<trkpt lat="48.508575" lon="-121.203215"><ele>1692.4</ele></trkpt>
<trkpt lat="48.508522" lon="-121.203116"><ele>1697.1</ele></trkpt>
<trkpt lat="48.508563" lon="-121.203118"><ele>1696.7</ele></trkpt>
<trkpt lat="48.508612" lon="-121.202929"><ele>1696.8</ele></trkpt>
<trkpt lat="48.508773" lon="-121.202914"><ele>1693.2</ele></trkpt>
<trkpt lat="48.508766" lon="-121.202733"><ele>1691.4</ele></trkpt>
<trkpt lat="48.508867" lon="-121.202644"><ele>1688.2</ele></trkpt>
<trkpt lat="48.509035" lon="-121.202248"><ele>1688.5</ele></trkpt>
<trkpt lat="48.509198" lon="-121.202253"><ele>1685.9</ele></trkpt>
<trkpt lat="48.509404" lon="-121.201735"><ele>1682.2</ele></trkpt>
<trkpt lat="48.509691" lon="-121.201409"><ele>1681.4</ele></trkpt>
<trkpt lat="48.509746" lon="-121.201177"><ele>1679.5</ele></trkpt>
<trkpt lat="48.509894" lon="-121.201064"><ele>1677.9</ele></trkpt>
<trkpt lat="48.509904" lon="-121.200951"><ele>1678.3</ele></trkpt>
<trkpt lat="48.509972" lon="-121.200954"><ele>1678.3</ele></trkpt>
<trkpt lat="48.509982" lon="-121.200853"><ele>1678.3</ele></trkpt>
<trkpt lat="48.510348" lon="-121.200540"><ele>1674.8</ele></trkpt>
<trkpt lat="48.510555" lon="-121.200262"><ele>1672.1</ele></trkpt>
<trkpt lat="48.510658" lon="-121.200030"><ele>1671.5</ele></trkpt>
<trkpt lat="48.510802" lon="-121.199904"><ele>1673.3</ele></trkpt>
<trkpt lat="48.510871" lon="-121.199532"><ele>1678.8</ele></trkpt>
<trkpt lat="48.510958" lon="-121.199462"><ele>1678.3</ele></trkpt>
<trkpt lat="48.511131" lon="-121.199090"><ele>1679.1</ele></trkpt>
<trkpt lat="48.511157" lon="-121.198758"><ele>1681.0</ele></trkpt>
<trkpt lat="48.511275" lon="-121.198610"><ele>1680.0</ele></trkpt>
<trkpt lat="48.511400" lon="-121.197872"><ele>1676.7</ele></trkpt>
<trkpt lat="48.511988" lon="-121.197539"><ele>1668.1</ele></trkpt>
<trkpt lat="48.512144" lon="-121.197189"><ele>1667.3</ele></trkpt>
<trkpt lat="48.512304" lon="-121.197114"><ele>1665.8</ele></trkpt>
<trkpt lat="48.512511" lon="-121.196817"><ele>1661.3</ele></trkpt>
<trkpt lat="48.512720" lon="-121.196825"><ele>1656.4</ele></trkpt>
<trkpt lat="48.512810" lon="-121.196625"><ele>1654.0</ele></trkpt>
<trkpt lat="48.512848" lon="-121.196637"><ele>1653.5</ele></trkpt>
<trkpt lat="48.512851" lon="-121.196775"><ele>1651.3</ele></trkpt>
<trkpt lat="48.512969" lon="-121.196900"><ele>1644.9</ele></trkpt>
<trkpt lat="48.513081" lon="-121.196735"><ele>1641.3</ele></trkpt>
<trkpt lat="48.513220" lon="-121.196344"><ele>1636.3</ele></trkpt>
<trkpt lat="48.513416" lon="-121.196447"><ele>1633.1</ele></trkpt>
<trkpt lat="48.513841" lon="-121.196431"><ele>1623.5</ele></trkpt>
<trkpt lat="48.513960" lon="-121.196511"><ele>1622.4</ele></trkpt>
<trkpt lat="48.514184" lon="-121.196415"><ele>1619.7</ele></trkpt>
<trkpt lat="48.514332" lon="-121.196489"><ele>1617.7</ele></trkpt>
<trkpt lat="48.514393" lon="-121.196671"><ele>1613.7</ele></trkpt>
<trkpt lat="48.514241" lon="-121.196667"><ele>1610.9</ele></trkpt>
<trkpt lat="48.514153" lon="-121.196751"><ele>1608.2</ele></trkpt>
<trkpt lat="48.514188" lon="-121.196725"><ele>1605.3</ele></trkpt>
<trkpt lat="48.514196" lon="-121.196781"><ele>1605.4</ele></trkpt>
<trkpt lat="48.514488" lon="-121.197007"><ele>1599.3</ele></trkpt>
<trkpt lat="48.514319" lon="-121.197083"><ele>1595.4</ele></trkpt>
<trkpt lat="48.514182" lon="-121.197269"><ele>1593.1</ele></trkpt>
<trkpt lat="48.513967" lon="-121.197259"><ele>1589.6</ele></trkpt>
<trkpt lat="48.514295" lon="-121.197379"><ele>1580.2</ele></trkpt>
<trkpt lat="48.514488" lon="-121.197524"><ele>1574.0</ele></trkpt>
<trkpt lat="48.514684" lon="-121.197539"><ele>1571.9</ele></trkpt>
<trkpt lat="48.514857" lon="-121.197800"><ele>1565.7</ele></trkpt>
<trkpt lat="48.514905" lon="-121.198020"><ele>1562.5</ele></trkpt>
<trkpt lat="48.514920" lon="-121.198487"><ele>1553.6</ele></trkpt>
<trkpt lat="48.515013" lon="-121.198652"><ele>1553.2</ele></trkpt>
<trkpt lat="48.515022" lon="-121.199265"><ele>1541.6</ele></trkpt>
<trkpt lat="48.515132" lon="-121.199539"><ele>1539.1</ele></trkpt>
<trkpt lat="48.515179" lon="-121.199827"><ele>1529.9</ele></trkpt>
<trkpt lat="48.515142" lon="-121.199917"><ele>1529.9</ele></trkpt>
<trkpt lat="48.514977" lon="-121.199544"><ele>1530.0</ele></trkpt>
<trkpt lat="48.514842" lon="-121.199397"><ele>1525.8</ele></trkpt>
<trkpt lat="48.514742" lon="-121.199403"><ele>1523.0</ele></trkpt>
<trkpt lat="48.514708" lon="-121.199324"><ele>1518.0</ele></trkpt>
<trkpt lat="48.514735" lon="-121.199761"><ele>1508.7</ele></trkpt>
<trkpt lat="48.514823" lon="-121.199882"><ele>1508.4</ele></trkpt>
<trkpt lat="48.514826" lon="-121.200072"><ele>1505.7</ele></trkpt>
<trkpt lat="48.514861" lon="-121.200071"><ele>1503.7</ele></trkpt>
<trkpt lat="48.514941" lon="-121.200423"><ele>1497.7</ele></trkpt>
<trkpt lat="48.515118" lon="-121.200865"><ele>1491.1</ele></trkpt>
<trkpt lat="48.515271" lon="-121.201042"><ele>1491.1</ele></trkpt>
<trkpt lat="48.515382" lon="-121.201287"><ele>1486.1</ele></trkpt>
<trkpt lat="48.515615" lon="-121.202238"><ele>1468.8</ele></trkpt>
<trkpt lat="48.515927" lon="-121.202859"><ele>1459.7</ele></trkpt>
<trkpt lat="48.515600" lon="-121.202624"><ele>1453.6</ele></trkpt>
<trkpt lat="48.515386" lon="-121.202555"><ele>1448.9</ele></trkpt>
<trkpt lat="48.515082" lon="-121.202110"><ele>1442.0</ele></trkpt>
<trkpt lat="48.514877" lon="-121.201942"><ele>1438.6</ele></trkpt>
<trkpt lat="48.514722" lon="-121.201906"><ele>1436.4</ele></trkpt>
<trkpt lat="48.514982" lon="-121.202515"><ele>1423.3</ele></trkpt>
<trkpt lat="48.515071" lon="-121.203156"><ele>1413.0</ele></trkpt>
<trkpt lat="48.515335" lon="-121.203594"><ele>1408.1</ele></trkpt>
<trkpt lat="48.515314" lon="-121.203641"><ele>1406.5</ele></trkpt>
<trkpt lat="48.515123" lon="-121.203501"><ele>1403.9</ele></trkpt>
<trkpt lat="48.515512" lon="-121.204185"><ele>1389.9</ele></trkpt>
<trkpt lat="48.515495" lon="-121.204269"><ele>1387.4</ele></trkpt>
<trkpt lat="48.515624" lon="-121.204546"><ele>1382.7</ele></trkpt>
<trkpt lat="48.515934" lon="-121.204986"><ele>1372.9</ele></trkpt>
<trkpt lat="48.516004" lon="-121.205449"><ele>1363.5</ele></trkpt>
<trkpt lat="48.515979" lon="-121.205503"><ele>1364.3</ele></trkpt>
<trkpt lat="48.515900" lon="-121.205315"><ele>1363.5</ele></trkpt>
<trkpt lat="48.515681" lon="-121.205194"><ele>1352.9</ele></trkpt>
<trkpt lat="48.515530" lon="-121.205292"><ele>1354.1</ele></trkpt>
<trkpt lat="48.515292" lon="-121.205290"><ele>1344.6</ele></trkpt>
<trkpt lat="48.515458" lon="-121.205671"><ele>1337.8</ele></trkpt>
<trkpt lat="48.515390" lon="-121.205891"><ele>1330.9</ele></trkpt>
<trkpt lat="48.515405" lon="-121.205963"><ele>1331.3</ele></trkpt>
<trkpt lat="48.515348" lon="-121.206093"><ele>1330.7</ele></trkpt>
<trkpt lat="48.515304" lon="-121.206088"><ele>1329.1</ele></trkpt>
<trkpt lat="48.515237" lon="-121.206450"><ele>1326.1</ele></trkpt>
<trkpt lat="48.515108" lon="-121.206586"><ele>1324.3</ele></trkpt>
<trkpt lat="48.515205" lon="-121.207002"><ele>1320.3</ele></trkpt>
<trkpt lat="48.515194" lon="-121.207353"><ele>1315.4</ele></trkpt>
<trkpt lat="48.515265" lon="-121.207742"><ele>1312.3</ele></trkpt>
<trkpt lat="48.515364" lon="-121.207692"><ele>1307.8</ele></trkpt>
<trkpt lat="48.515406" lon="-121.207730"><ele>1307.9</ele></trkpt>
<trkpt lat="48.515406" lon="-121.208010"><ele>1304.0</ele></trkpt>
<trkpt lat="48.515503" lon="-121.208463"><ele>1295.0</ele></trkpt>
<trkpt lat="48.515465" lon="-121.208674"><ele>1293.7</ele></trkpt>
<trkpt lat="48.515497" lon="-121.208854"><ele>1292.6</ele></trkpt>
<trkpt lat="48.515412" lon="-121.209052"><ele>1294.3</ele></trkpt>
<trkpt lat="48.515426" lon="-121.209258"><ele>1292.9</ele></trkpt>
<trkpt lat="48.515314" lon="-121.209785"><ele>1286.7</ele></trkpt>
<trkpt lat="48.515021" lon="-121.210372"><ele>1277.4</ele></trkpt>
<trkpt lat="48.514969" lon="-121.210791"><ele>1276.2</ele></trkpt>
<trkpt lat="48.514851" lon="-121.210988"><ele>1279.1</ele></trkpt>
<trkpt lat="48.515013" lon="-121.210880"><ele>1269.6</ele></trkpt>
<trkpt lat="48.515139" lon="-121.210696"><ele>1269.9</ele></trkpt>
<trkpt lat="48.515512" lon="-121.210469"><ele>1256.7</ele></trkpt>
<trkpt lat="48.515556" lon="-121.210671"><ele>1251.9</ele></trkpt>
<trkpt lat="48.515652" lon="-121.210841"><ele>1254.1</ele></trkpt>
<trkpt lat="48.515642" lon="-121.210944"><ele>1251.4</ele></trkpt>
<trkpt lat="48.515568" lon="-121.211018"><ele>1249.5</ele></trkpt>
<trkpt lat="48.515694" lon="-121.211205"><ele>1242.2</ele></trkpt>
<trkpt lat="48.515627" lon="-121.211341"><ele>1241.0</ele></trkpt>
<trkpt lat="48.515537" lon="-121.211304"><ele>1236.0</ele></trkpt>
<trkpt lat="48.515649" lon="-121.211417"><ele>1235.0</ele></trkpt>
<trkpt lat="48.515650" lon="-121.211484"><ele>1235.7</ele></trkpt>
<trkpt lat="48.515580" lon="-121.211468"><ele>1234.6</ele></trkpt>
<trkpt lat="48.515590" lon="-121.211554"><ele>1228.1</ele></trkpt>
<trkpt lat="48.515799" lon="-121.211804"><ele>1215.6</ele></trkpt>
<trkpt lat="48.515927" lon="-121.211782"><ele>1213.1</ele></trkpt>
<trkpt lat="48.515859" lon="-121.212008"><ele>1211.9</ele></trkpt>
<trkpt lat="48.515588" lon="-121.212232"><ele>1205.6</ele></trkpt>
<trkpt lat="48.515517" lon="-121.212547"><ele>1202.4</ele></trkpt>
<trkpt lat="48.515551" lon="-121.212597"><ele>1204.4</ele></trkpt>
<trkpt lat="48.515445" lon="-121.212909"><ele>1192.0</ele></trkpt>
<trkpt lat="48.515471" lon="-121.213243"><ele>1191.9</ele></trkpt>
<trkpt lat="48.515394" lon="-121.213462"><ele>1190.3</ele></trkpt>
<trkpt lat="48.515669" lon="-121.213048"><ele>1174.9</ele></trkpt>
<trkpt lat="48.515760" lon="-121.213133"><ele>1176.4</ele></trkpt>
<trkpt lat="48.515640" lon="-121.213500"><ele>1170.8</ele></trkpt>
<trkpt lat="48.515679" lon="-121.213593"><ele>1171.4</ele></trkpt>
<trkpt lat="48.515557" lon="-121.214058"><ele>1167.6</ele></trkpt>
<trkpt lat="48.515504" lon="-121.214068"><ele>1164.9</ele></trkpt>
<trkpt lat="48.515441" lon="-121.214273"><ele>1162.6</ele></trkpt>
<trkpt lat="48.515276" lon="-121.214419"><ele>1160.6</ele></trkpt>
<trkpt lat="48.515246" lon="-121.214671"><ele>1161.0</ele></trkpt>
<trkpt lat="48.515172" lon="-121.214721"><ele>1159.0</ele></trkpt>
<trkpt lat="48.514989" lon="-121.215044"><ele>1153.8</ele></trkpt>
<trkpt lat="48.514967" lon="-121.215179"><ele>1154.7</ele></trkpt>
<trkpt lat="48.514817" lon="-121.215268"><ele>1151.9</ele></trkpt>
<trkpt lat="48.514820" lon="-121.215443"><ele>1149.4</ele></trkpt>
<trkpt lat="48.514785" lon="-121.215541"><ele>1152.2</ele></trkpt>
<trkpt lat="48.514720" lon="-121.215544"><ele>1150.0</ele></trkpt>
<trkpt lat="48.514803" lon="-121.215586"><ele>1148.0</ele></trkpt>
<trkpt lat="48.514969" lon="-121.215531"><ele>1141.1</ele></trkpt>
<trkpt lat="48.514998" lon="-121.215610"><ele>1140.1</ele></trkpt>
<trkpt lat="48.514941" lon="-121.215744"><ele>1134.0</ele></trkpt>
<trkpt lat="48.514955" lon="-121.215813"><ele>1135.1</ele></trkpt>
<trkpt lat="48.514890" lon="-121.215849"><ele>1134.3</ele></trkpt>
<trkpt lat="48.514847" lon="-121.216030"><ele>1131.2</ele></trkpt>
<trkpt lat="48.514791" lon="-121.216027"><ele>1131.4</ele></trkpt>
<trkpt lat="48.515015" lon="-121.215927"><ele>1128.9</ele></trkpt>
<trkpt lat="48.515062" lon="-121.215939"><ele>1127.9</ele></trkpt>
<trkpt lat="48.515064" lon="-121.216034"><ele>1126.6</ele></trkpt>
<trkpt lat="48.515020" lon="-121.216185"><ele>1123.1</ele></trkpt>
<trkpt lat="48.514763" lon="-121.216594"><ele>1118.1</ele></trkpt>
<trkpt lat="48.514761" lon="-121.216922"><ele>1113.9</ele></trkpt>
<trkpt lat="48.514717" lon="-121.216924"><ele>1109.6</ele></trkpt>
<trkpt lat="48.514710" lon="-121.217093"><ele>1111.6</ele></trkpt>
<trkpt lat="48.514382" lon="-121.217936"><ele>1107.5</ele></trkpt>
<trkpt lat="48.514344" lon="-121.218282"><ele>1103.4</ele></trkpt>
<trkpt lat="48.514216" lon="-121.218727"><ele>1092.1</ele></trkpt>
<trkpt lat="48.514151" lon="-121.219383"><ele>1089.4</ele></trkpt>
<trkpt lat="48.514186" lon="-121.219740"><ele>1090.6</ele></trkpt>
<trkpt lat="48.514129" lon="-121.220819"><ele>1075.7</ele></trkpt>
<trkpt lat="48.514235" lon="-121.221218"><ele>1074.9</ele></trkpt>
<trkpt lat="48.514185" lon="-121.221623"><ele>1071.7</ele></trkpt>
<trkpt lat="48.514178" lon="-121.221572"><ele>1070.8</ele></trkpt>
<trkpt lat="48.514146" lon="-121.221608"><ele>1068.3</ele></trkpt>
<trkpt lat="48.514187" lon="-121.221650"><ele>1071.6</ele></trkpt>
</trkseg></trk>
</gpx>
