<?xml version="1.0" encoding="UTF-8"?>
<gpx version="1.1" creator="The Lost Trailhead" xmlns="http://www.topografix.com/GPX/1/1" xmlns:xsi="http://www.w3.org/2001/XMLSchema-instance" xsi:schemaLocation="http://www.topografix.com/GPX/1/1 http://www.topografix.com/GPX/1/1/gpx.xsd">
<metadata><name>Garfield Ledges</name><desc>The Lost Trailhead, thelosttrailhead.com/hikes/garfield-ledges. Conditions change. Use at your own risk.</desc><link href="https://thelosttrailhead.com/hikes/garfield-ledges"><text>Garfield Ledges on The Lost Trailhead</text></link></metadata>
<trk><name>Garfield Ledges</name><link href="https://thelosttrailhead.com/hikes/garfield-ledges"><text>Garfield Ledges on The Lost Trailhead</text></link><trkseg>
<trkpt lat="47.555536" lon="-121.535612"><ele>335.2</ele></trkpt>
<trkpt lat="47.555568" lon="-121.535736"><ele>335.6</ele></trkpt>
<trkpt lat="47.555689" lon="-121.535772"><ele>339.0</ele></trkpt>
<trkpt lat="47.555849" lon="-121.535593"><ele>341.6</ele></trkpt>
<trkpt lat="47.555965" lon="-121.535710"><ele>342.0</ele></trkpt>
<trkpt lat="47.556058" lon="-121.535511"><ele>341.4</ele></trkpt>
<trkpt lat="47.555937" lon="-121.535341"><ele>343.6</ele></trkpt>
<trkpt lat="47.555868" lon="-121.535097"><ele>344.1</ele></trkpt>
<trkpt lat="47.555690" lon="-121.534746"><ele>346.3</ele></trkpt>
<trkpt lat="47.555541" lon="-121.534254"><ele>352.8</ele></trkpt>
<trkpt lat="47.555423" lon="-121.534114"><ele>353.2</ele></trkpt>
<trkpt lat="47.555597" lon="-121.533820"><ele>360.1</ele></trkpt>
<trkpt lat="47.555682" lon="-121.533856"><ele>363.1</ele></trkpt>
<trkpt lat="47.555734" lon="-121.534214"><ele>364.3</ele></trkpt>
<trkpt lat="47.555916" lon="-121.534387"><ele>365.5</ele></trkpt>
<trkpt lat="47.556005" lon="-121.534779"><ele>362.2</ele></trkpt>
<trkpt lat="47.556132" lon="-121.534809"><ele>359.7</ele></trkpt>
<trkpt lat="47.556340" lon="-121.535010"><ele>363.0</ele></trkpt>
<trkpt lat="47.556478" lon="-121.535031"><ele>363.3</ele></trkpt>
<trkpt lat="47.556600" lon="-121.534911"><ele>364.6</ele></trkpt>
<trkpt lat="47.556731" lon="-121.534365"><ele>372.2</ele></trkpt>
<trkpt lat="47.556709" lon="-121.534145"><ele>375.4</ele></trkpt>
<trkpt lat="47.556646" lon="-121.534081"><ele>377.7</ele></trkpt>
<trkpt lat="47.556358" lon="-121.534310"><ele>381.8</ele></trkpt>
<trkpt lat="47.556319" lon="-121.534401"><ele>381.6</ele></trkpt>
<trkpt lat="47.556419" lon="-121.534158"><ele>381.7</ele></trkpt>
<trkpt lat="47.556348" lon="-121.533695"><ele>391.5</ele></trkpt>
<trkpt lat="47.556459" lon="-121.533543"><ele>396.4</ele></trkpt>
<trkpt lat="47.556612" lon="-121.533545"><ele>399.8</ele></trkpt>
<trkpt lat="47.556720" lon="-121.533235"><ele>400.5</ele></trkpt>
<trkpt lat="47.556661" lon="-121.532942"><ele>401.8</ele></trkpt>
<trkpt lat="47.556504" lon="-121.532681"><ele>406.7</ele></trkpt>
<trkpt lat="47.556447" lon="-121.532347"><ele>407.9</ele></trkpt>
<trkpt lat="47.556446" lon="-121.531891"><ele>415.2</ele></trkpt>
<trkpt lat="47.556341" lon="-121.531911"><ele>416.7</ele></trkpt>
<trkpt lat="47.556264" lon="-121.531650"><ele>418.9</ele></trkpt>
<trkpt lat="47.556298" lon="-121.531489"><ele>420.9</ele></trkpt>
<trkpt lat="47.556439" lon="-121.531381"><ele>422.8</ele></trkpt>
<trkpt lat="47.556106" lon="-121.531370"><ele>424.8</ele></trkpt>
<trkpt lat="47.556108" lon="-121.531168"><ele>423.5</ele></trkpt>
<trkpt lat="47.556127" lon="-121.531220"><ele>427.3</ele></trkpt>
<trkpt lat="47.556063" lon="-121.531358"><ele>428.3</ele></trkpt>
<trkpt lat="47.556239" lon="-121.531114"><ele>434.7</ele></trkpt>
<trkpt lat="47.556182" lon="-121.530784"><ele>441.6</ele></trkpt>
<trkpt lat="47.556059" lon="-121.530676"><ele>444.5</ele></trkpt>
<trkpt lat="47.556188" lon="-121.530355"><ele>451.2</ele></trkpt>
<trkpt lat="47.556165" lon="-121.530157"><ele>456.1</ele></trkpt>
<trkpt lat="47.556026" lon="-121.529904"><ele>461.1</ele></trkpt>
<trkpt lat="47.555850" lon="-121.529798"><ele>465.4</ele></trkpt>
<trkpt lat="47.556121" lon="-121.529684"><ele>469.8</ele></trkpt>
<trkpt lat="47.556228" lon="-121.529717"><ele>468.7</ele></trkpt>
<trkpt lat="47.556825" lon="-121.528935"><ele>482.0</ele></trkpt>
<trkpt lat="47.556791" lon="-121.528924"><ele>480.2</ele></trkpt>
<trkpt lat="47.556884" lon="-121.528778"><ele>480.3</ele></trkpt>
<trkpt lat="47.556906" lon="-121.528646"><ele>481.3</ele></trkpt>
<trkpt lat="47.557026" lon="-121.528528"><ele>485.2</ele></trkpt>
<trkpt lat="47.557208" lon="-121.528193"><ele>487.1</ele></trkpt>
<trkpt lat="47.557335" lon="-121.528128"><ele>488.7</ele></trkpt>
<trkpt lat="47.557379" lon="-121.527930"><ele>486.6</ele></trkpt>
<trkpt lat="47.557650" lon="-121.527800"><ele>494.7</ele></trkpt>
<trkpt lat="47.557685" lon="-121.527928"><ele>490.8</ele></trkpt>
<trkpt lat="47.557659" lon="-121.527827"><ele>486.8</ele></trkpt>
<trkpt lat="47.557612" lon="-121.527868"><ele>486.2</ele></trkpt>
<trkpt lat="47.557706" lon="-121.527812"><ele>487.7</ele></trkpt>
<trkpt lat="47.557695" lon="-121.527900"><ele>489.4</ele></trkpt>
<trkpt lat="47.557617" lon="-121.527962"><ele>490.6</ele></trkpt>
<trkpt lat="47.557516" lon="-121.527831"><ele>494.9</ele></trkpt>
<trkpt lat="47.557317" lon="-121.527768"><ele>500.5</ele></trkpt>
<trkpt lat="47.556993" lon="-121.527821"><ele>508.5</ele></trkpt>
<trkpt lat="47.556440" lon="-121.528233"><ele>519.6</ele></trkpt>
<trkpt lat="47.556093" lon="-121.528376"><ele>520.6</ele></trkpt>
<trkpt lat="47.555660" lon="-121.528296"><ele>524.2</ele></trkpt>
<trkpt lat="47.555246" lon="-121.528321"><ele>520.1</ele></trkpt>
<trkpt lat="47.555189" lon="-121.528312"><ele>520.8</ele></trkpt>
<trkpt lat="47.555201" lon="-121.528263"><ele>522.3</ele></trkpt>
<trkpt lat="47.555108" lon="-121.528357"><ele>533.6</ele></trkpt>
<trkpt lat="47.555160" lon="-121.528319"><ele>531.7</ele></trkpt>
<trkpt lat="47.555158" lon="-121.528381"><ele>533.1</ele></trkpt>
<trkpt lat="47.555131" lon="-121.528287"><ele>520.6</ele></trkpt>
<trkpt lat="47.555084" lon="-121.528301"><ele>519.8</ele></trkpt>
<trkpt lat="47.555106" lon="-121.528267"><ele>524.3</ele></trkpt>
<trkpt lat="47.555123" lon="-121.528349"><ele>537.8</ele></trkpt>
<trkpt lat="47.555106" lon="-121.528267"><ele>524.3</ele></trkpt>
<trkpt lat="47.555084" lon="-121.528301"><ele>519.8</ele></trkpt>
<trkpt lat="47.555131" lon="-121.528287"><ele>520.6</ele></trkpt>
<trkpt lat="47.555158" lon="-121.528381"><ele>533.1</ele></trkpt>
<trkpt lat="47.555160" lon="-121.528319"><ele>531.7</ele></trkpt>
<trkpt lat="47.555108" lon="-121.528357"><ele>533.6</ele></trkpt>
<trkpt lat="47.555201" lon="-121.528263"><ele>522.3</ele></trkpt>
<trkpt lat="47.555189" lon="-121.528312"><ele>520.8</ele></trkpt>
<trkpt lat="47.555246" lon="-121.528321"><ele>520.1</ele></trkpt>
<trkpt lat="47.555660" lon="-121.528296"><ele>524.2</ele></trkpt>
<trkpt lat="47.556093" lon="-121.528376"><ele>520.6</ele></trkpt>
<trkpt lat="47.556440" lon="-121.528233"><ele>519.6</ele></trkpt>
<trkpt lat="47.556993" lon="-121.527821"><ele>508.5</ele></trkpt>
<trkpt lat="47.557317" lon="-121.527768"><ele>500.5</ele></trkpt>
<trkpt lat="47.557516" lon="-121.527831"><ele>494.9</ele></trkpt>
<trkpt lat="47.557617" lon="-121.527962"><ele>490.6</ele></trkpt>
<trkpt lat="47.557695" lon="-121.527900"><ele>489.4</ele></trkpt>
<trkpt lat="47.557706" lon="-121.527812"><ele>487.7</ele></trkpt>
<trkpt lat="47.557612" lon="-121.527868"><ele>486.2</ele></trkpt>
<trkpt lat="47.557659" lon="-121.527827"><ele>486.8</ele></trkpt>
<trkpt lat="47.557685" lon="-121.527928"><ele>490.8</ele></trkpt>
<trkpt lat="47.557650" lon="-121.527800"><ele>494.7</ele></trkpt>
<trkpt lat="47.557379" lon="-121.527930"><ele>486.6</ele></trkpt>
<trkpt lat="47.557335" lon="-121.528128"><ele>488.7</ele></trkpt>
<trkpt lat="47.557208" lon="-121.528193"><ele>487.1</ele></trkpt>
<trkpt lat="47.557026" lon="-121.528528"><ele>485.2</ele></trkpt>
<trkpt lat="47.556906" lon="-121.528646"><ele>481.3</ele></trkpt>
<trkpt lat="47.556884" lon="-121.528778"><ele>480.3</ele></trkpt>
<trkpt lat="47.556791" lon="-121.528924"><ele>480.2</ele></trkpt>
<trkpt lat="47.556825" lon="-121.528935"><ele>482.0</ele></trkpt>
<trkpt lat="47.556228" lon="-121.529717"><ele>468.7</ele></trkpt>
<trkpt lat="47.556121" lon="-121.529684"><ele>469.8</ele></trkpt>
<trkpt lat="47.555850" lon="-121.529798"><ele>465.4</ele></trkpt>
<trkpt lat="47.556026" lon="-121.529904"><ele>461.1</ele></trkpt>
<trkpt lat="47.556165" lon="-121.530157"><ele>456.1</ele></trkpt>
<trkpt lat="47.556188" lon="-121.530355"><ele>451.2</ele></trkpt>
<trkpt lat="47.556059" lon="-121.530676"><ele>444.5</ele></trkpt>
<trkpt lat="47.556182" lon="-121.530784"><ele>441.6</ele></trkpt>
<trkpt lat="47.556239" lon="-121.531114"><ele>434.7</ele></trkpt>
<trkpt lat="47.556063" lon="-121.531358"><ele>428.3</ele></trkpt>
<trkpt lat="47.556127" lon="-121.531220"><ele>427.3</ele></trkpt>
<trkpt lat="47.556108" lon="-121.531168"><ele>423.5</ele></trkpt>
<trkpt lat="47.556106" lon="-121.531370"><ele>424.8</ele></trkpt>
<trkpt lat="47.556439" lon="-121.531381"><ele>422.8</ele></trkpt>
<trkpt lat="47.556298" lon="-121.531489"><ele>420.9</ele></trkpt>
<trkpt lat="47.556264" lon="-121.531650"><ele>418.9</ele></trkpt>
<trkpt lat="47.556341" lon="-121.531911"><ele>416.7</ele></trkpt>
<trkpt lat="47.556446" lon="-121.531891"><ele>415.2</ele></trkpt>
<trkpt lat="47.556447" lon="-121.532347"><ele>407.9</ele></trkpt>
<trkpt lat="47.556504" lon="-121.532681"><ele>406.7</ele></trkpt>
<trkpt lat="47.556661" lon="-121.532942"><ele>401.8</ele></trkpt>
<trkpt lat="47.556720" lon="-121.533235"><ele>400.5</ele></trkpt>
<trkpt lat="47.556612" lon="-121.533545"><ele>399.8</ele></trkpt>
<trkpt lat="47.556459" lon="-121.533543"><ele>396.4</ele></trkpt>
<trkpt lat="47.556348" lon="-121.533695"><ele>391.5</ele></trkpt>
<trkpt lat="47.556419" lon="-121.534158"><ele>381.7</ele></trkpt>
<trkpt lat="47.556319" lon="-121.534401"><ele>381.6</ele></trkpt>
<trkpt lat="47.556358" lon="-121.534310"><ele>381.8</ele></trkpt>
<trkpt lat="47.556646" lon="-121.534081"><ele>377.7</ele></trkpt>
<trkpt lat="47.556709" lon="-121.534145"><ele>375.4</ele></trkpt>
<trkpt lat="47.556731" lon="-121.534365"><ele>372.2</ele></trkpt>
<trkpt lat="47.556600" lon="-121.534911"><ele>364.6</ele></trkpt>
<trkpt lat="47.556478" lon="-121.535031"><ele>363.3</ele></trkpt>
<trkpt lat="47.556340" lon="-121.535010"><ele>363.0</ele></trkpt>
<trkpt lat="47.556132" lon="-121.534809"><ele>359.7</ele></trkpt>
<trkpt lat="47.556005" lon="-121.534779"><ele>362.2</ele></trkpt>
<trkpt lat="47.555916" lon="-121.534387"><ele>365.5</ele></trkpt>
<trkpt lat="47.555734" lon="-121.534214"><ele>364.3</ele></trkpt>
<trkpt lat="47.555682" lon="-121.533856"><ele>363.1</ele></trkpt>
<trkpt lat="47.555597" lon="-121.533820"><ele>360.1</ele></trkpt>
<trkpt lat="47.555423" lon="-121.534114"><ele>353.2</ele></trkpt>
<trkpt lat="47.555541" lon="-121.534254"><ele>352.8</ele></trkpt>
<trkpt lat="47.555690" lon="-121.534746"><ele>346.3</ele></trkpt>
<trkpt lat="47.555868" lon="-121.535097"><ele>344.1</ele></trkpt>
<trkpt lat="47.555937" lon="-121.535341"><ele>343.6</ele></trkpt>
<trkpt lat="47.556058" lon="-121.535511"><ele>341.4</ele></trkpt>
<trkpt lat="47.555965" lon="-121.535710"><ele>342.0</ele></trkpt>
<trkpt lat="47.555849" lon="-121.535593"><ele>341.6</ele></trkpt>
<trkpt lat="47.555689" lon="-121.535772"><ele>339.0</ele></trkpt>
<trkpt lat="47.555568" lon="-121.535736"><ele>335.6</ele></trkpt>
<trkpt lat="47.555536" lon="-121.535612"><ele>335.2</ele></trkpt>
</trkseg></trk>
</gpx>
