<?xml version="1.0" encoding="UTF-8"?>
<gpx version="1.1" creator="The Lost Trailhead" xmlns="http://www.topografix.com/GPX/1/1" xmlns:xsi="http://www.w3.org/2001/XMLSchema-instance" xsi:schemaLocation="http://www.topografix.com/GPX/1/1 http://www.topografix.com/GPX/1/1/gpx.xsd">
<metadata><name>Mt. Baldy</name><desc>The Lost Trailhead, thelosttrailhead.com/hikes/mt-baldy. Conditions change. Use at your own risk.</desc><link href="https://thelosttrailhead.com/hikes/mt-baldy"><text>Mt. Baldy on The Lost Trailhead</text></link></metadata>
<trk><name>Mt. Baldy</name><link href="https://thelosttrailhead.com/hikes/mt-baldy"><text>Mt. Baldy on The Lost Trailhead</text></link><trkseg>
<trkpt lat="47.267509" lon="-121.174176"><ele>720.2</ele></trkpt>
<trkpt lat="47.267578" lon="-121.173919"><ele>731.8</ele></trkpt>
<trkpt lat="47.267518" lon="-121.173645"><ele>732.6</ele></trkpt>
<trkpt lat="47.267388" lon="-121.173295"><ele>735.5</ele></trkpt>
<trkpt lat="47.267206" lon="-121.173201"><ele>732.1</ele></trkpt>
<trkpt lat="47.267184" lon="-121.173121"><ele>731.3</ele></trkpt>
<trkpt lat="47.267409" lon="-121.172801"><ele>732.5</ele></trkpt>
<trkpt lat="47.267627" lon="-121.172255"><ele>734.0</ele></trkpt>
<trkpt lat="47.267571" lon="-121.171979"><ele>735.7</ele></trkpt>
<trkpt lat="47.267411" lon="-121.171954"><ele>737.2</ele></trkpt>
<trkpt lat="47.267254" lon="-121.172200"><ele>736.2</ele></trkpt>
<trkpt lat="47.267087" lon="-121.172153"><ele>739.6</ele></trkpt>
<trkpt lat="47.266865" lon="-121.172245"><ele>742.8</ele></trkpt>
<trkpt lat="47.266404" lon="-121.172580"><ele>754.2</ele></trkpt>
<trkpt lat="47.266744" lon="-121.171346"><ele>782.4</ele></trkpt>
<trkpt lat="47.266735" lon="-121.171155"><ele>785.1</ele></trkpt>
<trkpt lat="47.266839" lon="-121.170892"><ele>791.6</ele></trkpt>
<trkpt lat="47.266823" lon="-121.170825"><ele>792.7</ele></trkpt>
<trkpt lat="47.266638" lon="-121.170921"><ele>796.2</ele></trkpt>
<trkpt lat="47.266239" lon="-121.171396"><ele>805.8</ele></trkpt>
<trkpt lat="47.265976" lon="-121.171597"><ele>811.6</ele></trkpt>
<trkpt lat="47.266034" lon="-121.171648"><ele>813.4</ele></trkpt>
<trkpt lat="47.265986" lon="-121.171607"><ele>813.1</ele></trkpt>
<trkpt lat="47.266210" lon="-121.170588"><ele>823.0</ele></trkpt>
<trkpt lat="47.266186" lon="-121.170320"><ele>827.0</ele></trkpt>
<trkpt lat="47.266436" lon="-121.169991"><ele>828.8</ele></trkpt>
<trkpt lat="47.266457" lon="-121.169826"><ele>829.7</ele></trkpt>
<trkpt lat="47.266418" lon="-121.169644"><ele>834.6</ele></trkpt>
<trkpt lat="47.266517" lon="-121.169525"><ele>836.9</ele></trkpt>
<trkpt lat="47.266550" lon="-121.169273"><ele>836.9</ele></trkpt>
<trkpt lat="47.266892" lon="-121.169234"><ele>846.4</ele></trkpt>
<trkpt lat="47.267062" lon="-121.168945"><ele>850.7</ele></trkpt>
<trkpt lat="47.266772" lon="-121.168882"><ele>857.3</ele></trkpt>
<trkpt lat="47.266470" lon="-121.168482"><ele>863.7</ele></trkpt>
<trkpt lat="47.266539" lon="-121.168398"><ele>867.9</ele></trkpt>
<trkpt lat="47.266699" lon="-121.168551"><ele>872.4</ele></trkpt>
<trkpt lat="47.266834" lon="-121.168528"><ele>875.6</ele></trkpt>
<trkpt lat="47.266870" lon="-121.168387"><ele>877.1</ele></trkpt>
<trkpt lat="47.266766" lon="-121.168284"><ele>880.6</ele></trkpt>
<trkpt lat="47.266721" lon="-121.168066"><ele>885.1</ele></trkpt>
<trkpt lat="47.266615" lon="-121.167874"><ele>887.7</ele></trkpt>
<trkpt lat="47.266778" lon="-121.168009"><ele>893.1</ele></trkpt>
<trkpt lat="47.266986" lon="-121.167877"><ele>900.3</ele></trkpt>
<trkpt lat="47.266969" lon="-121.167797"><ele>900.6</ele></trkpt>
<trkpt lat="47.266816" lon="-121.167652"><ele>903.9</ele></trkpt>
<trkpt lat="47.266925" lon="-121.167562"><ele>909.5</ele></trkpt>
<trkpt lat="47.266790" lon="-121.167434"><ele>913.1</ele></trkpt>
<trkpt lat="47.266750" lon="-121.167247"><ele>916.1</ele></trkpt>
<trkpt lat="47.266679" lon="-121.167167"><ele>917.7</ele></trkpt>
<trkpt lat="47.265697" lon="-121.167038"><ele>932.8</ele></trkpt>
<trkpt lat="47.266034" lon="-121.166955"><ele>941.3</ele></trkpt>
<trkpt lat="47.266141" lon="-121.166697"><ele>944.9</ele></trkpt>
<trkpt lat="47.266294" lon="-121.166580"><ele>948.4</ele></trkpt>
<trkpt lat="47.266251" lon="-121.166511"><ele>951.1</ele></trkpt>
<trkpt lat="47.265999" lon="-121.166544"><ele>957.5</ele></trkpt>
<trkpt lat="47.265669" lon="-121.166484"><ele>961.3</ele></trkpt>
<trkpt lat="47.265325" lon="-121.166586"><ele>964.2</ele></trkpt>
<trkpt lat="47.265071" lon="-121.166485"><ele>968.9</ele></trkpt>
<trkpt lat="47.264729" lon="-121.166649"><ele>974.4</ele></trkpt>
<trkpt lat="47.264565" lon="-121.166552"><ele>976.2</ele></trkpt>
<trkpt lat="47.264883" lon="-121.166204"><ele>987.7</ele></trkpt>
<trkpt lat="47.264532" lon="-121.165850"><ele>998.6</ele></trkpt>
<trkpt lat="47.264463" lon="-121.165849"><ele>1000.2</ele></trkpt>
<trkpt lat="47.264325" lon="-121.165598"><ele>1005.9</ele></trkpt>
<trkpt lat="47.264438" lon="-121.165660"><ele>1009.3</ele></trkpt>
<trkpt lat="47.264449" lon="-121.165593"><ele>1010.1</ele></trkpt>
<trkpt lat="47.264745" lon="-121.165614"><ele>1019.2</ele></trkpt>
<trkpt lat="47.264765" lon="-121.165510"><ele>1020.4</ele></trkpt>
<trkpt lat="47.264651" lon="-121.165381"><ele>1022.6</ele></trkpt>
<trkpt lat="47.264304" lon="-121.165206"><ele>1028.8</ele></trkpt>
<trkpt lat="47.263752" lon="-121.164627"><ele>1040.2</ele></trkpt>
<trkpt lat="47.264310" lon="-121.164529"><ele>1055.5</ele></trkpt>
<trkpt lat="47.264294" lon="-121.164478"><ele>1055.5</ele></trkpt>
<trkpt lat="47.264484" lon="-121.164484"><ele>1057.7</ele></trkpt>
<trkpt lat="47.265105" lon="-121.164135"><ele>1070.2</ele></trkpt>
<trkpt lat="47.265673" lon="-121.164098"><ele>1072.9</ele></trkpt>
<trkpt lat="47.265892" lon="-121.164161"><ele>1071.2</ele></trkpt>
<trkpt lat="47.266262" lon="-121.164033"><ele>1070.1</ele></trkpt>
<trkpt lat="47.266511" lon="-121.164056"><ele>1073.3</ele></trkpt>
<trkpt lat="47.267066" lon="-121.164271"><ele>1084.3</ele></trkpt>
<trkpt lat="47.267866" lon="-121.164380"><ele>1090.3</ele></trkpt>
<trkpt lat="47.268414" lon="-121.164774"><ele>1095.3</ele></trkpt>
<trkpt lat="47.268350" lon="-121.164723"><ele>1095.2</ele></trkpt>
<trkpt lat="47.268386" lon="-121.164751"><ele>1095.0</ele></trkpt>
<trkpt lat="47.268821" lon="-121.164475"><ele>1089.2</ele></trkpt>
<trkpt lat="47.269009" lon="-121.164450"><ele>1087.8</ele></trkpt>
<trkpt lat="47.269181" lon="-121.164315"><ele>1086.6</ele></trkpt>
<trkpt lat="47.269488" lon="-121.164237"><ele>1086.2</ele></trkpt>
<trkpt lat="47.269733" lon="-121.163915"><ele>1083.1</ele></trkpt>
<trkpt lat="47.269919" lon="-121.163918"><ele>1082.9</ele></trkpt>
<trkpt lat="47.270358" lon="-121.163690"><ele>1080.8</ele></trkpt>
<trkpt lat="47.270503" lon="-121.163475"><ele>1082.5</ele></trkpt>
<trkpt lat="47.270646" lon="-121.163121"><ele>1091.2</ele></trkpt>
<trkpt lat="47.270675" lon="-121.162819"><ele>1100.9</ele></trkpt>
<trkpt lat="47.271133" lon="-121.161957"><ele>1100.8</ele></trkpt>
<trkpt lat="47.271100" lon="-121.161508"><ele>1107.4</ele></trkpt>
<trkpt lat="47.270903" lon="-121.161049"><ele>1109.4</ele></trkpt>
<trkpt lat="47.271216" lon="-121.160731"><ele>1120.1</ele></trkpt>
<trkpt lat="47.271293" lon="-121.160718"><ele>1122.7</ele></trkpt>
<trkpt lat="47.271376" lon="-121.160425"><ele>1127.0</ele></trkpt>
<trkpt lat="47.271588" lon="-121.160458"><ele>1131.8</ele></trkpt>
<trkpt lat="47.271749" lon="-121.160408"><ele>1134.0</ele></trkpt>
<trkpt lat="47.271845" lon="-121.160295"><ele>1138.1</ele></trkpt>
<trkpt lat="47.271905" lon="-121.160183"><ele>1142.4</ele></trkpt>
<trkpt lat="47.271903" lon="-121.159701"><ele>1156.9</ele></trkpt>
<trkpt lat="47.272509" lon="-121.160136"><ele>1175.2</ele></trkpt>
<trkpt lat="47.272541" lon="-121.160246"><ele>1178.3</ele></trkpt>
<trkpt lat="47.272759" lon="-121.160287"><ele>1182.0</ele></trkpt>
<trkpt lat="47.272896" lon="-121.160163"><ele>1187.3</ele></trkpt>
<trkpt lat="47.273001" lon="-121.159760"><ele>1195.9</ele></trkpt>
<trkpt lat="47.272899" lon="-121.159602"><ele>1202.3</ele></trkpt>
<trkpt lat="47.272843" lon="-121.159363"><ele>1209.5</ele></trkpt>
<trkpt lat="47.272823" lon="-121.158961"><ele>1222.0</ele></trkpt>
<trkpt lat="47.272885" lon="-121.158944"><ele>1224.9</ele></trkpt>
<trkpt lat="47.272979" lon="-121.158636"><ele>1233.4</ele></trkpt>
<trkpt lat="47.272974" lon="-121.158472"><ele>1236.6</ele></trkpt>
<trkpt lat="47.273091" lon="-121.158313"><ele>1236.4</ele></trkpt>
<trkpt lat="47.273256" lon="-121.157829"><ele>1250.2</ele></trkpt>
<trkpt lat="47.273551" lon="-121.157684"><ele>1260.5</ele></trkpt>
<trkpt lat="47.273488" lon="-121.157419"><ele>1268.1</ele></trkpt>
<trkpt lat="47.273407" lon="-121.157323"><ele>1271.8</ele></trkpt>
<trkpt lat="47.273499" lon="-121.157179"><ele>1277.4</ele></trkpt>
<trkpt lat="47.273642" lon="-121.157130"><ele>1286.9</ele></trkpt>
<trkpt lat="47.273769" lon="-121.156665"><ele>1300.2</ele></trkpt>
<trkpt lat="47.273831" lon="-121.156291"><ele>1313.5</ele></trkpt>
<trkpt lat="47.273703" lon="-121.156219"><ele>1319.6</ele></trkpt>
<trkpt lat="47.273760" lon="-121.156254"><ele>1319.6</ele></trkpt>
<trkpt lat="47.273707" lon="-121.156235"><ele>1319.7</ele></trkpt>
<trkpt lat="47.273777" lon="-121.156007"><ele>1324.3</ele></trkpt>
<trkpt lat="47.273778" lon="-121.155823"><ele>1330.1</ele></trkpt>
<trkpt lat="47.274151" lon="-121.155703"><ele>1334.5</ele></trkpt>
<trkpt lat="47.274238" lon="-121.155429"><ele>1341.4</ele></trkpt>
<trkpt lat="47.274332" lon="-121.155292"><ele>1347.4</ele></trkpt>
<trkpt lat="47.274628" lon="-121.155093"><ele>1361.3</ele></trkpt>
<trkpt lat="47.274741" lon="-121.155111"><ele>1366.2</ele></trkpt>
<trkpt lat="47.275029" lon="-121.155379"><ele>1373.6</ele></trkpt>
<trkpt lat="47.275036" lon="-121.155220"><ele>1376.0</ele></trkpt>
<trkpt lat="47.275249" lon="-121.154995"><ele>1385.1</ele></trkpt>
<trkpt lat="47.275308" lon="-121.154836"><ele>1389.8</ele></trkpt>
<trkpt lat="47.275244" lon="-121.154435"><ele>1402.3</ele></trkpt>
<trkpt lat="47.275367" lon="-121.154147"><ele>1410.6</ele></trkpt>
<trkpt lat="47.275225" lon="-121.153852"><ele>1417.6</ele></trkpt>
<trkpt lat="47.275215" lon="-121.153771"><ele>1419.7</ele></trkpt>
<trkpt lat="47.275266" lon="-121.153691"><ele>1424.2</ele></trkpt>
<trkpt lat="47.275237" lon="-121.153644"><ele>1423.6</ele></trkpt>
<trkpt lat="47.275379" lon="-121.153577"><ele>1426.0</ele></trkpt>
<trkpt lat="47.275529" lon="-121.153317"><ele>1430.5</ele></trkpt>
<trkpt lat="47.275750" lon="-121.153087"><ele>1440.0</ele></trkpt>
<trkpt lat="47.276173" lon="-121.153184"><ele>1451.4</ele></trkpt>
<trkpt lat="47.276385" lon="-121.153148"><ele>1459.4</ele></trkpt>
<trkpt lat="47.276601" lon="-121.152850"><ele>1472.3</ele></trkpt>
<trkpt lat="47.276891" lon="-121.152748"><ele>1484.6</ele></trkpt>
<trkpt lat="47.277101" lon="-121.152397"><ele>1497.4</ele></trkpt>
<trkpt lat="47.277280" lon="-121.152242"><ele>1501.9</ele></trkpt>
<trkpt lat="47.277412" lon="-121.151951"><ele>1505.7</ele></trkpt>
<trkpt lat="47.277409" lon="-121.151639"><ele>1503.5</ele></trkpt>
<trkpt lat="47.277248" lon="-121.151152"><ele>1494.8</ele></trkpt>
<trkpt lat="47.277209" lon="-121.150857"><ele>1491.4</ele></trkpt>
<trkpt lat="47.276674" lon="-121.150119"><ele>1481.9</ele></trkpt>
<trkpt lat="47.276718" lon="-121.149901"><ele>1485.4</ele></trkpt>
<trkpt lat="47.276658" lon="-121.149686"><ele>1489.3</ele></trkpt>
<trkpt lat="47.276697" lon="-121.149618"><ele>1491.0</ele></trkpt>
<trkpt lat="47.276370" lon="-121.149517"><ele>1496.0</ele></trkpt>
<trkpt lat="47.276244" lon="-121.149420"><ele>1492.4</ele></trkpt>
<trkpt lat="47.276188" lon="-121.149513"><ele>1491.9</ele></trkpt>
<trkpt lat="47.275944" lon="-121.148808"><ele>1486.1</ele></trkpt>
<trkpt lat="47.275899" lon="-121.148162"><ele>1482.6</ele></trkpt>
<trkpt lat="47.275525" lon="-121.147743"><ele>1479.0</ele></trkpt>
<trkpt lat="47.275397" lon="-121.147488"><ele>1475.7</ele></trkpt>
<trkpt lat="47.275401" lon="-121.147133"><ele>1474.3</ele></trkpt>
<trkpt lat="47.275361" lon="-121.147013"><ele>1472.9</ele></trkpt>
<trkpt lat="47.275391" lon="-121.147018"><ele>1472.4</ele></trkpt>
<trkpt lat="47.275181" lon="-121.146718"><ele>1466.6</ele></trkpt>
<trkpt lat="47.274977" lon="-121.146251"><ele>1468.1</ele></trkpt>
<trkpt lat="47.274587" lon="-121.146128"><ele>1458.6</ele></trkpt>
<trkpt lat="47.274658" lon="-121.145259"><ele>1453.0</ele></trkpt>
<trkpt lat="47.274453" lon="-121.144521"><ele>1449.1</ele></trkpt>
<trkpt lat="47.274507" lon="-121.143923"><ele>1441.8</ele></trkpt>
<trkpt lat="47.274460" lon="-121.143605"><ele>1445.1</ele></trkpt>
<trkpt lat="47.274018" lon="-121.142932"><ele>1450.5</ele></trkpt>
<trkpt lat="47.273816" lon="-121.142462"><ele>1452.4</ele></trkpt>
<trkpt lat="47.273613" lon="-121.142331"><ele>1449.5</ele></trkpt>
<trkpt lat="47.273381" lon="-121.141916"><ele>1448.2</ele></trkpt>
<trkpt lat="47.273333" lon="-121.141740"><ele>1447.7</ele></trkpt>
<trkpt lat="47.273078" lon="-121.141570"><ele>1451.3</ele></trkpt>
<trkpt lat="47.272979" lon="-121.141455"><ele>1453.2</ele></trkpt>
<trkpt lat="47.272846" lon="-121.141148"><ele>1456.4</ele></trkpt>
<trkpt lat="47.272506" lon="-121.140947"><ele>1464.7</ele></trkpt>
<trkpt lat="47.272302" lon="-121.140640"><ele>1470.4</ele></trkpt>
<trkpt lat="47.272249" lon="-121.140501"><ele>1472.9</ele></trkpt>
<trkpt lat="47.272215" lon="-121.140070"><ele>1482.2</ele></trkpt>
<trkpt lat="47.272094" lon="-121.139889"><ele>1486.8</ele></trkpt>
<trkpt lat="47.272063" lon="-121.139754"><ele>1487.1</ele></trkpt>
<trkpt lat="47.272086" lon="-121.139454"><ele>1487.9</ele></trkpt>
<trkpt lat="47.272049" lon="-121.138807"><ele>1488.4</ele></trkpt>
<trkpt lat="47.272083" lon="-121.138477"><ele>1493.1</ele></trkpt>
<trkpt lat="47.271933" lon="-121.138119"><ele>1495.1</ele></trkpt>
<trkpt lat="47.271863" lon="-121.137817"><ele>1500.1</ele></trkpt>
<trkpt lat="47.271482" lon="-121.137444"><ele>1504.5</ele></trkpt>
<trkpt lat="47.270802" lon="-121.136941"><ele>1506.0</ele></trkpt>
<trkpt lat="47.270477" lon="-121.136369"><ele>1515.9</ele></trkpt>
<trkpt lat="47.270427" lon="-121.136167"><ele>1519.6</ele></trkpt>
<trkpt lat="47.270768" lon="-121.135462"><ele>1539.8</ele></trkpt>
<trkpt lat="47.270923" lon="-121.135377"><ele>1546.4</ele></trkpt>
<trkpt lat="47.270901" lon="-121.135349"><ele>1547.2</ele></trkpt>
<trkpt lat="47.271144" lon="-121.135299"><ele>1553.4</ele></trkpt>
<trkpt lat="47.271205" lon="-121.135295"><ele>1556.1</ele></trkpt>
<trkpt lat="47.271215" lon="-121.135387"><ele>1557.9</ele></trkpt>
<trkpt lat="47.271186" lon="-121.135088"><ele>1554.5</ele></trkpt>
<trkpt lat="47.271245" lon="-121.134300"><ele>1541.6</ele></trkpt>
<trkpt lat="47.271186" lon="-121.135088"><ele>1554.5</ele></trkpt>
<trkpt lat="47.271215" lon="-121.135387"><ele>1557.9</ele></trkpt>
<trkpt lat="47.271205" lon="-121.135295"><ele>1556.1</ele></trkpt>
<trkpt lat="47.271144" lon="-121.135299"><ele>1553.4</ele></trkpt>
<trkpt lat="47.270901" lon="-121.135349"><ele>1547.2</ele></trkpt>
<trkpt lat="47.270923" lon="-121.135377"><ele>1546.4</ele></trkpt>
<trkpt lat="47.270768" lon="-121.135462"><ele>1539.8</ele></trkpt>
<trkpt lat="47.270427" lon="-121.136167"><ele>1519.6</ele></trkpt>
<trkpt lat="47.270477" lon="-121.136369"><ele>1515.9</ele></trkpt>
<trkpt lat="47.270802" lon="-121.136941"><ele>1506.0</ele></trkpt>
<trkpt lat="47.271482" lon="-121.137444"><ele>1504.5</ele></trkpt>
<trkpt lat="47.271863" lon="-121.137817"><ele>1500.1</ele></trkpt>
<trkpt lat="47.271933" lon="-121.138119"><ele>1495.1</ele></trkpt>
<trkpt lat="47.272083" lon="-121.138477"><ele>1493.1</ele></trkpt>
<trkpt lat="47.272049" lon="-121.138807"><ele>1488.4</ele></trkpt>
<trkpt lat="47.272086" lon="-121.139454"><ele>1487.9</ele></trkpt>
<trkpt lat="47.272063" lon="-121.139754"><ele>1487.1</ele></trkpt>
<trkpt lat="47.272094" lon="-121.139889"><ele>1486.8</ele></trkpt>
<trkpt lat="47.272215" lon="-121.140070"><ele>1482.2</ele></trkpt>
<trkpt lat="47.272249" lon="-121.140501"><ele>1472.9</ele></trkpt>
<trkpt lat="47.272302" lon="-121.140640"><ele>1470.4</ele></trkpt>
<trkpt lat="47.272506" lon="-121.140947"><ele>1464.7</ele></trkpt>
<trkpt lat="47.272846" lon="-121.141148"><ele>1456.4</ele></trkpt>
<trkpt lat="47.272979" lon="-121.141455"><ele>1453.2</ele></trkpt>
<trkpt lat="47.273078" lon="-121.141570"><ele>1451.3</ele></trkpt>
<trkpt lat="47.273333" lon="-121.141740"><ele>1447.7</ele></trkpt>
<trkpt lat="47.273381" lon="-121.141916"><ele>1448.2</ele></trkpt>
<trkpt lat="47.273613" lon="-121.142331"><ele>1449.5</ele></trkpt>
<trkpt lat="47.273816" lon="-121.142462"><ele>1452.4</ele></trkpt>
<trkpt lat="47.274018" lon="-121.142932"><ele>1450.5</ele></trkpt>
<trkpt lat="47.274460" lon="-121.143605"><ele>1445.1</ele></trkpt>
<trkpt lat="47.274507" lon="-121.143923"><ele>1441.8</ele></trkpt>
<trkpt lat="47.274453" lon="-121.144521"><ele>1449.1</ele></trkpt>
<trkpt lat="47.274658" lon="-121.145259"><ele>1453.0</ele></trkpt>
<trkpt lat="47.274587" lon="-121.146128"><ele>1458.6</ele></trkpt>
<trkpt lat="47.274977" lon="-121.146251"><ele>1468.1</ele></trkpt>
<trkpt lat="47.275181" lon="-121.146718"><ele>1466.6</ele></trkpt>
<trkpt lat="47.275391" lon="-121.147018"><ele>1472.4</ele></trkpt>
<trkpt lat="47.275361" lon="-121.147013"><ele>1472.9</ele></trkpt>
<trkpt lat="47.275401" lon="-121.147133"><ele>1474.3</ele></trkpt>
<trkpt lat="47.275397" lon="-121.147488"><ele>1475.7</ele></trkpt>
<trkpt lat="47.275525" lon="-121.147743"><ele>1479.0</ele></trkpt>
<trkpt lat="47.275899" lon="-121.148162"><ele>1482.6</ele></trkpt>
<trkpt lat="47.275944" lon="-121.148808"><ele>1486.1</ele></trkpt>
<trkpt lat="47.276188" lon="-121.149513"><ele>1491.9</ele></trkpt>
<trkpt lat="47.276244" lon="-121.149420"><ele>1492.4</ele></trkpt>
<trkpt lat="47.276370" lon="-121.149517"><ele>1496.0</ele></trkpt>
<trkpt lat="47.276697" lon="-121.149618"><ele>1491.0</ele></trkpt>
<trkpt lat="47.276658" lon="-121.149686"><ele>1489.3</ele></trkpt>
<trkpt lat="47.276718" lon="-121.149901"><ele>1485.4</ele></trkpt>
<trkpt lat="47.276674" lon="-121.150119"><ele>1481.9</ele></trkpt>
<trkpt lat="47.277209" lon="-121.150857"><ele>1491.4</ele></trkpt>
<trkpt lat="47.277248" lon="-121.151152"><ele>1494.8</ele></trkpt>
<trkpt lat="47.277409" lon="-121.151639"><ele>1503.5</ele></trkpt>
<trkpt lat="47.277412" lon="-121.151951"><ele>1505.7</ele></trkpt>
<trkpt lat="47.277280" lon="-121.152242"><ele>1501.9</ele></trkpt>
<trkpt lat="47.277101" lon="-121.152397"><ele>1497.4</ele></trkpt>
<trkpt lat="47.276891" lon="-121.152748"><ele>1484.6</ele></trkpt>
<trkpt lat="47.276601" lon="-121.152850"><ele>1472.3</ele></trkpt>
<trkpt lat="47.276385" lon="-121.153148"><ele>1459.4</ele></trkpt>
<trkpt lat="47.276173" lon="-121.153184"><ele>1451.4</ele></trkpt>
<trkpt lat="47.275750" lon="-121.153087"><ele>1440.0</ele></trkpt>
<trkpt lat="47.275529" lon="-121.153317"><ele>1430.5</ele></trkpt>
<trkpt lat="47.275379" lon="-121.153577"><ele>1426.0</ele></trkpt>
<trkpt lat="47.275237" lon="-121.153644"><ele>1423.6</ele></trkpt>
<trkpt lat="47.275266" lon="-121.153691"><ele>1424.2</ele></trkpt>
<trkpt lat="47.275215" lon="-121.153771"><ele>1419.7</ele></trkpt>
<trkpt lat="47.275225" lon="-121.153852"><ele>1417.6</ele></trkpt>
<trkpt lat="47.275367" lon="-121.154147"><ele>1410.6</ele></trkpt>
<trkpt lat="47.275244" lon="-121.154435"><ele>1402.3</ele></trkpt>
<trkpt lat="47.275308" lon="-121.154836"><ele>1389.8</ele></trkpt>
<trkpt lat="47.275249" lon="-121.154995"><ele>1385.1</ele></trkpt>
<trkpt lat="47.275036" lon="-121.155220"><ele>1376.0</ele></trkpt>
<trkpt lat="47.275029" lon="-121.155379"><ele>1373.6</ele></trkpt>
<trkpt lat="47.274741" lon="-121.155111"><ele>1366.2</ele></trkpt>
<trkpt lat="47.274628" lon="-121.155093"><ele>1361.3</ele></trkpt>
<trkpt lat="47.274332" lon="-121.155292"><ele>1347.4</ele></trkpt>
<trkpt lat="47.274238" lon="-121.155429"><ele>1341.4</ele></trkpt>
<trkpt lat="47.274151" lon="-121.155703"><ele>1334.5</ele></trkpt>
<trkpt lat="47.273778" lon="-121.155823"><ele>1330.1</ele></trkpt>
<trkpt lat="47.273777" lon="-121.156007"><ele>1324.3</ele></trkpt>
<trkpt lat="47.273707" lon="-121.156235"><ele>1319.7</ele></trkpt>
<trkpt lat="47.273760" lon="-121.156254"><ele>1319.6</ele></trkpt>
<trkpt lat="47.273703" lon="-121.156219"><ele>1319.6</ele></trkpt>
<trkpt lat="47.273831" lon="-121.156291"><ele>1313.5</ele></trkpt>
<trkpt lat="47.273769" lon="-121.156665"><ele>1300.2</ele></trkpt>
<trkpt lat="47.273642" lon="-121.157130"><ele>1286.9</ele></trkpt>
<trkpt lat="47.273499" lon="-121.157179"><ele>1277.4</ele></trkpt>
<trkpt lat="47.273407" lon="-121.157323"><ele>1271.8</ele></trkpt>
<trkpt lat="47.273488" lon="-121.157419"><ele>1268.1</ele></trkpt>
<trkpt lat="47.273551" lon="-121.157684"><ele>1260.5</ele></trkpt>
<trkpt lat="47.273256" lon="-121.157829"><ele>1250.2</ele></trkpt>
<trkpt lat="47.273091" lon="-121.158313"><ele>1236.4</ele></trkpt>
<trkpt lat="47.272974" lon="-121.158472"><ele>1236.6</ele></trkpt>
<trkpt lat="47.272979" lon="-121.158636"><ele>1233.4</ele></trkpt>
<trkpt lat="47.272885" lon="-121.158944"><ele>1224.9</ele></trkpt>
<trkpt lat="47.272823" lon="-121.158961"><ele>1222.0</ele></trkpt>
<trkpt lat="47.272843" lon="-121.159363"><ele>1209.5</ele></trkpt>
<trkpt lat="47.272899" lon="-121.159602"><ele>1202.3</ele></trkpt>
<trkpt lat="47.273001" lon="-121.159760"><ele>1195.9</ele></trkpt>
<trkpt lat="47.272896" lon="-121.160163"><ele>1187.3</ele></trkpt>
<trkpt lat="47.272759" lon="-121.160287"><ele>1182.0</ele></trkpt>
<trkpt lat="47.272541" lon="-121.160246"><ele>1178.3</ele></trkpt>
<trkpt lat="47.272509" lon="-121.160136"><ele>1175.2</ele></trkpt>
<trkpt lat="47.271903" lon="-121.159701"><ele>1156.9</ele></trkpt>
<trkpt lat="47.271905" lon="-121.160183"><ele>1142.4</ele></trkpt>
<trkpt lat="47.271845" lon="-121.160295"><ele>1138.1</ele></trkpt>
<trkpt lat="47.271749" lon="-121.160408"><ele>1134.0</ele></trkpt>
<trkpt lat="47.271588" lon="-121.160458"><ele>1131.8</ele></trkpt>
<trkpt lat="47.271376" lon="-121.160425"><ele>1127.0</ele></trkpt>
<trkpt lat="47.271293" lon="-121.160718"><ele>1122.7</ele></trkpt>
<trkpt lat="47.271216" lon="-121.160731"><ele>1120.1</ele></trkpt>
<trkpt lat="47.270903" lon="-121.161049"><ele>1109.4</ele></trkpt>
<trkpt lat="47.271100" lon="-121.161508"><ele>1107.4</ele></trkpt>
<trkpt lat="47.271133" lon="-121.161957"><ele>1100.8</ele></trkpt>
<trkpt lat="47.270675" lon="-121.162819"><ele>1100.9</ele></trkpt>
<trkpt lat="47.270646" lon="-121.163121"><ele>1091.2</ele></trkpt>
<trkpt lat="47.270503" lon="-121.163475"><ele>1082.5</ele></trkpt>
<trkpt lat="47.270358" lon="-121.163690"><ele>1080.8</ele></trkpt>
<trkpt lat="47.269919" lon="-121.163918"><ele>1082.9</ele></trkpt>
<trkpt lat="47.269733" lon="-121.163915"><ele>1083.1</ele></trkpt>
<trkpt lat="47.269488" lon="-121.164237"><ele>1086.2</ele></trkpt>
<trkpt lat="47.269181" lon="-121.164315"><ele>1086.6</ele></trkpt>
<trkpt lat="47.269009" lon="-121.164450"><ele>1087.8</ele></trkpt>
<trkpt lat="47.268821" lon="-121.164475"><ele>1089.2</ele></trkpt>
<trkpt lat="47.268386" lon="-121.164751"><ele>1095.0</ele></trkpt>
<trkpt lat="47.268350" lon="-121.164723"><ele>1095.2</ele></trkpt>
<trkpt lat="47.268414" lon="-121.164774"><ele>1095.3</ele></trkpt>
<trkpt lat="47.267866" lon="-121.164380"><ele>1090.3</ele></trkpt>
<trkpt lat="47.267066" lon="-121.164271"><ele>1084.3</ele></trkpt>
<trkpt lat="47.266511" lon="-121.164056"><ele>1073.3</ele></trkpt>
<trkpt lat="47.266262" lon="-121.164033"><ele>1070.1</ele></trkpt>
<trkpt lat="47.265892" lon="-121.164161"><ele>1071.2</ele></trkpt>
<trkpt lat="47.265673" lon="-121.164098"><ele>1072.9</ele></trkpt>
<trkpt lat="47.265105" lon="-121.164135"><ele>1070.2</ele></trkpt>
<trkpt lat="47.264484" lon="-121.164484"><ele>1057.7</ele></trkpt>
<trkpt lat="47.264294" lon="-121.164478"><ele>1055.5</ele></trkpt>
<trkpt lat="47.264310" lon="-121.164529"><ele>1055.5</ele></trkpt>
<trkpt lat="47.263752" lon="-121.164627"><ele>1040.2</ele></trkpt>
<trkpt lat="47.264304" lon="-121.165206"><ele>1028.8</ele></trkpt>
<trkpt lat="47.264651" lon="-121.165381"><ele>1022.6</ele></trkpt>
<trkpt lat="47.264765" lon="-121.165510"><ele>1020.4</ele></trkpt>
<trkpt lat="47.264745" lon="-121.165614"><ele>1019.2</ele></trkpt>
<trkpt lat="47.264449" lon="-121.165593"><ele>1010.1</ele></trkpt>
<trkpt lat="47.264438" lon="-121.165660"><ele>1009.3</ele></trkpt>
<trkpt lat="47.264325" lon="-121.165598"><ele>1005.9</ele></trkpt>
<trkpt lat="47.264463" lon="-121.165849"><ele>1000.2</ele></trkpt>
<trkpt lat="47.264532" lon="-121.165850"><ele>998.6</ele></trkpt>
<trkpt lat="47.264883" lon="-121.166204"><ele>987.7</ele></trkpt>
<trkpt lat="47.264565" lon="-121.166552"><ele>976.2</ele></trkpt>
<trkpt lat="47.264729" lon="-121.166649"><ele>974.4</ele></trkpt>
<trkpt lat="47.265071" lon="-121.166485"><ele>968.9</ele></trkpt>
<trkpt lat="47.265325" lon="-121.166586"><ele>964.2</ele></trkpt>
<trkpt lat="47.265669" lon="-121.166484"><ele>961.3</ele></trkpt>
<trkpt lat="47.265999" lon="-121.166544"><ele>957.5</ele></trkpt>
<trkpt lat="47.266251" lon="-121.166511"><ele>951.1</ele></trkpt>
<trkpt lat="47.266294" lon="-121.166580"><ele>948.4</ele></trkpt>
<trkpt lat="47.266141" lon="-121.166697"><ele>944.9</ele></trkpt>
<trkpt lat="47.266034" lon="-121.166955"><ele>941.3</ele></trkpt>
<trkpt lat="47.265697" lon="-121.167038"><ele>932.8</ele></trkpt>
<trkpt lat="47.266679" lon="-121.167167"><ele>917.7</ele></trkpt>
<trkpt lat="47.266750" lon="-121.167247"><ele>916.1</ele></trkpt>
<trkpt lat="47.266790" lon="-121.167434"><ele>913.1</ele></trkpt>
<trkpt lat="47.266925" lon="-121.167562"><ele>909.5</ele></trkpt>
<trkpt lat="47.266816" lon="-121.167652"><ele>903.9</ele></trkpt>
<trkpt lat="47.266969" lon="-121.167797"><ele>900.6</ele></trkpt>
<trkpt lat="47.266986" lon="-121.167877"><ele>900.3</ele></trkpt>
<trkpt lat="47.266778" lon="-121.168009"><ele>893.1</ele></trkpt>
<trkpt lat="47.266615" lon="-121.167874"><ele>887.7</ele></trkpt>
<trkpt lat="47.266721" lon="-121.168066"><ele>885.1</ele></trkpt>
<trkpt lat="47.266766" lon="-121.168284"><ele>880.6</ele></trkpt>
<trkpt lat="47.266870" lon="-121.168387"><ele>877.1</ele></trkpt>
<trkpt lat="47.266834" lon="-121.168528"><ele>875.6</ele></trkpt>
<trkpt lat="47.266699" lon="-121.168551"><ele>872.4</ele></trkpt>
<trkpt lat="47.266539" lon="-121.168398"><ele>867.9</ele></trkpt>
<trkpt lat="47.266470" lon="-121.168482"><ele>863.7</ele></trkpt>
<trkpt lat="47.266772" lon="-121.168882"><ele>857.3</ele></trkpt>
<trkpt lat="47.267062" lon="-121.168945"><ele>850.7</ele></trkpt>
<trkpt lat="47.266892" lon="-121.169234"><ele>846.4</ele></trkpt>
<trkpt lat="47.266550" lon="-121.169273"><ele>836.9</ele></trkpt>
<trkpt lat="47.266517" lon="-121.169525"><ele>836.9</ele></trkpt>
<trkpt lat="47.266418" lon="-121.169644"><ele>834.6</ele></trkpt>
<trkpt lat="47.266457" lon="-121.169826"><ele>829.7</ele></trkpt>
<trkpt lat="47.266436" lon="-121.169991"><ele>828.8</ele></trkpt>
<trkpt lat="47.266186" lon="-121.170320"><ele>827.0</ele></trkpt>
<trkpt lat="47.266210" lon="-121.170588"><ele>823.0</ele></trkpt>
<trkpt lat="47.265986" lon="-121.171607"><ele>813.1</ele></trkpt>
<trkpt lat="47.266034" lon="-121.171648"><ele>813.4</ele></trkpt>
<trkpt lat="47.265976" lon="-121.171597"><ele>811.6</ele></trkpt>
<trkpt lat="47.266239" lon="-121.171396"><ele>805.8</ele></trkpt>
<trkpt lat="47.266638" lon="-121.170921"><ele>796.2</ele></trkpt>
<trkpt lat="47.266823" lon="-121.170825"><ele>792.7</ele></trkpt>
<trkpt lat="47.266839" lon="-121.170892"><ele>791.6</ele></trkpt>
<trkpt lat="47.266735" lon="-121.171155"><ele>785.1</ele></trkpt>
<trkpt lat="47.266744" lon="-121.171346"><ele>782.4</ele></trkpt>
<trkpt lat="47.266404" lon="-121.172580"><ele>754.2</ele></trkpt>
<trkpt lat="47.266865" lon="-121.172245"><ele>742.8</ele></trkpt>
<trkpt lat="47.267087" lon="-121.172153"><ele>739.6</ele></trkpt>
<trkpt lat="47.267254" lon="-121.172200"><ele>736.2</ele></trkpt>
<trkpt lat="47.267411" lon="-121.171954"><ele>737.2</ele></trkpt>
<trkpt lat="47.267571" lon="-121.171979"><ele>735.7</ele></trkpt>
<trkpt lat="47.267627" lon="-121.172255"><ele>734.0</ele></trkpt>
<trkpt lat="47.267409" lon="-121.172801"><ele>732.5</ele></trkpt>
<trkpt lat="47.267184" lon="-121.173121"><ele>731.3</ele></trkpt>
<trkpt lat="47.267206" lon="-121.173201"><ele>732.1</ele></trkpt>
<trkpt lat="47.267388" lon="-121.173295"><ele>735.5</ele></trkpt>
<trkpt lat="47.267518" lon="-121.173645"><ele>732.6</ele></trkpt>
<trkpt lat="47.267578" lon="-121.173919"><ele>731.8</ele></trkpt>
<trkpt lat="47.267509" lon="-121.174176"><ele>720.2</ele></trkpt>
</trkseg></trk>
</gpx>
