<?xml version="1.0" encoding="UTF-8"?>
<gpx version="1.1" creator="The Lost Trailhead" xmlns="http://www.topografix.com/GPX/1/1" xmlns:xsi="http://www.w3.org/2001/XMLSchema-instance" xsi:schemaLocation="http://www.topografix.com/GPX/1/1 http://www.topografix.com/GPX/1/1/gpx.xsd">
<metadata><name>Lake Ingalls</name><desc>The Lost Trailhead, thelosttrailhead.com/hikes/lake-ingalls. Conditions change. Use at your own risk.</desc><link href="https://thelosttrailhead.com/hikes/lake-ingalls"><text>Lake Ingalls on The Lost Trailhead</text></link></metadata>
<trk><name>Lake Ingalls</name><link href="https://thelosttrailhead.com/hikes/lake-ingalls"><text>Lake Ingalls on The Lost Trailhead</text></link><trkseg>
<trkpt lat="47.432706" lon="-120.936113"><ele>1266.5</ele></trkpt>
<trkpt lat="47.432985" lon="-120.936065"><ele>1271.8</ele></trkpt>
<trkpt lat="47.433279" lon="-120.936141"><ele>1275.4</ele></trkpt>
<trkpt lat="47.433885" lon="-120.936693"><ele>1285.0</ele></trkpt>
<trkpt lat="47.434287" lon="-120.936942"><ele>1286.1</ele></trkpt>
<trkpt lat="47.433649" lon="-120.936389"><ele>1283.4</ele></trkpt>
<trkpt lat="47.433940" lon="-120.936725"><ele>1285.1</ele></trkpt>
<trkpt lat="47.434255" lon="-120.936900"><ele>1285.4</ele></trkpt>
<trkpt lat="47.434472" lon="-120.936968"><ele>1286.3</ele></trkpt>
<trkpt lat="47.435136" lon="-120.936997"><ele>1290.3</ele></trkpt>
<trkpt lat="47.435679" lon="-120.937264"><ele>1295.8</ele></trkpt>
<trkpt lat="47.435888" lon="-120.937280"><ele>1298.3</ele></trkpt>
<trkpt lat="47.436302" lon="-120.937153"><ele>1302.3</ele></trkpt>
<trkpt lat="47.436613" lon="-120.936982"><ele>1302.2</ele></trkpt>
<trkpt lat="47.436656" lon="-120.936879"><ele>1300.6</ele></trkpt>
<trkpt lat="47.436807" lon="-120.936856"><ele>1302.8</ele></trkpt>
<trkpt lat="47.437021" lon="-120.936941"><ele>1310.0</ele></trkpt>
<trkpt lat="47.437569" lon="-120.937334"><ele>1317.2</ele></trkpt>
<trkpt lat="47.437701" lon="-120.937353"><ele>1318.7</ele></trkpt>
<trkpt lat="47.437724" lon="-120.937305"><ele>1322.6</ele></trkpt>
<trkpt lat="47.438218" lon="-120.937449"><ele>1330.9</ele></trkpt>
<trkpt lat="47.438568" lon="-120.937693"><ele>1338.5</ele></trkpt>
<trkpt lat="47.438992" lon="-120.938229"><ele>1347.4</ele></trkpt>
<trkpt lat="47.439613" lon="-120.938296"><ele>1360.0</ele></trkpt>
<trkpt lat="47.439976" lon="-120.938582"><ele>1366.8</ele></trkpt>
<trkpt lat="47.440302" lon="-120.938448"><ele>1368.1</ele></trkpt>
<trkpt lat="47.440509" lon="-120.938449"><ele>1368.0</ele></trkpt>
<trkpt lat="47.440558" lon="-120.938332"><ele>1368.7</ele></trkpt>
<trkpt lat="47.440559" lon="-120.938135"><ele>1371.2</ele></trkpt>
<trkpt lat="47.440620" lon="-120.938096"><ele>1371.9</ele></trkpt>
<trkpt lat="47.440926" lon="-120.938177"><ele>1379.9</ele></trkpt>
<trkpt lat="47.441012" lon="-120.938257"><ele>1381.7</ele></trkpt>
<trkpt lat="47.441435" lon="-120.938079"><ele>1392.5</ele></trkpt>
<trkpt lat="47.441910" lon="-120.938114"><ele>1398.9</ele></trkpt>
<trkpt lat="47.442188" lon="-120.938374"><ele>1406.7</ele></trkpt>
<trkpt lat="47.442269" lon="-120.938384"><ele>1408.0</ele></trkpt>
<trkpt lat="47.442386" lon="-120.938159"><ele>1412.0</ele></trkpt>
<trkpt lat="47.442405" lon="-120.938003"><ele>1412.6</ele></trkpt>
<trkpt lat="47.442360" lon="-120.937847"><ele>1412.7</ele></trkpt>
<trkpt lat="47.441654" lon="-120.936987"><ele>1424.1</ele></trkpt>
<trkpt lat="47.441663" lon="-120.936924"><ele>1427.3</ele></trkpt>
<trkpt lat="47.442612" lon="-120.937326"><ele>1440.1</ele></trkpt>
<trkpt lat="47.442834" lon="-120.937307"><ele>1443.5</ele></trkpt>
<trkpt lat="47.443055" lon="-120.937410"><ele>1447.0</ele></trkpt>
<trkpt lat="47.443240" lon="-120.937325"><ele>1448.7</ele></trkpt>
<trkpt lat="47.443386" lon="-120.937352"><ele>1451.6</ele></trkpt>
<trkpt lat="47.443493" lon="-120.937450"><ele>1455.3</ele></trkpt>
<trkpt lat="47.443520" lon="-120.937856"><ele>1457.5</ele></trkpt>
<trkpt lat="47.443610" lon="-120.938011"><ele>1459.8</ele></trkpt>
<trkpt lat="47.443774" lon="-120.937979"><ele>1462.5</ele></trkpt>
<trkpt lat="47.443896" lon="-120.937858"><ele>1465.0</ele></trkpt>
<trkpt lat="47.444095" lon="-120.937871"><ele>1468.8</ele></trkpt>
<trkpt lat="47.444164" lon="-120.938248"><ele>1473.0</ele></trkpt>
<trkpt lat="47.444286" lon="-120.938290"><ele>1474.9</ele></trkpt>
<trkpt lat="47.444480" lon="-120.938000"><ele>1478.0</ele></trkpt>
<trkpt lat="47.444534" lon="-120.937633"><ele>1481.4</ele></trkpt>
<trkpt lat="47.444345" lon="-120.937393"><ele>1483.9</ele></trkpt>
<trkpt lat="47.444218" lon="-120.936892"><ele>1490.6</ele></trkpt>
<trkpt lat="47.444064" lon="-120.936787"><ele>1493.2</ele></trkpt>
<trkpt lat="47.444028" lon="-120.936601"><ele>1497.2</ele></trkpt>
<trkpt lat="47.444112" lon="-120.936644"><ele>1500.7</ele></trkpt>
<trkpt lat="47.444216" lon="-120.936559"><ele>1502.4</ele></trkpt>
<trkpt lat="47.444200" lon="-120.936524"><ele>1501.4</ele></trkpt>
<trkpt lat="47.444269" lon="-120.936550"><ele>1502.2</ele></trkpt>
<trkpt lat="47.444342" lon="-120.936722"><ele>1503.2</ele></trkpt>
<trkpt lat="47.444527" lon="-120.936822"><ele>1505.8</ele></trkpt>
<trkpt lat="47.444740" lon="-120.936698"><ele>1509.2</ele></trkpt>
<trkpt lat="47.444916" lon="-120.936483"><ele>1511.9</ele></trkpt>
<trkpt lat="47.444910" lon="-120.936402"><ele>1511.2</ele></trkpt>
<trkpt lat="47.444614" lon="-120.936309"><ele>1515.3</ele></trkpt>
<trkpt lat="47.444502" lon="-120.936070"><ele>1518.2</ele></trkpt>
<trkpt lat="47.444674" lon="-120.936130"><ele>1522.9</ele></trkpt>
<trkpt lat="47.444849" lon="-120.935940"><ele>1525.1</ele></trkpt>
<trkpt lat="47.444969" lon="-120.935301"><ele>1531.2</ele></trkpt>
<trkpt lat="47.444805" lon="-120.935198"><ele>1533.4</ele></trkpt>
<trkpt lat="47.444599" lon="-120.935307"><ele>1535.9</ele></trkpt>
<trkpt lat="47.444212" lon="-120.935288"><ele>1538.7</ele></trkpt>
<trkpt lat="47.444129" lon="-120.935163"><ele>1540.0</ele></trkpt>
<trkpt lat="47.444238" lon="-120.935195"><ele>1543.4</ele></trkpt>
<trkpt lat="47.444367" lon="-120.935046"><ele>1545.2</ele></trkpt>
<trkpt lat="47.444467" lon="-120.934518"><ele>1552.5</ele></trkpt>
<trkpt lat="47.444368" lon="-120.934408"><ele>1552.6</ele></trkpt>
<trkpt lat="47.444121" lon="-120.934435"><ele>1554.9</ele></trkpt>
<trkpt lat="47.444185" lon="-120.934094"><ele>1560.8</ele></trkpt>
<trkpt lat="47.443974" lon="-120.934046"><ele>1565.4</ele></trkpt>
<trkpt lat="47.443855" lon="-120.934324"><ele>1565.1</ele></trkpt>
<trkpt lat="47.443911" lon="-120.934254"><ele>1563.6</ele></trkpt>
<trkpt lat="47.443647" lon="-120.934554"><ele>1569.0</ele></trkpt>
<trkpt lat="47.443625" lon="-120.934653"><ele>1566.5</ele></trkpt>
<trkpt lat="47.443633" lon="-120.934564"><ele>1566.2</ele></trkpt>
<trkpt lat="47.443488" lon="-120.934379"><ele>1569.5</ele></trkpt>
<trkpt lat="47.443020" lon="-120.934089"><ele>1574.5</ele></trkpt>
<trkpt lat="47.442919" lon="-120.933811"><ele>1577.5</ele></trkpt>
<trkpt lat="47.442899" lon="-120.933613"><ele>1580.4</ele></trkpt>
<trkpt lat="47.443100" lon="-120.933680"><ele>1584.6</ele></trkpt>
<trkpt lat="47.443378" lon="-120.933569"><ele>1588.7</ele></trkpt>
<trkpt lat="47.443805" lon="-120.932966"><ele>1597.1</ele></trkpt>
<trkpt lat="47.444031" lon="-120.932836"><ele>1598.4</ele></trkpt>
<trkpt lat="47.444156" lon="-120.932627"><ele>1602.1</ele></trkpt>
<trkpt lat="47.444614" lon="-120.932459"><ele>1608.6</ele></trkpt>
<trkpt lat="47.444731" lon="-120.932341"><ele>1609.0</ele></trkpt>
<trkpt lat="47.444765" lon="-120.932262"><ele>1609.6</ele></trkpt>
<trkpt lat="47.444735" lon="-120.932157"><ele>1610.7</ele></trkpt>
<trkpt lat="47.444578" lon="-120.932126"><ele>1613.2</ele></trkpt>
<trkpt lat="47.444418" lon="-120.931999"><ele>1615.1</ele></trkpt>
<trkpt lat="47.444187" lon="-120.931713"><ele>1617.6</ele></trkpt>
<trkpt lat="47.444432" lon="-120.931696"><ele>1624.3</ele></trkpt>
<trkpt lat="47.444472" lon="-120.931576"><ele>1625.3</ele></trkpt>
<trkpt lat="47.444278" lon="-120.931331"><ele>1629.3</ele></trkpt>
<trkpt lat="47.444277" lon="-120.931263"><ele>1632.2</ele></trkpt>
<trkpt lat="47.444417" lon="-120.931204"><ele>1632.8</ele></trkpt>
<trkpt lat="47.444540" lon="-120.931001"><ele>1634.5</ele></trkpt>
<trkpt lat="47.444570" lon="-120.930794"><ele>1635.9</ele></trkpt>
<trkpt lat="47.444656" lon="-120.930657"><ele>1637.3</ele></trkpt>
<trkpt lat="47.444774" lon="-120.930609"><ele>1641.6</ele></trkpt>
<trkpt lat="47.444885" lon="-120.930691"><ele>1642.1</ele></trkpt>
<trkpt lat="47.444921" lon="-120.930480"><ele>1643.0</ele></trkpt>
<trkpt lat="47.445006" lon="-120.930393"><ele>1644.0</ele></trkpt>
<trkpt lat="47.445479" lon="-120.930395"><ele>1650.9</ele></trkpt>
<trkpt lat="47.445777" lon="-120.930680"><ele>1658.0</ele></trkpt>
<trkpt lat="47.445956" lon="-120.930768"><ele>1660.1</ele></trkpt>
<trkpt lat="47.446088" lon="-120.930751"><ele>1662.4</ele></trkpt>
<trkpt lat="47.446227" lon="-120.930559"><ele>1664.8</ele></trkpt>
<trkpt lat="47.446308" lon="-120.930551"><ele>1665.0</ele></trkpt>
<trkpt lat="47.446384" lon="-120.931008"><ele>1667.0</ele></trkpt>
<trkpt lat="47.446602" lon="-120.931002"><ele>1671.2</ele></trkpt>
<trkpt lat="47.446711" lon="-120.931120"><ele>1672.3</ele></trkpt>
<trkpt lat="47.446684" lon="-120.931527"><ele>1675.3</ele></trkpt>
<trkpt lat="47.446824" lon="-120.932408"><ele>1682.9</ele></trkpt>
<trkpt lat="47.447134" lon="-120.933308"><ele>1688.8</ele></trkpt>
<trkpt lat="47.447276" lon="-120.933438"><ele>1689.9</ele></trkpt>
<trkpt lat="47.447778" lon="-120.933610"><ele>1695.7</ele></trkpt>
<trkpt lat="47.448176" lon="-120.933899"><ele>1698.7</ele></trkpt>
<trkpt lat="47.448535" lon="-120.933727"><ele>1704.1</ele></trkpt>
<trkpt lat="47.448685" lon="-120.933767"><ele>1704.6</ele></trkpt>
<trkpt lat="47.448833" lon="-120.933918"><ele>1707.6</ele></trkpt>
<trkpt lat="47.449529" lon="-120.933840"><ele>1717.5</ele></trkpt>
<trkpt lat="47.449676" lon="-120.933896"><ele>1719.8</ele></trkpt>
<trkpt lat="47.449957" lon="-120.933573"><ele>1724.8</ele></trkpt>
<trkpt lat="47.450177" lon="-120.933446"><ele>1727.4</ele></trkpt>
<trkpt lat="47.450316" lon="-120.933801"><ele>1731.2</ele></trkpt>
<trkpt lat="47.450552" lon="-120.934055"><ele>1733.2</ele></trkpt>
<trkpt lat="47.450579" lon="-120.934336"><ele>1735.1</ele></trkpt>
<trkpt lat="47.450710" lon="-120.934688"><ele>1740.1</ele></trkpt>
<trkpt lat="47.450774" lon="-120.934772"><ele>1740.8</ele></trkpt>
<trkpt lat="47.450856" lon="-120.934776"><ele>1741.0</ele></trkpt>
<trkpt lat="47.450902" lon="-120.934932"><ele>1742.5</ele></trkpt>
<trkpt lat="47.451066" lon="-120.935022"><ele>1745.3</ele></trkpt>
<trkpt lat="47.451110" lon="-120.935145"><ele>1746.2</ele></trkpt>
<trkpt lat="47.452613" lon="-120.935750"><ele>1769.1</ele></trkpt>
<trkpt lat="47.453379" lon="-120.935461"><ele>1781.2</ele></trkpt>
<trkpt lat="47.453639" lon="-120.935264"><ele>1785.7</ele></trkpt>
<trkpt lat="47.454169" lon="-120.935016"><ele>1792.8</ele></trkpt>
<trkpt lat="47.454469" lon="-120.935267"><ele>1795.8</ele></trkpt>
<trkpt lat="47.454980" lon="-120.935917"><ele>1803.6</ele></trkpt>
<trkpt lat="47.455614" lon="-120.936120"><ele>1814.9</ele></trkpt>
<trkpt lat="47.455649" lon="-120.936035"><ele>1816.9</ele></trkpt>
<trkpt lat="47.455530" lon="-120.935806"><ele>1823.0</ele></trkpt>
<trkpt lat="47.455982" lon="-120.935514"><ele>1829.3</ele></trkpt>
<trkpt lat="47.455992" lon="-120.935457"><ele>1830.0</ele></trkpt>
<trkpt lat="47.455956" lon="-120.935311"><ele>1834.5</ele></trkpt>
<trkpt lat="47.455823" lon="-120.935123"><ele>1836.5</ele></trkpt>
<trkpt lat="47.455502" lon="-120.934988"><ele>1841.6</ele></trkpt>
<trkpt lat="47.455358" lon="-120.934615"><ele>1841.6</ele></trkpt>
<trkpt lat="47.455341" lon="-120.934361"><ele>1843.4</ele></trkpt>
<trkpt lat="47.455227" lon="-120.933953"><ele>1847.9</ele></trkpt>
<trkpt lat="47.455651" lon="-120.934190"><ele>1855.8</ele></trkpt>
<trkpt lat="47.455802" lon="-120.934367"><ele>1859.5</ele></trkpt>
<trkpt lat="47.455817" lon="-120.934090"><ele>1861.7</ele></trkpt>
<trkpt lat="47.455696" lon="-120.933664"><ele>1869.8</ele></trkpt>
<trkpt lat="47.456180" lon="-120.933947"><ele>1877.1</ele></trkpt>
<trkpt lat="47.456313" lon="-120.934159"><ele>1880.1</ele></trkpt>
<trkpt lat="47.456464" lon="-120.934232"><ele>1886.3</ele></trkpt>
<trkpt lat="47.456660" lon="-120.934431"><ele>1890.9</ele></trkpt>
<trkpt lat="47.456883" lon="-120.934519"><ele>1893.9</ele></trkpt>
<trkpt lat="47.457365" lon="-120.934192"><ele>1901.8</ele></trkpt>
<trkpt lat="47.457941" lon="-120.934083"><ele>1916.0</ele></trkpt>
<trkpt lat="47.457698" lon="-120.933671"><ele>1924.5</ele></trkpt>
<trkpt lat="47.457314" lon="-120.933360"><ele>1932.3</ele></trkpt>
<trkpt lat="47.457846" lon="-120.933345"><ele>1939.1</ele></trkpt>
<trkpt lat="47.458198" lon="-120.933520"><ele>1946.6</ele></trkpt>
<trkpt lat="47.458364" lon="-120.933489"><ele>1949.2</ele></trkpt>
<trkpt lat="47.458443" lon="-120.933537"><ele>1948.3</ele></trkpt>
<trkpt lat="47.458740" lon="-120.933884"><ele>1952.8</ele></trkpt>
<trkpt lat="47.458806" lon="-120.934149"><ele>1954.1</ele></trkpt>
<trkpt lat="47.459005" lon="-120.934488"><ele>1957.8</ele></trkpt>
<trkpt lat="47.459329" lon="-120.935400"><ele>1971.3</ele></trkpt>
<trkpt lat="47.459495" lon="-120.935546"><ele>1974.9</ele></trkpt>
<trkpt lat="47.459415" lon="-120.935541"><ele>1975.3</ele></trkpt>
<trkpt lat="47.459384" lon="-120.935690"><ele>1978.0</ele></trkpt>
<trkpt lat="47.459535" lon="-120.935823"><ele>1979.1</ele></trkpt>
<trkpt lat="47.459618" lon="-120.936194"><ele>1980.2</ele></trkpt>
<trkpt lat="47.459638" lon="-120.936858"><ele>1976.4</ele></trkpt>
<trkpt lat="47.459748" lon="-120.937619"><ele>1981.4</ele></trkpt>
<trkpt lat="47.460008" lon="-120.938058"><ele>1980.3</ele></trkpt>
<trkpt lat="47.460151" lon="-120.938152"><ele>1977.1</ele></trkpt>
<trkpt lat="47.460228" lon="-120.938309"><ele>1975.4</ele></trkpt>
<trkpt lat="47.460461" lon="-120.938411"><ele>1974.2</ele></trkpt>
<trkpt lat="47.460741" lon="-120.939209"><ele>1977.3</ele></trkpt>
<trkpt lat="47.460886" lon="-120.939171"><ele>1976.7</ele></trkpt>
<trkpt lat="47.461001" lon="-120.939380"><ele>1976.6</ele></trkpt>
<trkpt lat="47.461106" lon="-120.939364"><ele>1977.5</ele></trkpt>
<trkpt lat="47.461273" lon="-120.939489"><ele>1978.7</ele></trkpt>
<trkpt lat="47.461372" lon="-120.939469"><ele>1980.0</ele></trkpt>
<trkpt lat="47.461484" lon="-120.939534"><ele>1981.2</ele></trkpt>
<trkpt lat="47.461548" lon="-120.939751"><ele>1982.3</ele></trkpt>
<trkpt lat="47.461650" lon="-120.939844"><ele>1983.5</ele></trkpt>
<trkpt lat="47.461679" lon="-120.940145"><ele>1987.4</ele></trkpt>
<trkpt lat="47.461770" lon="-120.940281"><ele>1989.9</ele></trkpt>
<trkpt lat="47.461851" lon="-120.940239"><ele>1990.0</ele></trkpt>
<trkpt lat="47.461747" lon="-120.940313"><ele>1989.6</ele></trkpt>
<trkpt lat="47.461724" lon="-120.940444"><ele>1989.8</ele></trkpt>
<trkpt lat="47.461810" lon="-120.940658"><ele>1986.4</ele></trkpt>
<trkpt lat="47.461798" lon="-120.940905"><ele>1983.6</ele></trkpt>
<trkpt lat="47.461861" lon="-120.941044"><ele>1980.9</ele></trkpt>
<trkpt lat="47.461854" lon="-120.941153"><ele>1980.9</ele></trkpt>
<trkpt lat="47.462067" lon="-120.941511"><ele>1976.3</ele></trkpt>
<trkpt lat="47.462268" lon="-120.941563"><ele>1973.6</ele></trkpt>
<trkpt lat="47.462338" lon="-120.941640"><ele>1973.2</ele></trkpt>
<trkpt lat="47.462375" lon="-120.941829"><ele>1974.9</ele></trkpt>
<trkpt lat="47.462296" lon="-120.941997"><ele>1974.9</ele></trkpt>
<trkpt lat="47.462235" lon="-120.942329"><ele>1973.9</ele></trkpt>
<trkpt lat="47.462252" lon="-120.942277"><ele>1974.3</ele></trkpt>
<trkpt lat="47.462596" lon="-120.942435"><ele>1969.9</ele></trkpt>
<trkpt lat="47.462724" lon="-120.942705"><ele>1967.2</ele></trkpt>
<trkpt lat="47.462745" lon="-120.942929"><ele>1965.0</ele></trkpt>
<trkpt lat="47.462834" lon="-120.943050"><ele>1962.6</ele></trkpt>
<trkpt lat="47.463027" lon="-120.943094"><ele>1961.3</ele></trkpt>
<trkpt lat="47.463403" lon="-120.942957"><ele>1959.1</ele></trkpt>
<trkpt lat="47.463509" lon="-120.943360"><ele>1961.3</ele></trkpt>
<trkpt lat="47.463641" lon="-120.943550"><ele>1961.4</ele></trkpt>
<trkpt lat="47.463622" lon="-120.943885"><ele>1965.1</ele></trkpt>
<trkpt lat="47.463844" lon="-120.944212"><ele>1968.8</ele></trkpt>
<trkpt lat="47.464032" lon="-120.944070"><ele>1968.9</ele></trkpt>
<trkpt lat="47.464232" lon="-120.944284"><ele>1972.2</ele></trkpt>
<trkpt lat="47.464305" lon="-120.944299"><ele>1972.0</ele></trkpt>
<trkpt lat="47.464431" lon="-120.944259"><ele>1969.2</ele></trkpt>
<trkpt lat="47.464483" lon="-120.944096"><ele>1967.8</ele></trkpt>
<trkpt lat="47.464445" lon="-120.944269"><ele>1969.1</ele></trkpt>
<trkpt lat="47.464572" lon="-120.944391"><ele>1967.2</ele></trkpt>
<trkpt lat="47.464669" lon="-120.944075"><ele>1963.0</ele></trkpt>
<trkpt lat="47.464982" lon="-120.944020"><ele>1962.5</ele></trkpt>
<trkpt lat="47.465091" lon="-120.943910"><ele>1959.5</ele></trkpt>
<trkpt lat="47.465122" lon="-120.943760"><ele>1959.7</ele></trkpt>
<trkpt lat="47.465077" lon="-120.943630"><ele>1959.4</ele></trkpt>
<trkpt lat="47.465097" lon="-120.943493"><ele>1958.8</ele></trkpt>
<trkpt lat="47.465169" lon="-120.943498"><ele>1959.1</ele></trkpt>
<trkpt lat="47.465261" lon="-120.943588"><ele>1961.2</ele></trkpt>
<trkpt lat="47.465303" lon="-120.943742"><ele>1962.7</ele></trkpt>
<trkpt lat="47.465346" lon="-120.943736"><ele>1965.4</ele></trkpt>
<trkpt lat="47.465567" lon="-120.943094"><ele>1963.0</ele></trkpt>
<trkpt lat="47.465733" lon="-120.941826"><ele>1953.7</ele></trkpt>
<trkpt lat="47.465857" lon="-120.941619"><ele>1950.3</ele></trkpt>
<trkpt lat="47.466105" lon="-120.941383"><ele>1945.2</ele></trkpt>
<trkpt lat="47.466229" lon="-120.941432"><ele>1943.4</ele></trkpt>
<trkpt lat="47.466435" lon="-120.941372"><ele>1934.0</ele></trkpt>
<trkpt lat="47.466604" lon="-120.941201"><ele>1933.7</ele></trkpt>
<trkpt lat="47.466787" lon="-120.940839"><ele>1927.3</ele></trkpt>
<trkpt lat="47.466869" lon="-120.940441"><ele>1918.5</ele></trkpt>
<trkpt lat="47.467004" lon="-120.940239"><ele>1915.8</ele></trkpt>
<trkpt lat="47.467050" lon="-120.940005"><ele>1912.8</ele></trkpt>
<trkpt lat="47.467243" lon="-120.939626"><ele>1916.5</ele></trkpt>
<trkpt lat="47.467423" lon="-120.939632"><ele>1918.7</ele></trkpt>
<trkpt lat="47.467496" lon="-120.939709"><ele>1920.0</ele></trkpt>
<trkpt lat="47.467770" lon="-120.939555"><ele>1927.2</ele></trkpt>
<trkpt lat="47.467917" lon="-120.940038"><ele>1943.7</ele></trkpt>
<trkpt lat="47.468038" lon="-120.940244"><ele>1952.1</ele></trkpt>
<trkpt lat="47.468197" lon="-120.940192"><ele>1957.2</ele></trkpt>
<trkpt lat="47.468309" lon="-120.940301"><ele>1962.0</ele></trkpt>
<trkpt lat="47.468431" lon="-120.940629"><ele>1971.9</ele></trkpt>
<trkpt lat="47.468586" lon="-120.940635"><ele>1972.9</ele></trkpt>
<trkpt lat="47.468663" lon="-120.940490"><ele>1972.5</ele></trkpt>
<trkpt lat="47.468755" lon="-120.940444"><ele>1972.4</ele></trkpt>
<trkpt lat="47.468839" lon="-120.940311"><ele>1969.5</ele></trkpt>
<trkpt lat="47.468862" lon="-120.940111"><ele>1964.5</ele></trkpt>
<trkpt lat="47.469174" lon="-120.940062"><ele>1962.8</ele></trkpt>
<trkpt lat="47.469171" lon="-120.940111"><ele>1964.4</ele></trkpt>
<trkpt lat="47.469206" lon="-120.940085"><ele>1965.6</ele></trkpt>
<trkpt lat="47.469163" lon="-120.940152"><ele>1965.4</ele></trkpt>
<trkpt lat="47.469206" lon="-120.940087"><ele>1967.7</ele></trkpt>
<trkpt lat="47.469159" lon="-120.940054"><ele>1966.7</ele></trkpt>
<trkpt lat="47.469247" lon="-120.939954"><ele>1966.2</ele></trkpt>
<trkpt lat="47.469185" lon="-120.940095"><ele>1967.2</ele></trkpt>
<trkpt lat="47.469150" lon="-120.939935"><ele>1967.5</ele></trkpt>
<trkpt lat="47.469156" lon="-120.940088"><ele>1965.9</ele></trkpt>
<trkpt lat="47.469251" lon="-120.939978"><ele>1967.2</ele></trkpt>
<trkpt lat="47.469197" lon="-120.940095"><ele>1966.0</ele></trkpt>
<trkpt lat="47.469183" lon="-120.940055"><ele>1967.4</ele></trkpt>
<trkpt lat="47.469197" lon="-120.940095"><ele>1966.0</ele></trkpt>
<trkpt lat="47.469251" lon="-120.939978"><ele>1967.2</ele></trkpt>
<trkpt lat="47.469156" lon="-120.940088"><ele>1965.9</ele></trkpt>
<trkpt lat="47.469150" lon="-120.939935"><ele>1967.5</ele></trkpt>
<trkpt lat="47.469185" lon="-120.940095"><ele>1967.2</ele></trkpt>
<trkpt lat="47.469247" lon="-120.939954"><ele>1966.2</ele></trkpt>
<trkpt lat="47.469159" lon="-120.940054"><ele>1966.7</ele></trkpt>
<trkpt lat="47.469206" lon="-120.940087"><ele>1967.7</ele></trkpt>
<trkpt lat="47.469163" lon="-120.940152"><ele>1965.4</ele></trkpt>
<trkpt lat="47.469206" lon="-120.940085"><ele>1965.6</ele></trkpt>
<trkpt lat="47.469171" lon="-120.940111"><ele>1964.4</ele></trkpt>
<trkpt lat="47.469174" lon="-120.940062"><ele>1962.8</ele></trkpt>
<trkpt lat="47.468862" lon="-120.940111"><ele>1964.5</ele></trkpt>
<trkpt lat="47.468839" lon="-120.940311"><ele>1969.5</ele></trkpt>
<trkpt lat="47.468755" lon="-120.940444"><ele>1972.4</ele></trkpt>
<trkpt lat="47.468663" lon="-120.940490"><ele>1972.5</ele></trkpt>
<trkpt lat="47.468586" lon="-120.940635"><ele>1972.9</ele></trkpt>
<trkpt lat="47.468431" lon="-120.940629"><ele>1971.9</ele></trkpt>
<trkpt lat="47.468309" lon="-120.940301"><ele>1962.0</ele></trkpt>
<trkpt lat="47.468197" lon="-120.940192"><ele>1957.2</ele></trkpt>
<trkpt lat="47.468038" lon="-120.940244"><ele>1952.1</ele></trkpt>
<trkpt lat="47.467917" lon="-120.940038"><ele>1943.7</ele></trkpt>
<trkpt lat="47.467770" lon="-120.939555"><ele>1927.2</ele></trkpt>
<trkpt lat="47.467496" lon="-120.939709"><ele>1920.0</ele></trkpt>
<trkpt lat="47.467423" lon="-120.939632"><ele>1918.7</ele></trkpt>
<trkpt lat="47.467243" lon="-120.939626"><ele>1916.5</ele></trkpt>
<trkpt lat="47.467050" lon="-120.940005"><ele>1912.8</ele></trkpt>
<trkpt lat="47.467004" lon="-120.940239"><ele>1915.8</ele></trkpt>
<trkpt lat="47.466869" lon="-120.940441"><ele>1918.5</ele></trkpt>
<trkpt lat="47.466787" lon="-120.940839"><ele>1927.3</ele></trkpt>
<trkpt lat="47.466604" lon="-120.941201"><ele>1933.7</ele></trkpt>
<trkpt lat="47.466435" lon="-120.941372"><ele>1934.0</ele></trkpt>
<trkpt lat="47.466229" lon="-120.941432"><ele>1943.4</ele></trkpt>
<trkpt lat="47.466105" lon="-120.941383"><ele>1945.2</ele></trkpt>
<trkpt lat="47.465857" lon="-120.941619"><ele>1950.3</ele></trkpt>
<trkpt lat="47.465733" lon="-120.941826"><ele>1953.7</ele></trkpt>
<trkpt lat="47.465567" lon="-120.943094"><ele>1963.0</ele></trkpt>
<trkpt lat="47.465346" lon="-120.943736"><ele>1965.4</ele></trkpt>
<trkpt lat="47.465303" lon="-120.943742"><ele>1962.7</ele></trkpt>
<trkpt lat="47.465261" lon="-120.943588"><ele>1961.2</ele></trkpt>
<trkpt lat="47.465169" lon="-120.943498"><ele>1959.1</ele></trkpt>
<trkpt lat="47.465097" lon="-120.943493"><ele>1958.8</ele></trkpt>
<trkpt lat="47.465077" lon="-120.943630"><ele>1959.4</ele></trkpt>
<trkpt lat="47.465122" lon="-120.943760"><ele>1959.7</ele></trkpt>
<trkpt lat="47.465091" lon="-120.943910"><ele>1959.5</ele></trkpt>
<trkpt lat="47.464982" lon="-120.944020"><ele>1962.5</ele></trkpt>
<trkpt lat="47.464669" lon="-120.944075"><ele>1963.0</ele></trkpt>
<trkpt lat="47.464572" lon="-120.944391"><ele>1967.2</ele></trkpt>
<trkpt lat="47.464445" lon="-120.944269"><ele>1969.1</ele></trkpt>
<trkpt lat="47.464483" lon="-120.944096"><ele>1967.8</ele></trkpt>
<trkpt lat="47.464431" lon="-120.944259"><ele>1969.2</ele></trkpt>
<trkpt lat="47.464305" lon="-120.944299"><ele>1972.0</ele></trkpt>
<trkpt lat="47.464232" lon="-120.944284"><ele>1972.2</ele></trkpt>
<trkpt lat="47.464032" lon="-120.944070"><ele>1968.9</ele></trkpt>
<trkpt lat="47.463844" lon="-120.944212"><ele>1968.8</ele></trkpt>
<trkpt lat="47.463622" lon="-120.943885"><ele>1965.1</ele></trkpt>
<trkpt lat="47.463641" lon="-120.943550"><ele>1961.4</ele></trkpt>
<trkpt lat="47.463509" lon="-120.943360"><ele>1961.3</ele></trkpt>
<trkpt lat="47.463403" lon="-120.942957"><ele>1959.1</ele></trkpt>
<trkpt lat="47.463027" lon="-120.943094"><ele>1961.3</ele></trkpt>
<trkpt lat="47.462834" lon="-120.943050"><ele>1962.6</ele></trkpt>
<trkpt lat="47.462745" lon="-120.942929"><ele>1965.0</ele></trkpt>
<trkpt lat="47.462724" lon="-120.942705"><ele>1967.2</ele></trkpt>
<trkpt lat="47.462596" lon="-120.942435"><ele>1969.9</ele></trkpt>
<trkpt lat="47.462252" lon="-120.942277"><ele>1974.3</ele></trkpt>
<trkpt lat="47.462235" lon="-120.942329"><ele>1973.9</ele></trkpt>
<trkpt lat="47.462296" lon="-120.941997"><ele>1974.9</ele></trkpt>
<trkpt lat="47.462375" lon="-120.941829"><ele>1974.9</ele></trkpt>
<trkpt lat="47.462338" lon="-120.941640"><ele>1973.2</ele></trkpt>
<trkpt lat="47.462268" lon="-120.941563"><ele>1973.6</ele></trkpt>
<trkpt lat="47.462067" lon="-120.941511"><ele>1976.3</ele></trkpt>
<trkpt lat="47.461854" lon="-120.941153"><ele>1980.9</ele></trkpt>
<trkpt lat="47.461861" lon="-120.941044"><ele>1980.9</ele></trkpt>
<trkpt lat="47.461798" lon="-120.940905"><ele>1983.6</ele></trkpt>
<trkpt lat="47.461810" lon="-120.940658"><ele>1986.4</ele></trkpt>
<trkpt lat="47.461724" lon="-120.940444"><ele>1989.8</ele></trkpt>
<trkpt lat="47.461747" lon="-120.940313"><ele>1989.6</ele></trkpt>
<trkpt lat="47.461851" lon="-120.940239"><ele>1990.0</ele></trkpt>
<trkpt lat="47.461770" lon="-120.940281"><ele>1989.9</ele></trkpt>
<trkpt lat="47.461679" lon="-120.940145"><ele>1987.4</ele></trkpt>
<trkpt lat="47.461650" lon="-120.939844"><ele>1983.5</ele></trkpt>
<trkpt lat="47.461548" lon="-120.939751"><ele>1982.3</ele></trkpt>
<trkpt lat="47.461484" lon="-120.939534"><ele>1981.2</ele></trkpt>
<trkpt lat="47.461372" lon="-120.939469"><ele>1980.0</ele></trkpt>
<trkpt lat="47.461273" lon="-120.939489"><ele>1978.7</ele></trkpt>
<trkpt lat="47.461106" lon="-120.939364"><ele>1977.5</ele></trkpt>
<trkpt lat="47.461001" lon="-120.939380"><ele>1976.6</ele></trkpt>
<trkpt lat="47.460886" lon="-120.939171"><ele>1976.7</ele></trkpt>
<trkpt lat="47.460741" lon="-120.939209"><ele>1977.3</ele></trkpt>
<trkpt lat="47.460461" lon="-120.938411"><ele>1974.2</ele></trkpt>
<trkpt lat="47.460228" lon="-120.938309"><ele>1975.4</ele></trkpt>
<trkpt lat="47.460151" lon="-120.938152"><ele>1977.1</ele></trkpt>
<trkpt lat="47.460008" lon="-120.938058"><ele>1980.3</ele></trkpt>
<trkpt lat="47.459748" lon="-120.937619"><ele>1981.4</ele></trkpt>
<trkpt lat="47.459638" lon="-120.936858"><ele>1976.4</ele></trkpt>
<trkpt lat="47.459618" lon="-120.936194"><ele>1980.2</ele></trkpt>
<trkpt lat="47.459535" lon="-120.935823"><ele>1979.1</ele></trkpt>
<trkpt lat="47.459384" lon="-120.935690"><ele>1978.0</ele></trkpt>
<trkpt lat="47.459415" lon="-120.935541"><ele>1975.3</ele></trkpt>
<trkpt lat="47.459495" lon="-120.935546"><ele>1974.9</ele></trkpt>
<trkpt lat="47.459329" lon="-120.935400"><ele>1971.3</ele></trkpt>
<trkpt lat="47.459005" lon="-120.934488"><ele>1957.8</ele></trkpt>
<trkpt lat="47.458806" lon="-120.934149"><ele>1954.1</ele></trkpt>
<trkpt lat="47.458740" lon="-120.933884"><ele>1952.8</ele></trkpt>
<trkpt lat="47.458443" lon="-120.933537"><ele>1948.3</ele></trkpt>
<trkpt lat="47.458364" lon="-120.933489"><ele>1949.2</ele></trkpt>
<trkpt lat="47.458198" lon="-120.933520"><ele>1946.6</ele></trkpt>
<trkpt lat="47.457846" lon="-120.933345"><ele>1939.1</ele></trkpt>
<trkpt lat="47.457314" lon="-120.933360"><ele>1932.3</ele></trkpt>
<trkpt lat="47.457698" lon="-120.933671"><ele>1924.5</ele></trkpt>
<trkpt lat="47.457941" lon="-120.934083"><ele>1916.0</ele></trkpt>
<trkpt lat="47.457365" lon="-120.934192"><ele>1901.8</ele></trkpt>
<trkpt lat="47.456883" lon="-120.934519"><ele>1893.9</ele></trkpt>
<trkpt lat="47.456660" lon="-120.934431"><ele>1890.9</ele></trkpt>
<trkpt lat="47.456464" lon="-120.934232"><ele>1886.3</ele></trkpt>
<trkpt lat="47.456313" lon="-120.934159"><ele>1880.1</ele></trkpt>
<trkpt lat="47.456180" lon="-120.933947"><ele>1877.1</ele></trkpt>
<trkpt lat="47.455696" lon="-120.933664"><ele>1869.8</ele></trkpt>
<trkpt lat="47.455817" lon="-120.934090"><ele>1861.7</ele></trkpt>
<trkpt lat="47.455802" lon="-120.934367"><ele>1859.5</ele></trkpt>
<trkpt lat="47.455651" lon="-120.934190"><ele>1855.8</ele></trkpt>
<trkpt lat="47.455227" lon="-120.933953"><ele>1847.9</ele></trkpt>
<trkpt lat="47.455341" lon="-120.934361"><ele>1843.4</ele></trkpt>
<trkpt lat="47.455358" lon="-120.934615"><ele>1841.6</ele></trkpt>
<trkpt lat="47.455502" lon="-120.934988"><ele>1841.6</ele></trkpt>
<trkpt lat="47.455823" lon="-120.935123"><ele>1836.5</ele></trkpt>
<trkpt lat="47.455956" lon="-120.935311"><ele>1834.5</ele></trkpt>
<trkpt lat="47.455992" lon="-120.935457"><ele>1830.0</ele></trkpt>
<trkpt lat="47.455982" lon="-120.935514"><ele>1829.3</ele></trkpt>
<trkpt lat="47.455530" lon="-120.935806"><ele>1823.0</ele></trkpt>
<trkpt lat="47.455649" lon="-120.936035"><ele>1816.9</ele></trkpt>
<trkpt lat="47.455614" lon="-120.936120"><ele>1814.9</ele></trkpt>
<trkpt lat="47.454980" lon="-120.935917"><ele>1803.6</ele></trkpt>
<trkpt lat="47.454469" lon="-120.935267"><ele>1795.8</ele></trkpt>
<trkpt lat="47.454169" lon="-120.935016"><ele>1792.8</ele></trkpt>
<trkpt lat="47.453639" lon="-120.935264"><ele>1785.7</ele></trkpt>
<trkpt lat="47.453379" lon="-120.935461"><ele>1781.2</ele></trkpt>
<trkpt lat="47.452613" lon="-120.935750"><ele>1769.1</ele></trkpt>
<trkpt lat="47.451110" lon="-120.935145"><ele>1746.2</ele></trkpt>
<trkpt lat="47.451066" lon="-120.935022"><ele>1745.3</ele></trkpt>
<trkpt lat="47.450902" lon="-120.934932"><ele>1742.5</ele></trkpt>
<trkpt lat="47.450856" lon="-120.934776"><ele>1741.0</ele></trkpt>
<trkpt lat="47.450774" lon="-120.934772"><ele>1740.8</ele></trkpt>
<trkpt lat="47.450710" lon="-120.934688"><ele>1740.1</ele></trkpt>
<trkpt lat="47.450579" lon="-120.934336"><ele>1735.1</ele></trkpt>
<trkpt lat="47.450552" lon="-120.934055"><ele>1733.2</ele></trkpt>
<trkpt lat="47.450316" lon="-120.933801"><ele>1731.2</ele></trkpt>
<trkpt lat="47.450177" lon="-120.933446"><ele>1727.4</ele></trkpt>
<trkpt lat="47.449957" lon="-120.933573"><ele>1724.8</ele></trkpt>
<trkpt lat="47.449676" lon="-120.933896"><ele>1719.8</ele></trkpt>
<trkpt lat="47.449529" lon="-120.933840"><ele>1717.5</ele></trkpt>
<trkpt lat="47.448833" lon="-120.933918"><ele>1707.6</ele></trkpt>
<trkpt lat="47.448685" lon="-120.933767"><ele>1704.6</ele></trkpt>
<trkpt lat="47.448535" lon="-120.933727"><ele>1704.1</ele></trkpt>
<trkpt lat="47.448176" lon="-120.933899"><ele>1698.7</ele></trkpt>
<trkpt lat="47.447778" lon="-120.933610"><ele>1695.7</ele></trkpt>
<trkpt lat="47.447276" lon="-120.933438"><ele>1689.9</ele></trkpt>
<trkpt lat="47.447134" lon="-120.933308"><ele>1688.8</ele></trkpt>
<trkpt lat="47.446824" lon="-120.932408"><ele>1682.9</ele></trkpt>
<trkpt lat="47.446684" lon="-120.931527"><ele>1675.3</ele></trkpt>
<trkpt lat="47.446711" lon="-120.931120"><ele>1672.3</ele></trkpt>
<trkpt lat="47.446602" lon="-120.931002"><ele>1671.2</ele></trkpt>
<trkpt lat="47.446384" lon="-120.931008"><ele>1667.0</ele></trkpt>
<trkpt lat="47.446308" lon="-120.930551"><ele>1665.0</ele></trkpt>
<trkpt lat="47.446227" lon="-120.930559"><ele>1664.8</ele></trkpt>
<trkpt lat="47.446088" lon="-120.930751"><ele>1662.4</ele></trkpt>
<trkpt lat="47.445956" lon="-120.930768"><ele>1660.1</ele></trkpt>
<trkpt lat="47.445777" lon="-120.930680"><ele>1658.0</ele></trkpt>
<trkpt lat="47.445479" lon="-120.930395"><ele>1650.9</ele></trkpt>
<trkpt lat="47.445006" lon="-120.930393"><ele>1644.0</ele></trkpt>
<trkpt lat="47.444921" lon="-120.930480"><ele>1643.0</ele></trkpt>
<trkpt lat="47.444885" lon="-120.930691"><ele>1642.1</ele></trkpt>
<trkpt lat="47.444774" lon="-120.930609"><ele>1641.6</ele></trkpt>
<trkpt lat="47.444656" lon="-120.930657"><ele>1637.3</ele></trkpt>
<trkpt lat="47.444570" lon="-120.930794"><ele>1635.9</ele></trkpt>
<trkpt lat="47.444540" lon="-120.931001"><ele>1634.5</ele></trkpt>
<trkpt lat="47.444417" lon="-120.931204"><ele>1632.8</ele></trkpt>
<trkpt lat="47.444277" lon="-120.931263"><ele>1632.2</ele></trkpt>
<trkpt lat="47.444278" lon="-120.931331"><ele>1629.3</ele></trkpt>
<trkpt lat="47.444472" lon="-120.931576"><ele>1625.3</ele></trkpt>
<trkpt lat="47.444432" lon="-120.931696"><ele>1624.3</ele></trkpt>
<trkpt lat="47.444187" lon="-120.931713"><ele>1617.6</ele></trkpt>
<trkpt lat="47.444418" lon="-120.931999"><ele>1615.1</ele></trkpt>
<trkpt lat="47.444578" lon="-120.932126"><ele>1613.2</ele></trkpt>
<trkpt lat="47.444735" lon="-120.932157"><ele>1610.7</ele></trkpt>
<trkpt lat="47.444765" lon="-120.932262"><ele>1609.6</ele></trkpt>
<trkpt lat="47.444731" lon="-120.932341"><ele>1609.0</ele></trkpt>
<trkpt lat="47.444614" lon="-120.932459"><ele>1608.6</ele></trkpt>
<trkpt lat="47.444156" lon="-120.932627"><ele>1602.1</ele></trkpt>
<trkpt lat="47.444031" lon="-120.932836"><ele>1598.4</ele></trkpt>
<trkpt lat="47.443805" lon="-120.932966"><ele>1597.1</ele></trkpt>
<trkpt lat="47.443378" lon="-120.933569"><ele>1588.7</ele></trkpt>
<trkpt lat="47.443100" lon="-120.933680"><ele>1584.6</ele></trkpt>
<trkpt lat="47.442899" lon="-120.933613"><ele>1580.4</ele></trkpt>
<trkpt lat="47.442919" lon="-120.933811"><ele>1577.5</ele></trkpt>
<trkpt lat="47.443020" lon="-120.934089"><ele>1574.5</ele></trkpt>
<trkpt lat="47.443488" lon="-120.934379"><ele>1569.5</ele></trkpt>
<trkpt lat="47.443633" lon="-120.934564"><ele>1566.2</ele></trkpt>
<trkpt lat="47.443625" lon="-120.934653"><ele>1566.5</ele></trkpt>
<trkpt lat="47.443647" lon="-120.934554"><ele>1569.0</ele></trkpt>
<trkpt lat="47.443911" lon="-120.934254"><ele>1563.6</ele></trkpt>
<trkpt lat="47.443855" lon="-120.934324"><ele>1565.1</ele></trkpt>
<trkpt lat="47.443974" lon="-120.934046"><ele>1565.4</ele></trkpt>
<trkpt lat="47.444185" lon="-120.934094"><ele>1560.8</ele></trkpt>
<trkpt lat="47.444121" lon="-120.934435"><ele>1554.9</ele></trkpt>
<trkpt lat="47.444368" lon="-120.934408"><ele>1552.6</ele></trkpt>
<trkpt lat="47.444467" lon="-120.934518"><ele>1552.5</ele></trkpt>
<trkpt lat="47.444367" lon="-120.935046"><ele>1545.2</ele></trkpt>
<trkpt lat="47.444238" lon="-120.935195"><ele>1543.4</ele></trkpt>
<trkpt lat="47.444129" lon="-120.935163"><ele>1540.0</ele></trkpt>
<trkpt lat="47.444212" lon="-120.935288"><ele>1538.7</ele></trkpt>
<trkpt lat="47.444599" lon="-120.935307"><ele>1535.9</ele></trkpt>
<trkpt lat="47.444805" lon="-120.935198"><ele>1533.4</ele></trkpt>
<trkpt lat="47.444969" lon="-120.935301"><ele>1531.2</ele></trkpt>
<trkpt lat="47.444849" lon="-120.935940"><ele>1525.1</ele></trkpt>
<trkpt lat="47.444674" lon="-120.936130"><ele>1522.9</ele></trkpt>
<trkpt lat="47.444502" lon="-120.936070"><ele>1518.2</ele></trkpt>
<trkpt lat="47.444614" lon="-120.936309"><ele>1515.3</ele></trkpt>
<trkpt lat="47.444910" lon="-120.936402"><ele>1511.2</ele></trkpt>
<trkpt lat="47.444916" lon="-120.936483"><ele>1511.9</ele></trkpt>
<trkpt lat="47.444740" lon="-120.936698"><ele>1509.2</ele></trkpt>
<trkpt lat="47.444527" lon="-120.936822"><ele>1505.8</ele></trkpt>
<trkpt lat="47.444342" lon="-120.936722"><ele>1503.2</ele></trkpt>
<trkpt lat="47.444269" lon="-120.936550"><ele>1502.2</ele></trkpt>
<trkpt lat="47.444200" lon="-120.936524"><ele>1501.4</ele></trkpt>
<trkpt lat="47.444216" lon="-120.936559"><ele>1502.4</ele></trkpt>
<trkpt lat="47.444112" lon="-120.936644"><ele>1500.7</ele></trkpt>
<trkpt lat="47.444028" lon="-120.936601"><ele>1497.2</ele></trkpt>
<trkpt lat="47.444064" lon="-120.936787"><ele>1493.2</ele></trkpt>
<trkpt lat="47.444218" lon="-120.936892"><ele>1490.6</ele></trkpt>
<trkpt lat="47.444345" lon="-120.937393"><ele>1483.9</ele></trkpt>
<trkpt lat="47.444534" lon="-120.937633"><ele>1481.4</ele></trkpt>
<trkpt lat="47.444480" lon="-120.938000"><ele>1478.0</ele></trkpt>
<trkpt lat="47.444286" lon="-120.938290"><ele>1474.9</ele></trkpt>
<trkpt lat="47.444164" lon="-120.938248"><ele>1473.0</ele></trkpt>
<trkpt lat="47.444095" lon="-120.937871"><ele>1468.8</ele></trkpt>
<trkpt lat="47.443896" lon="-120.937858"><ele>1465.0</ele></trkpt>
<trkpt lat="47.443774" lon="-120.937979"><ele>1462.5</ele></trkpt>
<trkpt lat="47.443610" lon="-120.938011"><ele>1459.8</ele></trkpt>
<trkpt lat="47.443520" lon="-120.937856"><ele>1457.5</ele></trkpt>
<trkpt lat="47.443493" lon="-120.937450"><ele>1455.3</ele></trkpt>
<trkpt lat="47.443386" lon="-120.937352"><ele>1451.6</ele></trkpt>
<trkpt lat="47.443240" lon="-120.937325"><ele>1448.7</ele></trkpt>
<trkpt lat="47.443055" lon="-120.937410"><ele>1447.0</ele></trkpt>
<trkpt lat="47.442834" lon="-120.937307"><ele>1443.5</ele></trkpt>
<trkpt lat="47.442612" lon="-120.937326"><ele>1440.1</ele></trkpt>
<trkpt lat="47.441663" lon="-120.936924"><ele>1427.3</ele></trkpt>
<trkpt lat="47.441654" lon="-120.936987"><ele>1424.1</ele></trkpt>
<trkpt lat="47.442360" lon="-120.937847"><ele>1412.7</ele></trkpt>
<trkpt lat="47.442405" lon="-120.938003"><ele>1412.6</ele></trkpt>
<trkpt lat="47.442386" lon="-120.938159"><ele>1412.0</ele></trkpt>
<trkpt lat="47.442269" lon="-120.938384"><ele>1408.0</ele></trkpt>
<trkpt lat="47.442188" lon="-120.938374"><ele>1406.7</ele></trkpt>
<trkpt lat="47.441910" lon="-120.938114"><ele>1398.9</ele></trkpt>
<trkpt lat="47.441435" lon="-120.938079"><ele>1392.5</ele></trkpt>
<trkpt lat="47.441012" lon="-120.938257"><ele>1381.7</ele></trkpt>
<trkpt lat="47.440926" lon="-120.938177"><ele>1379.9</ele></trkpt>
<trkpt lat="47.440620" lon="-120.938096"><ele>1371.9</ele></trkpt>
<trkpt lat="47.440559" lon="-120.938135"><ele>1371.2</ele></trkpt>
<trkpt lat="47.440558" lon="-120.938332"><ele>1368.7</ele></trkpt>
<trkpt lat="47.440509" lon="-120.938449"><ele>1368.0</ele></trkpt>
<trkpt lat="47.440302" lon="-120.938448"><ele>1368.1</ele></trkpt>
<trkpt lat="47.439976" lon="-120.938582"><ele>1366.8</ele></trkpt>
<trkpt lat="47.439613" lon="-120.938296"><ele>1360.0</ele></trkpt>
<trkpt lat="47.438992" lon="-120.938229"><ele>1347.4</ele></trkpt>
<trkpt lat="47.438568" lon="-120.937693"><ele>1338.5</ele></trkpt>
<trkpt lat="47.438218" lon="-120.937449"><ele>1330.9</ele></trkpt>
<trkpt lat="47.437724" lon="-120.937305"><ele>1322.6</ele></trkpt>
<trkpt lat="47.437701" lon="-120.937353"><ele>1318.7</ele></trkpt>
<trkpt lat="47.437569" lon="-120.937334"><ele>1317.2</ele></trkpt>
<trkpt lat="47.437021" lon="-120.936941"><ele>1310.0</ele></trkpt>
<trkpt lat="47.436807" lon="-120.936856"><ele>1302.8</ele></trkpt>
<trkpt lat="47.436656" lon="-120.936879"><ele>1300.6</ele></trkpt>
<trkpt lat="47.436613" lon="-120.936982"><ele>1302.2</ele></trkpt>
<trkpt lat="47.436302" lon="-120.937153"><ele>1302.3</ele></trkpt>
<trkpt lat="47.435888" lon="-120.937280"><ele>1298.3</ele></trkpt>
<trkpt lat="47.435679" lon="-120.937264"><ele>1295.8</ele></trkpt>
<trkpt lat="47.435136" lon="-120.936997"><ele>1290.3</ele></trkpt>
<trkpt lat="47.434472" lon="-120.936968"><ele>1286.3</ele></trkpt>
<trkpt lat="47.434255" lon="-120.936900"><ele>1285.4</ele></trkpt>
<trkpt lat="47.433940" lon="-120.936725"><ele>1285.1</ele></trkpt>
<trkpt lat="47.433649" lon="-120.936389"><ele>1283.4</ele></trkpt>
<trkpt lat="47.434287" lon="-120.936942"><ele>1286.1</ele></trkpt>
<trkpt lat="47.433885" lon="-120.936693"><ele>1285.0</ele></trkpt>
<trkpt lat="47.433279" lon="-120.936141"><ele>1275.4</ele></trkpt>
<trkpt lat="47.432985" lon="-120.936065"><ele>1271.8</ele></trkpt>
<trkpt lat="47.432706" lon="-120.936113"><ele>1266.5</ele></trkpt>
</trkseg></trk>
</gpx>
