<?xml version="1.0" encoding="UTF-8"?>
<gpx version="1.1" creator="The Lost Trailhead" xmlns="http://www.topografix.com/GPX/1/1" xmlns:xsi="http://www.w3.org/2001/XMLSchema-instance" xsi:schemaLocation="http://www.topografix.com/GPX/1/1 http://www.topografix.com/GPX/1/1/gpx.xsd">
<metadata><name>Cascade Pass &amp; Sahale Arm</name><desc>The Lost Trailhead, thelosttrailhead.com/hikes/cascade-pass-sahale-arm. Conditions change. Use at your own risk.</desc><link href="https://thelosttrailhead.com/hikes/cascade-pass-sahale-arm"><text>Cascade Pass &amp; Sahale Arm on The Lost Trailhead</text></link></metadata>
<trk><name>Cascade Pass &amp; Sahale Arm</name><link href="https://thelosttrailhead.com/hikes/cascade-pass-sahale-arm"><text>Cascade Pass &amp; Sahale Arm on The Lost Trailhead</text></link><trkseg>
<trkpt lat="48.475291" lon="-121.075264"><ele>1110.2</ele></trkpt>
<trkpt lat="48.475456" lon="-121.075276"><ele>1110.5</ele></trkpt>
<trkpt lat="48.475473" lon="-121.074955"><ele>1111.2</ele></trkpt>
<trkpt lat="48.475516" lon="-121.074906"><ele>1112.4</ele></trkpt>
<trkpt lat="48.475745" lon="-121.075236"><ele>1116.6</ele></trkpt>
<trkpt lat="48.476003" lon="-121.075157"><ele>1121.4</ele></trkpt>
<trkpt lat="48.475993" lon="-121.074960"><ele>1125.0</ele></trkpt>
<trkpt lat="48.475928" lon="-121.074811"><ele>1127.8</ele></trkpt>
<trkpt lat="48.475937" lon="-121.074315"><ele>1130.2</ele></trkpt>
<trkpt lat="48.475746" lon="-121.074274"><ele>1134.5</ele></trkpt>
<trkpt lat="48.475276" lon="-121.074328"><ele>1138.9</ele></trkpt>
<trkpt lat="48.475041" lon="-121.074028"><ele>1139.9</ele></trkpt>
<trkpt lat="48.475013" lon="-121.073958"><ele>1140.4</ele></trkpt>
<trkpt lat="48.475171" lon="-121.074086"><ele>1140.4</ele></trkpt>
<trkpt lat="48.475300" lon="-121.074090"><ele>1143.9</ele></trkpt>
<trkpt lat="48.475518" lon="-121.073858"><ele>1145.3</ele></trkpt>
<trkpt lat="48.475839" lon="-121.073863"><ele>1150.1</ele></trkpt>
<trkpt lat="48.475702" lon="-121.073655"><ele>1152.6</ele></trkpt>
<trkpt lat="48.475462" lon="-121.073632"><ele>1158.4</ele></trkpt>
<trkpt lat="48.475260" lon="-121.073497"><ele>1154.3</ele></trkpt>
<trkpt lat="48.475467" lon="-121.073531"><ele>1161.3</ele></trkpt>
<trkpt lat="48.475858" lon="-121.073461"><ele>1165.8</ele></trkpt>
<trkpt lat="48.476209" lon="-121.073271"><ele>1165.7</ele></trkpt>
<trkpt lat="48.476462" lon="-121.073381"><ele>1174.2</ele></trkpt>
<trkpt lat="48.476637" lon="-121.073597"><ele>1177.8</ele></trkpt>
<trkpt lat="48.476815" lon="-121.073563"><ele>1178.7</ele></trkpt>
<trkpt lat="48.476922" lon="-121.073653"><ele>1182.7</ele></trkpt>
<trkpt lat="48.476839" lon="-121.073420"><ele>1185.4</ele></trkpt>
<trkpt lat="48.476769" lon="-121.073364"><ele>1193.0</ele></trkpt>
<trkpt lat="48.476780" lon="-121.073306"><ele>1193.7</ele></trkpt>
<trkpt lat="48.476513" lon="-121.073214"><ele>1192.2</ele></trkpt>
<trkpt lat="48.476305" lon="-121.073013"><ele>1189.4</ele></trkpt>
<trkpt lat="48.476033" lon="-121.073035"><ele>1190.8</ele></trkpt>
<trkpt lat="48.475822" lon="-121.072867"><ele>1187.8</ele></trkpt>
<trkpt lat="48.475659" lon="-121.072582"><ele>1187.2</ele></trkpt>
<trkpt lat="48.475732" lon="-121.072696"><ele>1188.6</ele></trkpt>
<trkpt lat="48.475847" lon="-121.072741"><ele>1190.9</ele></trkpt>
<trkpt lat="48.476280" lon="-121.072734"><ele>1193.5</ele></trkpt>
<trkpt lat="48.476568" lon="-121.072855"><ele>1197.2</ele></trkpt>
<trkpt lat="48.476730" lon="-121.072790"><ele>1200.4</ele></trkpt>
<trkpt lat="48.476865" lon="-121.072828"><ele>1200.9</ele></trkpt>
<trkpt lat="48.477431" lon="-121.073195"><ele>1206.9</ele></trkpt>
<trkpt lat="48.477688" lon="-121.073458"><ele>1213.2</ele></trkpt>
<trkpt lat="48.477683" lon="-121.073301"><ele>1209.5</ele></trkpt>
<trkpt lat="48.477439" lon="-121.073046"><ele>1209.1</ele></trkpt>
<trkpt lat="48.477398" lon="-121.072939"><ele>1213.0</ele></trkpt>
<trkpt lat="48.477138" lon="-121.072733"><ele>1217.4</ele></trkpt>
<trkpt lat="48.476953" lon="-121.072421"><ele>1217.8</ele></trkpt>
<trkpt lat="48.476768" lon="-121.072261"><ele>1225.4</ele></trkpt>
<trkpt lat="48.476604" lon="-121.072228"><ele>1226.7</ele></trkpt>
<trkpt lat="48.476473" lon="-121.072001"><ele>1222.5</ele></trkpt>
<trkpt lat="48.476351" lon="-121.071914"><ele>1225.8</ele></trkpt>
<trkpt lat="48.476408" lon="-121.072017"><ele>1229.2</ele></trkpt>
<trkpt lat="48.476953" lon="-121.072304"><ele>1235.2</ele></trkpt>
<trkpt lat="48.477135" lon="-121.072549"><ele>1239.4</ele></trkpt>
<trkpt lat="48.477461" lon="-121.072651"><ele>1240.9</ele></trkpt>
<trkpt lat="48.477535" lon="-121.072745"><ele>1241.2</ele></trkpt>
<trkpt lat="48.477500" lon="-121.072537"><ele>1241.4</ele></trkpt>
<trkpt lat="48.477349" lon="-121.072496"><ele>1240.0</ele></trkpt>
<trkpt lat="48.477196" lon="-121.072360"><ele>1238.9</ele></trkpt>
<trkpt lat="48.477043" lon="-121.072035"><ele>1241.6</ele></trkpt>
<trkpt lat="48.476628" lon="-121.071590"><ele>1253.2</ele></trkpt>
<trkpt lat="48.476834" lon="-121.071747"><ele>1255.0</ele></trkpt>
<trkpt lat="48.476900" lon="-121.071890"><ele>1262.7</ele></trkpt>
<trkpt lat="48.477075" lon="-121.071945"><ele>1263.2</ele></trkpt>
<trkpt lat="48.477245" lon="-121.072156"><ele>1262.0</ele></trkpt>
<trkpt lat="48.477270" lon="-121.072096"><ele>1261.4</ele></trkpt>
<trkpt lat="48.477172" lon="-121.071871"><ele>1259.7</ele></trkpt>
<trkpt lat="48.476859" lon="-121.071461"><ele>1269.0</ele></trkpt>
<trkpt lat="48.476866" lon="-121.071548"><ele>1270.2</ele></trkpt>
<trkpt lat="48.477009" lon="-121.071633"><ele>1272.1</ele></trkpt>
<trkpt lat="48.477078" lon="-121.071767"><ele>1273.9</ele></trkpt>
<trkpt lat="48.477150" lon="-121.071760"><ele>1274.5</ele></trkpt>
<trkpt lat="48.477001" lon="-121.071409"><ele>1277.2</ele></trkpt>
<trkpt lat="48.477019" lon="-121.071486"><ele>1275.4</ele></trkpt>
<trkpt lat="48.477366" lon="-121.071768"><ele>1286.7</ele></trkpt>
<trkpt lat="48.477543" lon="-121.071997"><ele>1286.1</ele></trkpt>
<trkpt lat="48.477830" lon="-121.071685"><ele>1291.0</ele></trkpt>
<trkpt lat="48.478066" lon="-121.071602"><ele>1300.0</ele></trkpt>
<trkpt lat="48.478140" lon="-121.071672"><ele>1302.5</ele></trkpt>
<trkpt lat="48.478211" lon="-121.071647"><ele>1301.9</ele></trkpt>
<trkpt lat="48.478356" lon="-121.071843"><ele>1302.6</ele></trkpt>
<trkpt lat="48.478338" lon="-121.071890"><ele>1303.8</ele></trkpt>
<trkpt lat="48.478396" lon="-121.071887"><ele>1304.5</ele></trkpt>
<trkpt lat="48.478353" lon="-121.071581"><ele>1306.8</ele></trkpt>
<trkpt lat="48.478275" lon="-121.071465"><ele>1306.1</ele></trkpt>
<trkpt lat="48.477479" lon="-121.071311"><ele>1309.8</ele></trkpt>
<trkpt lat="48.477361" lon="-121.071096"><ele>1305.8</ele></trkpt>
<trkpt lat="48.477269" lon="-121.070772"><ele>1306.4</ele></trkpt>
<trkpt lat="48.477367" lon="-121.071057"><ele>1316.1</ele></trkpt>
<trkpt lat="48.477726" lon="-121.071143"><ele>1322.8</ele></trkpt>
<trkpt lat="48.478040" lon="-121.071049"><ele>1327.1</ele></trkpt>
<trkpt lat="48.478158" lon="-121.071151"><ele>1328.8</ele></trkpt>
<trkpt lat="48.478308" lon="-121.071119"><ele>1336.3</ele></trkpt>
<trkpt lat="48.478538" lon="-121.071279"><ele>1338.9</ele></trkpt>
<trkpt lat="48.478649" lon="-121.071280"><ele>1335.2</ele></trkpt>
<trkpt lat="48.478574" lon="-121.071087"><ele>1332.6</ele></trkpt>
<trkpt lat="48.478374" lon="-121.070907"><ele>1345.6</ele></trkpt>
<trkpt lat="48.478184" lon="-121.070847"><ele>1342.4</ele></trkpt>
<trkpt lat="48.478034" lon="-121.070669"><ele>1348.3</ele></trkpt>
<trkpt lat="48.477846" lon="-121.070577"><ele>1351.4</ele></trkpt>
<trkpt lat="48.477686" lon="-121.070612"><ele>1358.5</ele></trkpt>
<trkpt lat="48.477603" lon="-121.070553"><ele>1354.3</ele></trkpt>
<trkpt lat="48.477583" lon="-121.070496"><ele>1352.3</ele></trkpt>
<trkpt lat="48.477726" lon="-121.070411"><ele>1356.7</ele></trkpt>
<trkpt lat="48.477953" lon="-121.070365"><ele>1357.4</ele></trkpt>
<trkpt lat="48.478079" lon="-121.070404"><ele>1361.7</ele></trkpt>
<trkpt lat="48.477766" lon="-121.070093"><ele>1362.6</ele></trkpt>
<trkpt lat="48.477562" lon="-121.070106"><ele>1368.4</ele></trkpt>
<trkpt lat="48.477451" lon="-121.069932"><ele>1363.6</ele></trkpt>
<trkpt lat="48.477430" lon="-121.069762"><ele>1365.1</ele></trkpt>
<trkpt lat="48.477577" lon="-121.069843"><ele>1369.1</ele></trkpt>
<trkpt lat="48.477726" lon="-121.069743"><ele>1372.8</ele></trkpt>
<trkpt lat="48.478009" lon="-121.069934"><ele>1377.1</ele></trkpt>
<trkpt lat="48.478177" lon="-121.069962"><ele>1378.0</ele></trkpt>
<trkpt lat="48.478261" lon="-121.069830"><ele>1379.4</ele></trkpt>
<trkpt lat="48.478253" lon="-121.069677"><ele>1381.9</ele></trkpt>
<trkpt lat="48.478081" lon="-121.069594"><ele>1385.0</ele></trkpt>
<trkpt lat="48.477687" lon="-121.069150"><ele>1393.2</ele></trkpt>
<trkpt lat="48.477866" lon="-121.069289"><ele>1394.3</ele></trkpt>
<trkpt lat="48.478261" lon="-121.069261"><ele>1397.0</ele></trkpt>
<trkpt lat="48.478607" lon="-121.069125"><ele>1406.7</ele></trkpt>
<trkpt lat="48.478728" lon="-121.069157"><ele>1406.2</ele></trkpt>
<trkpt lat="48.478993" lon="-121.069074"><ele>1402.7</ele></trkpt>
<trkpt lat="48.479022" lon="-121.069028"><ele>1405.8</ele></trkpt>
<trkpt lat="48.478800" lon="-121.068858"><ele>1409.2</ele></trkpt>
<trkpt lat="48.478389" lon="-121.068742"><ele>1423.2</ele></trkpt>
<trkpt lat="48.478521" lon="-121.068777"><ele>1426.3</ele></trkpt>
<trkpt lat="48.479041" lon="-121.068688"><ele>1424.6</ele></trkpt>
<trkpt lat="48.478990" lon="-121.068597"><ele>1425.0</ele></trkpt>
<trkpt lat="48.478745" lon="-121.068553"><ele>1432.9</ele></trkpt>
<trkpt lat="48.478489" lon="-121.068390"><ele>1436.3</ele></trkpt>
<trkpt lat="48.478596" lon="-121.068476"><ele>1435.4</ele></trkpt>
<trkpt lat="48.478870" lon="-121.068492"><ele>1442.9</ele></trkpt>
<trkpt lat="48.479055" lon="-121.068370"><ele>1441.1</ele></trkpt>
<trkpt lat="48.479025" lon="-121.068311"><ele>1441.4</ele></trkpt>
<trkpt lat="48.478622" lon="-121.068186"><ele>1448.1</ele></trkpt>
<trkpt lat="48.478384" lon="-121.067983"><ele>1452.2</ele></trkpt>
<trkpt lat="48.478105" lon="-121.068033"><ele>1457.4</ele></trkpt>
<trkpt lat="48.477900" lon="-121.067952"><ele>1456.5</ele></trkpt>
<trkpt lat="48.478011" lon="-121.068029"><ele>1459.3</ele></trkpt>
<trkpt lat="48.478163" lon="-121.067936"><ele>1462.0</ele></trkpt>
<trkpt lat="48.478109" lon="-121.067864"><ele>1465.0</ele></trkpt>
<trkpt lat="48.477811" lon="-121.067745"><ele>1466.5</ele></trkpt>
<trkpt lat="48.477549" lon="-121.067794"><ele>1470.6</ele></trkpt>
<trkpt lat="48.477396" lon="-121.067633"><ele>1467.8</ele></trkpt>
<trkpt lat="48.477359" lon="-121.067555"><ele>1467.9</ele></trkpt>
<trkpt lat="48.477536" lon="-121.067679"><ele>1473.8</ele></trkpt>
<trkpt lat="48.477925" lon="-121.067573"><ele>1478.7</ele></trkpt>
<trkpt lat="48.478017" lon="-121.067396"><ele>1480.3</ele></trkpt>
<trkpt lat="48.477733" lon="-121.067432"><ele>1481.4</ele></trkpt>
<trkpt lat="48.477271" lon="-121.067168"><ele>1489.0</ele></trkpt>
<trkpt lat="48.476915" lon="-121.066860"><ele>1492.3</ele></trkpt>
<trkpt lat="48.476732" lon="-121.066537"><ele>1493.1</ele></trkpt>
<trkpt lat="48.476903" lon="-121.066728"><ele>1495.4</ele></trkpt>
<trkpt lat="48.477380" lon="-121.066922"><ele>1505.8</ele></trkpt>
<trkpt lat="48.477563" lon="-121.066928"><ele>1507.5</ele></trkpt>
<trkpt lat="48.477879" lon="-121.066793"><ele>1513.4</ele></trkpt>
<trkpt lat="48.478005" lon="-121.066824"><ele>1512.8</ele></trkpt>
<trkpt lat="48.478093" lon="-121.066793"><ele>1512.1</ele></trkpt>
<trkpt lat="48.478107" lon="-121.066727"><ele>1513.0</ele></trkpt>
<trkpt lat="48.477570" lon="-121.066620"><ele>1518.6</ele></trkpt>
<trkpt lat="48.477500" lon="-121.066450"><ele>1519.8</ele></trkpt>
<trkpt lat="48.477242" lon="-121.066376"><ele>1521.5</ele></trkpt>
<trkpt lat="48.476998" lon="-121.066096"><ele>1524.8</ele></trkpt>
<trkpt lat="48.476894" lon="-121.065822"><ele>1527.4</ele></trkpt>
<trkpt lat="48.476667" lon="-121.065634"><ele>1530.3</ele></trkpt>
<trkpt lat="48.476524" lon="-121.065393"><ele>1533.6</ele></trkpt>
<trkpt lat="48.476165" lon="-121.065169"><ele>1538.8</ele></trkpt>
<trkpt lat="48.476297" lon="-121.065268"><ele>1539.1</ele></trkpt>
<trkpt lat="48.476531" lon="-121.065292"><ele>1539.6</ele></trkpt>
<trkpt lat="48.476697" lon="-121.065487"><ele>1541.1</ele></trkpt>
<trkpt lat="48.477109" lon="-121.065644"><ele>1545.7</ele></trkpt>
<trkpt lat="48.477355" lon="-121.065845"><ele>1552.7</ele></trkpt>
<trkpt lat="48.477933" lon="-121.065835"><ele>1557.6</ele></trkpt>
<trkpt lat="48.477976" lon="-121.065755"><ele>1558.4</ele></trkpt>
<trkpt lat="48.477825" lon="-121.065731"><ele>1559.0</ele></trkpt>
<trkpt lat="48.477535" lon="-121.065554"><ele>1562.8</ele></trkpt>
<trkpt lat="48.477442" lon="-121.065410"><ele>1563.5</ele></trkpt>
<trkpt lat="48.477089" lon="-121.065137"><ele>1566.3</ele></trkpt>
<trkpt lat="48.476818" lon="-121.064713"><ele>1570.9</ele></trkpt>
<trkpt lat="48.476389" lon="-121.064647"><ele>1571.6</ele></trkpt>
<trkpt lat="48.476241" lon="-121.064432"><ele>1572.6</ele></trkpt>
<trkpt lat="48.476083" lon="-121.064405"><ele>1573.0</ele></trkpt>
<trkpt lat="48.475953" lon="-121.064267"><ele>1574.6</ele></trkpt>
<trkpt lat="48.475742" lon="-121.064172"><ele>1578.2</ele></trkpt>
<trkpt lat="48.474974" lon="-121.063222"><ele>1582.8</ele></trkpt>
<trkpt lat="48.474666" lon="-121.063060"><ele>1585.0</ele></trkpt>
<trkpt lat="48.474420" lon="-121.063019"><ele>1587.6</ele></trkpt>
<trkpt lat="48.474205" lon="-121.062564"><ele>1589.4</ele></trkpt>
<trkpt lat="48.473931" lon="-121.062638"><ele>1589.5</ele></trkpt>
<trkpt lat="48.473837" lon="-121.062448"><ele>1589.5</ele></trkpt>
<trkpt lat="48.473671" lon="-121.062342"><ele>1589.1</ele></trkpt>
<trkpt lat="48.473602" lon="-121.062196"><ele>1591.2</ele></trkpt>
<trkpt lat="48.473374" lon="-121.062071"><ele>1592.1</ele></trkpt>
<trkpt lat="48.473042" lon="-121.062100"><ele>1592.7</ele></trkpt>
<trkpt lat="48.472180" lon="-121.061959"><ele>1593.3</ele></trkpt>
<trkpt lat="48.472063" lon="-121.061860"><ele>1596.2</ele></trkpt>
<trkpt lat="48.472001" lon="-121.061682"><ele>1597.1</ele></trkpt>
<trkpt lat="48.471592" lon="-121.061432"><ele>1597.0</ele></trkpt>
<trkpt lat="48.471535" lon="-121.061238"><ele>1601.2</ele></trkpt>
<trkpt lat="48.471368" lon="-121.061080"><ele>1602.2</ele></trkpt>
<trkpt lat="48.471318" lon="-121.060901"><ele>1603.4</ele></trkpt>
<trkpt lat="48.471087" lon="-121.060514"><ele>1604.7</ele></trkpt>
<trkpt lat="48.470512" lon="-121.060389"><ele>1606.8</ele></trkpt>
<trkpt lat="48.470196" lon="-121.060058"><ele>1611.5</ele></trkpt>
<trkpt lat="48.469637" lon="-121.059721"><ele>1618.3</ele></trkpt>
<trkpt lat="48.469153" lon="-121.059316"><ele>1623.4</ele></trkpt>
<trkpt lat="48.468981" lon="-121.059328"><ele>1625.5</ele></trkpt>
<trkpt lat="48.468746" lon="-121.059481"><ele>1628.6</ele></trkpt>
<trkpt lat="48.468655" lon="-121.059394"><ele>1627.6</ele></trkpt>
<trkpt lat="48.468586" lon="-121.059137"><ele>1628.0</ele></trkpt>
<trkpt lat="48.468506" lon="-121.059084"><ele>1629.4</ele></trkpt>
<trkpt lat="48.468304" lon="-121.059429"><ele>1633.8</ele></trkpt>
<trkpt lat="48.468059" lon="-121.059520"><ele>1636.5</ele></trkpt>
<trkpt lat="48.467795" lon="-121.059484"><ele>1639.9</ele></trkpt>
<trkpt lat="48.467722" lon="-121.059386"><ele>1642.7</ele></trkpt>
<trkpt lat="48.467642" lon="-121.059094"><ele>1644.4</ele></trkpt>
<trkpt lat="48.467539" lon="-121.059149"><ele>1644.9</ele></trkpt>
<trkpt lat="48.467577" lon="-121.059170"><ele>1644.7</ele></trkpt>
<trkpt lat="48.467796" lon="-121.058843"><ele>1645.1</ele></trkpt>
<trkpt lat="48.467892" lon="-121.058906"><ele>1646.0</ele></trkpt>
<trkpt lat="48.467998" lon="-121.058789"><ele>1645.1</ele></trkpt>
<trkpt lat="48.468000" lon="-121.058639"><ele>1644.3</ele></trkpt>
<trkpt lat="48.468074" lon="-121.058602"><ele>1643.6</ele></trkpt>
<trkpt lat="48.468191" lon="-121.058321"><ele>1643.9</ele></trkpt>
<trkpt lat="48.468037" lon="-121.057386"><ele>1651.6</ele></trkpt>
<trkpt lat="48.468089" lon="-121.056850"><ele>1654.3</ele></trkpt>
<trkpt lat="48.468071" lon="-121.056408"><ele>1653.7</ele></trkpt>
<trkpt lat="48.468174" lon="-121.055802"><ele>1655.1</ele></trkpt>
<trkpt lat="48.468115" lon="-121.055126"><ele>1664.2</ele></trkpt>
<trkpt lat="48.468153" lon="-121.055239"><ele>1665.7</ele></trkpt>
<trkpt lat="48.468182" lon="-121.055201"><ele>1666.7</ele></trkpt>
<trkpt lat="48.468175" lon="-121.054763"><ele>1674.5</ele></trkpt>
<trkpt lat="48.468073" lon="-121.054462"><ele>1676.6</ele></trkpt>
<trkpt lat="48.468292" lon="-121.054777"><ele>1682.7</ele></trkpt>
<trkpt lat="48.468641" lon="-121.055624"><ele>1699.6</ele></trkpt>
<trkpt lat="48.468750" lon="-121.055692"><ele>1702.5</ele></trkpt>
<trkpt lat="48.468667" lon="-121.056235"><ele>1706.7</ele></trkpt>
<trkpt lat="48.468736" lon="-121.056452"><ele>1708.8</ele></trkpt>
<trkpt lat="48.468785" lon="-121.056461"><ele>1709.5</ele></trkpt>
<trkpt lat="48.468855" lon="-121.056104"><ele>1715.9</ele></trkpt>
<trkpt lat="48.468911" lon="-121.056311"><ele>1721.4</ele></trkpt>
<trkpt lat="48.469013" lon="-121.056179"><ele>1726.4</ele></trkpt>
<trkpt lat="48.469052" lon="-121.055925"><ele>1727.8</ele></trkpt>
<trkpt lat="48.469213" lon="-121.055663"><ele>1736.6</ele></trkpt>
<trkpt lat="48.469377" lon="-121.056001"><ele>1748.0</ele></trkpt>
<trkpt lat="48.469363" lon="-121.056129"><ele>1750.3</ele></trkpt>
<trkpt lat="48.469448" lon="-121.056110"><ele>1754.0</ele></trkpt>
<trkpt lat="48.469736" lon="-121.055353"><ele>1772.8</ele></trkpt>
<trkpt lat="48.469813" lon="-121.055527"><ele>1777.1</ele></trkpt>
<trkpt lat="48.469848" lon="-121.055202"><ele>1782.3</ele></trkpt>
<trkpt lat="48.469818" lon="-121.054865"><ele>1788.7</ele></trkpt>
<trkpt lat="48.469869" lon="-121.054847"><ele>1791.5</ele></trkpt>
<trkpt lat="48.469887" lon="-121.054727"><ele>1795.0</ele></trkpt>
<trkpt lat="48.469796" lon="-121.054467"><ele>1800.3</ele></trkpt>
<trkpt lat="48.469854" lon="-121.054375"><ele>1802.2</ele></trkpt>
<trkpt lat="48.469816" lon="-121.054266"><ele>1805.1</ele></trkpt>
<trkpt lat="48.469998" lon="-121.054264"><ele>1804.0</ele></trkpt>
<trkpt lat="48.469810" lon="-121.053417"><ele>1818.6</ele></trkpt>
<trkpt lat="48.469811" lon="-121.053094"><ele>1819.5</ele></trkpt>
<trkpt lat="48.469748" lon="-121.052983"><ele>1822.1</ele></trkpt>
<trkpt lat="48.469844" lon="-121.053010"><ele>1823.5</ele></trkpt>
<trkpt lat="48.469891" lon="-121.053244"><ele>1826.5</ele></trkpt>
<trkpt lat="48.469982" lon="-121.053325"><ele>1828.1</ele></trkpt>
<trkpt lat="48.469955" lon="-121.053194"><ele>1830.4</ele></trkpt>
<trkpt lat="48.470008" lon="-121.052701"><ele>1837.8</ele></trkpt>
<trkpt lat="48.469876" lon="-121.052420"><ele>1836.7</ele></trkpt>
<trkpt lat="48.469944" lon="-121.052124"><ele>1842.4</ele></trkpt>
<trkpt lat="48.470105" lon="-121.052118"><ele>1845.9</ele></trkpt>
<trkpt lat="48.470256" lon="-121.052025"><ele>1849.0</ele></trkpt>
<trkpt lat="48.470485" lon="-121.051723"><ele>1852.6</ele></trkpt>
<trkpt lat="48.470623" lon="-121.051790"><ele>1852.8</ele></trkpt>
<trkpt lat="48.470711" lon="-121.051623"><ele>1851.1</ele></trkpt>
<trkpt lat="48.470671" lon="-121.051788"><ele>1852.2</ele></trkpt>
<trkpt lat="48.470752" lon="-121.052065"><ele>1856.5</ele></trkpt>
<trkpt lat="48.470949" lon="-121.052033"><ele>1859.3</ele></trkpt>
<trkpt lat="48.471026" lon="-121.051962"><ele>1860.0</ele></trkpt>
<trkpt lat="48.471313" lon="-121.052067"><ele>1865.0</ele></trkpt>
<trkpt lat="48.471737" lon="-121.052597"><ele>1871.2</ele></trkpt>
<trkpt lat="48.471800" lon="-121.052800"><ele>1875.4</ele></trkpt>
<trkpt lat="48.471908" lon="-121.052913"><ele>1878.1</ele></trkpt>
<trkpt lat="48.472030" lon="-121.053277"><ele>1878.5</ele></trkpt>
<trkpt lat="48.472231" lon="-121.053535"><ele>1879.1</ele></trkpt>
<trkpt lat="48.472322" lon="-121.053758"><ele>1878.4</ele></trkpt>
<trkpt lat="48.472451" lon="-121.053881"><ele>1878.3</ele></trkpt>
<trkpt lat="48.472533" lon="-121.053778"><ele>1874.3</ele></trkpt>
<trkpt lat="48.472451" lon="-121.053881"><ele>1878.3</ele></trkpt>
<trkpt lat="48.472322" lon="-121.053758"><ele>1878.4</ele></trkpt>
<trkpt lat="48.472231" lon="-121.053535"><ele>1879.1</ele></trkpt>
<trkpt lat="48.472030" lon="-121.053277"><ele>1878.5</ele></trkpt>
<trkpt lat="48.471908" lon="-121.052913"><ele>1878.1</ele></trkpt>
<trkpt lat="48.471800" lon="-121.052800"><ele>1875.4</ele></trkpt>
<trkpt lat="48.471737" lon="-121.052597"><ele>1871.2</ele></trkpt>
<trkpt lat="48.471313" lon="-121.052067"><ele>1865.0</ele></trkpt>
<trkpt lat="48.471026" lon="-121.051962"><ele>1860.0</ele></trkpt>
<trkpt lat="48.470949" lon="-121.052033"><ele>1859.3</ele></trkpt>
<trkpt lat="48.470752" lon="-121.052065"><ele>1856.5</ele></trkpt>
<trkpt lat="48.470671" lon="-121.051788"><ele>1852.2</ele></trkpt>
<trkpt lat="48.470711" lon="-121.051623"><ele>1851.1</ele></trkpt>
<trkpt lat="48.470623" lon="-121.051790"><ele>1852.8</ele></trkpt>
<trkpt lat="48.470485" lon="-121.051723"><ele>1852.6</ele></trkpt>
<trkpt lat="48.470256" lon="-121.052025"><ele>1849.0</ele></trkpt>
<trkpt lat="48.470105" lon="-121.052118"><ele>1845.9</ele></trkpt>
<trkpt lat="48.469944" lon="-121.052124"><ele>1842.4</ele></trkpt>
<trkpt lat="48.469876" lon="-121.052420"><ele>1836.7</ele></trkpt>
<trkpt lat="48.470008" lon="-121.052701"><ele>1837.8</ele></trkpt>
<trkpt lat="48.469955" lon="-121.053194"><ele>1830.4</ele></trkpt>
<trkpt lat="48.469982" lon="-121.053325"><ele>1828.1</ele></trkpt>
<trkpt lat="48.469891" lon="-121.053244"><ele>1826.5</ele></trkpt>
<trkpt lat="48.469844" lon="-121.053010"><ele>1823.5</ele></trkpt>
<trkpt lat="48.469748" lon="-121.052983"><ele>1822.1</ele></trkpt>
<trkpt lat="48.469811" lon="-121.053094"><ele>1819.5</ele></trkpt>
<trkpt lat="48.469810" lon="-121.053417"><ele>1818.6</ele></trkpt>
<trkpt lat="48.469998" lon="-121.054264"><ele>1804.0</ele></trkpt>
<trkpt lat="48.469816" lon="-121.054266"><ele>1805.1</ele></trkpt>
<trkpt lat="48.469854" lon="-121.054375"><ele>1802.2</ele></trkpt>
<trkpt lat="48.469796" lon="-121.054467"><ele>1800.3</ele></trkpt>
<trkpt lat="48.469887" lon="-121.054727"><ele>1795.0</ele></trkpt>
<trkpt lat="48.469869" lon="-121.054847"><ele>1791.5</ele></trkpt>
<trkpt lat="48.469818" lon="-121.054865"><ele>1788.7</ele></trkpt>
<trkpt lat="48.469848" lon="-121.055202"><ele>1782.3</ele></trkpt>
<trkpt lat="48.469813" lon="-121.055527"><ele>1777.1</ele></trkpt>
<trkpt lat="48.469736" lon="-121.055353"><ele>1772.8</ele></trkpt>
<trkpt lat="48.469448" lon="-121.056110"><ele>1754.0</ele></trkpt>
<trkpt lat="48.469363" lon="-121.056129"><ele>1750.3</ele></trkpt>
<trkpt lat="48.469377" lon="-121.056001"><ele>1748.0</ele></trkpt>
<trkpt lat="48.469213" lon="-121.055663"><ele>1736.6</ele></trkpt>
<trkpt lat="48.469052" lon="-121.055925"><ele>1727.8</ele></trkpt>
<trkpt lat="48.469013" lon="-121.056179"><ele>1726.4</ele></trkpt>
<trkpt lat="48.468911" lon="-121.056311"><ele>1721.4</ele></trkpt>
<trkpt lat="48.468855" lon="-121.056104"><ele>1715.9</ele></trkpt>
<trkpt lat="48.468785" lon="-121.056461"><ele>1709.5</ele></trkpt>
<trkpt lat="48.468736" lon="-121.056452"><ele>1708.8</ele></trkpt>
<trkpt lat="48.468667" lon="-121.056235"><ele>1706.7</ele></trkpt>
<trkpt lat="48.468750" lon="-121.055692"><ele>1702.5</ele></trkpt>
<trkpt lat="48.468641" lon="-121.055624"><ele>1699.6</ele></trkpt>
<trkpt lat="48.468292" lon="-121.054777"><ele>1682.7</ele></trkpt>
<trkpt lat="48.468073" lon="-121.054462"><ele>1676.6</ele></trkpt>
<trkpt lat="48.468175" lon="-121.054763"><ele>1674.5</ele></trkpt>
<trkpt lat="48.468182" lon="-121.055201"><ele>1666.7</ele></trkpt>
<trkpt lat="48.468153" lon="-121.055239"><ele>1665.7</ele></trkpt>
<trkpt lat="48.468115" lon="-121.055126"><ele>1664.2</ele></trkpt>
<trkpt lat="48.468174" lon="-121.055802"><ele>1655.1</ele></trkpt>
<trkpt lat="48.468071" lon="-121.056408"><ele>1653.7</ele></trkpt>
<trkpt lat="48.468089" lon="-121.056850"><ele>1654.3</ele></trkpt>
<trkpt lat="48.468037" lon="-121.057386"><ele>1651.6</ele></trkpt>
<trkpt lat="48.468191" lon="-121.058321"><ele>1643.9</ele></trkpt>
<trkpt lat="48.468074" lon="-121.058602"><ele>1643.6</ele></trkpt>
<trkpt lat="48.468000" lon="-121.058639"><ele>1644.3</ele></trkpt>
<trkpt lat="48.467998" lon="-121.058789"><ele>1645.1</ele></trkpt>
<trkpt lat="48.467892" lon="-121.058906"><ele>1646.0</ele></trkpt>
<trkpt lat="48.467796" lon="-121.058843"><ele>1645.1</ele></trkpt>
<trkpt lat="48.467577" lon="-121.059170"><ele>1644.7</ele></trkpt>
<trkpt lat="48.467539" lon="-121.059149"><ele>1644.9</ele></trkpt>
<trkpt lat="48.467642" lon="-121.059094"><ele>1644.4</ele></trkpt>
<trkpt lat="48.467722" lon="-121.059386"><ele>1642.7</ele></trkpt>
<trkpt lat="48.467795" lon="-121.059484"><ele>1639.9</ele></trkpt>
<trkpt lat="48.468059" lon="-121.059520"><ele>1636.5</ele></trkpt>
<trkpt lat="48.468304" lon="-121.059429"><ele>1633.8</ele></trkpt>
<trkpt lat="48.468506" lon="-121.059084"><ele>1629.4</ele></trkpt>
<trkpt lat="48.468586" lon="-121.059137"><ele>1628.0</ele></trkpt>
<trkpt lat="48.468655" lon="-121.059394"><ele>1627.6</ele></trkpt>
<trkpt lat="48.468746" lon="-121.059481"><ele>1628.6</ele></trkpt>
<trkpt lat="48.468981" lon="-121.059328"><ele>1625.5</ele></trkpt>
<trkpt lat="48.469153" lon="-121.059316"><ele>1623.4</ele></trkpt>
<trkpt lat="48.469637" lon="-121.059721"><ele>1618.3</ele></trkpt>
<trkpt lat="48.470196" lon="-121.060058"><ele>1611.5</ele></trkpt>
<trkpt lat="48.470512" lon="-121.060389"><ele>1606.8</ele></trkpt>
<trkpt lat="48.471087" lon="-121.060514"><ele>1604.7</ele></trkpt>
<trkpt lat="48.471318" lon="-121.060901"><ele>1603.4</ele></trkpt>
<trkpt lat="48.471368" lon="-121.061080"><ele>1602.2</ele></trkpt>
<trkpt lat="48.471535" lon="-121.061238"><ele>1601.2</ele></trkpt>
<trkpt lat="48.471592" lon="-121.061432"><ele>1597.0</ele></trkpt>
<trkpt lat="48.472001" lon="-121.061682"><ele>1597.1</ele></trkpt>
<trkpt lat="48.472063" lon="-121.061860"><ele>1596.2</ele></trkpt>
<trkpt lat="48.472180" lon="-121.061959"><ele>1593.3</ele></trkpt>
<trkpt lat="48.473042" lon="-121.062100"><ele>1592.7</ele></trkpt>
<trkpt lat="48.473374" lon="-121.062071"><ele>1592.1</ele></trkpt>
<trkpt lat="48.473602" lon="-121.062196"><ele>1591.2</ele></trkpt>
<trkpt lat="48.473671" lon="-121.062342"><ele>1589.1</ele></trkpt>
<trkpt lat="48.473837" lon="-121.062448"><ele>1589.5</ele></trkpt>
<trkpt lat="48.473931" lon="-121.062638"><ele>1589.5</ele></trkpt>
<trkpt lat="48.474205" lon="-121.062564"><ele>1589.4</ele></trkpt>
<trkpt lat="48.474420" lon="-121.063019"><ele>1587.6</ele></trkpt>
<trkpt lat="48.474666" lon="-121.063060"><ele>1585.0</ele></trkpt>
<trkpt lat="48.474974" lon="-121.063222"><ele>1582.8</ele></trkpt>
<trkpt lat="48.475742" lon="-121.064172"><ele>1578.2</ele></trkpt>
<trkpt lat="48.475953" lon="-121.064267"><ele>1574.6</ele></trkpt>
<trkpt lat="48.476083" lon="-121.064405"><ele>1573.0</ele></trkpt>
<trkpt lat="48.476241" lon="-121.064432"><ele>1572.6</ele></trkpt>
<trkpt lat="48.476389" lon="-121.064647"><ele>1571.6</ele></trkpt>
<trkpt lat="48.476818" lon="-121.064713"><ele>1570.9</ele></trkpt>
<trkpt lat="48.477089" lon="-121.065137"><ele>1566.3</ele></trkpt>
<trkpt lat="48.477442" lon="-121.065410"><ele>1563.5</ele></trkpt>
<trkpt lat="48.477535" lon="-121.065554"><ele>1562.8</ele></trkpt>
<trkpt lat="48.477825" lon="-121.065731"><ele>1559.0</ele></trkpt>
<trkpt lat="48.477976" lon="-121.065755"><ele>1558.4</ele></trkpt>
<trkpt lat="48.477933" lon="-121.065835"><ele>1557.6</ele></trkpt>
<trkpt lat="48.477355" lon="-121.065845"><ele>1552.7</ele></trkpt>
<trkpt lat="48.477109" lon="-121.065644"><ele>1545.7</ele></trkpt>
<trkpt lat="48.476697" lon="-121.065487"><ele>1541.1</ele></trkpt>
<trkpt lat="48.476531" lon="-121.065292"><ele>1539.6</ele></trkpt>
<trkpt lat="48.476297" lon="-121.065268"><ele>1539.1</ele></trkpt>
<trkpt lat="48.476165" lon="-121.065169"><ele>1538.8</ele></trkpt>
<trkpt lat="48.476524" lon="-121.065393"><ele>1533.6</ele></trkpt>
<trkpt lat="48.476667" lon="-121.065634"><ele>1530.3</ele></trkpt>
<trkpt lat="48.476894" lon="-121.065822"><ele>1527.4</ele></trkpt>
<trkpt lat="48.476998" lon="-121.066096"><ele>1524.8</ele></trkpt>
<trkpt lat="48.477242" lon="-121.066376"><ele>1521.5</ele></trkpt>
<trkpt lat="48.477500" lon="-121.066450"><ele>1519.8</ele></trkpt>
<trkpt lat="48.477570" lon="-121.066620"><ele>1518.6</ele></trkpt>
<trkpt lat="48.478107" lon="-121.066727"><ele>1513.0</ele></trkpt>
<trkpt lat="48.478093" lon="-121.066793"><ele>1512.1</ele></trkpt>
<trkpt lat="48.478005" lon="-121.066824"><ele>1512.8</ele></trkpt>
<trkpt lat="48.477879" lon="-121.066793"><ele>1513.4</ele></trkpt>
<trkpt lat="48.477563" lon="-121.066928"><ele>1507.5</ele></trkpt>
<trkpt lat="48.477380" lon="-121.066922"><ele>1505.8</ele></trkpt>
<trkpt lat="48.476903" lon="-121.066728"><ele>1495.4</ele></trkpt>
<trkpt lat="48.476732" lon="-121.066537"><ele>1493.1</ele></trkpt>
<trkpt lat="48.476915" lon="-121.066860"><ele>1492.3</ele></trkpt>
<trkpt lat="48.477271" lon="-121.067168"><ele>1489.0</ele></trkpt>
<trkpt lat="48.477733" lon="-121.067432"><ele>1481.4</ele></trkpt>
<trkpt lat="48.478017" lon="-121.067396"><ele>1480.3</ele></trkpt>
<trkpt lat="48.477925" lon="-121.067573"><ele>1478.7</ele></trkpt>
<trkpt lat="48.477536" lon="-121.067679"><ele>1473.8</ele></trkpt>
<trkpt lat="48.477359" lon="-121.067555"><ele>1467.9</ele></trkpt>
<trkpt lat="48.477396" lon="-121.067633"><ele>1467.8</ele></trkpt>
<trkpt lat="48.477549" lon="-121.067794"><ele>1470.6</ele></trkpt>
<trkpt lat="48.477811" lon="-121.067745"><ele>1466.5</ele></trkpt>
<trkpt lat="48.478109" lon="-121.067864"><ele>1465.0</ele></trkpt>
<trkpt lat="48.478163" lon="-121.067936"><ele>1462.0</ele></trkpt>
<trkpt lat="48.478011" lon="-121.068029"><ele>1459.3</ele></trkpt>
<trkpt lat="48.477900" lon="-121.067952"><ele>1456.5</ele></trkpt>
<trkpt lat="48.478105" lon="-121.068033"><ele>1457.4</ele></trkpt>
<trkpt lat="48.478384" lon="-121.067983"><ele>1452.2</ele></trkpt>
<trkpt lat="48.478622" lon="-121.068186"><ele>1448.1</ele></trkpt>
<trkpt lat="48.479025" lon="-121.068311"><ele>1441.4</ele></trkpt>
<trkpt lat="48.479055" lon="-121.068370"><ele>1441.1</ele></trkpt>
<trkpt lat="48.478870" lon="-121.068492"><ele>1442.9</ele></trkpt>
<trkpt lat="48.478596" lon="-121.068476"><ele>1435.4</ele></trkpt>
<trkpt lat="48.478489" lon="-121.068390"><ele>1436.3</ele></trkpt>
<trkpt lat="48.478745" lon="-121.068553"><ele>1432.9</ele></trkpt>
<trkpt lat="48.478990" lon="-121.068597"><ele>1425.0</ele></trkpt>
<trkpt lat="48.479041" lon="-121.068688"><ele>1424.6</ele></trkpt>
<trkpt lat="48.478521" lon="-121.068777"><ele>1426.3</ele></trkpt>
<trkpt lat="48.478389" lon="-121.068742"><ele>1423.2</ele></trkpt>
<trkpt lat="48.478800" lon="-121.068858"><ele>1409.2</ele></trkpt>
<trkpt lat="48.479022" lon="-121.069028"><ele>1405.8</ele></trkpt>
<trkpt lat="48.478993" lon="-121.069074"><ele>1402.7</ele></trkpt>
<trkpt lat="48.478728" lon="-121.069157"><ele>1406.2</ele></trkpt>
<trkpt lat="48.478607" lon="-121.069125"><ele>1406.7</ele></trkpt>
<trkpt lat="48.478261" lon="-121.069261"><ele>1397.0</ele></trkpt>
<trkpt lat="48.477866" lon="-121.069289"><ele>1394.3</ele></trkpt>
<trkpt lat="48.477687" lon="-121.069150"><ele>1393.2</ele></trkpt>
<trkpt lat="48.478081" lon="-121.069594"><ele>1385.0</ele></trkpt>
<trkpt lat="48.478253" lon="-121.069677"><ele>1381.9</ele></trkpt>
<trkpt lat="48.478261" lon="-121.069830"><ele>1379.4</ele></trkpt>
<trkpt lat="48.478177" lon="-121.069962"><ele>1378.0</ele></trkpt>
<trkpt lat="48.478009" lon="-121.069934"><ele>1377.1</ele></trkpt>
<trkpt lat="48.477726" lon="-121.069743"><ele>1372.8</ele></trkpt>
<trkpt lat="48.477577" lon="-121.069843"><ele>1369.1</ele></trkpt>
<trkpt lat="48.477430" lon="-121.069762"><ele>1365.1</ele></trkpt>
<trkpt lat="48.477451" lon="-121.069932"><ele>1363.6</ele></trkpt>
<trkpt lat="48.477562" lon="-121.070106"><ele>1368.4</ele></trkpt>
<trkpt lat="48.477766" lon="-121.070093"><ele>1362.6</ele></trkpt>
<trkpt lat="48.478079" lon="-121.070404"><ele>1361.7</ele></trkpt>
<trkpt lat="48.477953" lon="-121.070365"><ele>1357.4</ele></trkpt>
<trkpt lat="48.477726" lon="-121.070411"><ele>1356.7</ele></trkpt>
<trkpt lat="48.477583" lon="-121.070496"><ele>1352.3</ele></trkpt>
<trkpt lat="48.477603" lon="-121.070553"><ele>1354.3</ele></trkpt>
<trkpt lat="48.477686" lon="-121.070612"><ele>1358.5</ele></trkpt>
<trkpt lat="48.477846" lon="-121.070577"><ele>1351.4</ele></trkpt>
<trkpt lat="48.478034" lon="-121.070669"><ele>1348.3</ele></trkpt>
<trkpt lat="48.478184" lon="-121.070847"><ele>1342.4</ele></trkpt>
<trkpt lat="48.478374" lon="-121.070907"><ele>1345.6</ele></trkpt>
<trkpt lat="48.478574" lon="-121.071087"><ele>1332.6</ele></trkpt>
<trkpt lat="48.478649" lon="-121.071280"><ele>1335.2</ele></trkpt>
<trkpt lat="48.478538" lon="-121.071279"><ele>1338.9</ele></trkpt>
<trkpt lat="48.478308" lon="-121.071119"><ele>1336.3</ele></trkpt>
<trkpt lat="48.478158" lon="-121.071151"><ele>1328.8</ele></trkpt>
<trkpt lat="48.478040" lon="-121.071049"><ele>1327.1</ele></trkpt>
<trkpt lat="48.477726" lon="-121.071143"><ele>1322.8</ele></trkpt>
<trkpt lat="48.477367" lon="-121.071057"><ele>1316.1</ele></trkpt>
<trkpt lat="48.477269" lon="-121.070772"><ele>1306.4</ele></trkpt>
<trkpt lat="48.477361" lon="-121.071096"><ele>1305.8</ele></trkpt>
<trkpt lat="48.477479" lon="-121.071311"><ele>1309.8</ele></trkpt>
<trkpt lat="48.478275" lon="-121.071465"><ele>1306.1</ele></trkpt>
<trkpt lat="48.478353" lon="-121.071581"><ele>1306.8</ele></trkpt>
<trkpt lat="48.478396" lon="-121.071887"><ele>1304.5</ele></trkpt>
<trkpt lat="48.478338" lon="-121.071890"><ele>1303.8</ele></trkpt>
<trkpt lat="48.478356" lon="-121.071843"><ele>1302.6</ele></trkpt>
<trkpt lat="48.478211" lon="-121.071647"><ele>1301.9</ele></trkpt>
<trkpt lat="48.478140" lon="-121.071672"><ele>1302.5</ele></trkpt>
<trkpt lat="48.478066" lon="-121.071602"><ele>1300.0</ele></trkpt>
<trkpt lat="48.477830" lon="-121.071685"><ele>1291.0</ele></trkpt>
<trkpt lat="48.477543" lon="-121.071997"><ele>1286.1</ele></trkpt>
<trkpt lat="48.477366" lon="-121.071768"><ele>1286.7</ele></trkpt>
<trkpt lat="48.477019" lon="-121.071486"><ele>1275.4</ele></trkpt>
<trkpt lat="48.477001" lon="-121.071409"><ele>1277.2</ele></trkpt>
<trkpt lat="48.477150" lon="-121.071760"><ele>1274.5</ele></trkpt>
<trkpt lat="48.477078" lon="-121.071767"><ele>1273.9</ele></trkpt>
<trkpt lat="48.477009" lon="-121.071633"><ele>1272.1</ele></trkpt>
<trkpt lat="48.476866" lon="-121.071548"><ele>1270.2</ele></trkpt>
<trkpt lat="48.476859" lon="-121.071461"><ele>1269.0</ele></trkpt>
<trkpt lat="48.477172" lon="-121.071871"><ele>1259.7</ele></trkpt>
<trkpt lat="48.477270" lon="-121.072096"><ele>1261.4</ele></trkpt>
<trkpt lat="48.477245" lon="-121.072156"><ele>1262.0</ele></trkpt>
<trkpt lat="48.477075" lon="-121.071945"><ele>1263.2</ele></trkpt>
<trkpt lat="48.476900" lon="-121.071890"><ele>1262.7</ele></trkpt>
<trkpt lat="48.476834" lon="-121.071747"><ele>1255.0</ele></trkpt>
<trkpt lat="48.476628" lon="-121.071590"><ele>1253.2</ele></trkpt>
<trkpt lat="48.477043" lon="-121.072035"><ele>1241.6</ele></trkpt>
<trkpt lat="48.477196" lon="-121.072360"><ele>1238.9</ele></trkpt>
<trkpt lat="48.477349" lon="-121.072496"><ele>1240.0</ele></trkpt>
<trkpt lat="48.477500" lon="-121.072537"><ele>1241.4</ele></trkpt>
<trkpt lat="48.477535" lon="-121.072745"><ele>1241.2</ele></trkpt>
<trkpt lat="48.477461" lon="-121.072651"><ele>1240.9</ele></trkpt>
<trkpt lat="48.477135" lon="-121.072549"><ele>1239.4</ele></trkpt>
<trkpt lat="48.476953" lon="-121.072304"><ele>1235.2</ele></trkpt>
<trkpt lat="48.476408" lon="-121.072017"><ele>1229.2</ele></trkpt>
<trkpt lat="48.476351" lon="-121.071914"><ele>1225.8</ele></trkpt>
<trkpt lat="48.476473" lon="-121.072001"><ele>1222.5</ele></trkpt>
<trkpt lat="48.476604" lon="-121.072228"><ele>1226.7</ele></trkpt>
<trkpt lat="48.476768" lon="-121.072261"><ele>1225.4</ele></trkpt>
<trkpt lat="48.476953" lon="-121.072421"><ele>1217.8</ele></trkpt>
<trkpt lat="48.477138" lon="-121.072733"><ele>1217.4</ele></trkpt>
<trkpt lat="48.477398" lon="-121.072939"><ele>1213.0</ele></trkpt>
<trkpt lat="48.477439" lon="-121.073046"><ele>1209.1</ele></trkpt>
<trkpt lat="48.477683" lon="-121.073301"><ele>1209.5</ele></trkpt>
<trkpt lat="48.477688" lon="-121.073458"><ele>1213.2</ele></trkpt>
<trkpt lat="48.477431" lon="-121.073195"><ele>1206.9</ele></trkpt>
<trkpt lat="48.476865" lon="-121.072828"><ele>1200.9</ele></trkpt>
<trkpt lat="48.476730" lon="-121.072790"><ele>1200.4</ele></trkpt>
<trkpt lat="48.476568" lon="-121.072855"><ele>1197.2</ele></trkpt>
<trkpt lat="48.476280" lon="-121.072734"><ele>1193.5</ele></trkpt>
<trkpt lat="48.475847" lon="-121.072741"><ele>1190.9</ele></trkpt>
<trkpt lat="48.475732" lon="-121.072696"><ele>1188.6</ele></trkpt>
<trkpt lat="48.475659" lon="-121.072582"><ele>1187.2</ele></trkpt>
<trkpt lat="48.475822" lon="-121.072867"><ele>1187.8</ele></trkpt>
<trkpt lat="48.476033" lon="-121.073035"><ele>1190.8</ele></trkpt>
<trkpt lat="48.476305" lon="-121.073013"><ele>1189.4</ele></trkpt>
<trkpt lat="48.476513" lon="-121.073214"><ele>1192.2</ele></trkpt>
<trkpt lat="48.476780" lon="-121.073306"><ele>1193.7</ele></trkpt>
<trkpt lat="48.476769" lon="-121.073364"><ele>1193.0</ele></trkpt>
<trkpt lat="48.476839" lon="-121.073420"><ele>1185.4</ele></trkpt>
<trkpt lat="48.476922" lon="-121.073653"><ele>1182.7</ele></trkpt>
<trkpt lat="48.476815" lon="-121.073563"><ele>1178.7</ele></trkpt>
<trkpt lat="48.476637" lon="-121.073597"><ele>1177.8</ele></trkpt>
<trkpt lat="48.476462" lon="-121.073381"><ele>1174.2</ele></trkpt>
<trkpt lat="48.476209" lon="-121.073271"><ele>1165.7</ele></trkpt>
<trkpt lat="48.475858" lon="-121.073461"><ele>1165.8</ele></trkpt>
<trkpt lat="48.475467" lon="-121.073531"><ele>1161.3</ele></trkpt>
<trkpt lat="48.475260" lon="-121.073497"><ele>1154.3</ele></trkpt>
<trkpt lat="48.475462" lon="-121.073632"><ele>1158.4</ele></trkpt>
<trkpt lat="48.475702" lon="-121.073655"><ele>1152.6</ele></trkpt>
<trkpt lat="48.475839" lon="-121.073863"><ele>1150.1</ele></trkpt>
<trkpt lat="48.475518" lon="-121.073858"><ele>1145.3</ele></trkpt>
<trkpt lat="48.475300" lon="-121.074090"><ele>1143.9</ele></trkpt>
<trkpt lat="48.475171" lon="-121.074086"><ele>1140.4</ele></trkpt>
<trkpt lat="48.475013" lon="-121.073958"><ele>1140.4</ele></trkpt>
<trkpt lat="48.475041" lon="-121.074028"><ele>1139.9</ele></trkpt>
<trkpt lat="48.475276" lon="-121.074328"><ele>1138.9</ele></trkpt>
<trkpt lat="48.475746" lon="-121.074274"><ele>1134.5</ele></trkpt>
<trkpt lat="48.475937" lon="-121.074315"><ele>1130.2</ele></trkpt>
<trkpt lat="48.475928" lon="-121.074811"><ele>1127.8</ele></trkpt>
<trkpt lat="48.475993" lon="-121.074960"><ele>1125.0</ele></trkpt>
<trkpt lat="48.476003" lon="-121.075157"><ele>1121.4</ele></trkpt>
<trkpt lat="48.475745" lon="-121.075236"><ele>1116.6</ele></trkpt>
<trkpt lat="48.475516" lon="-121.074906"><ele>1112.4</ele></trkpt>
<trkpt lat="48.475473" lon="-121.074955"><ele>1111.2</ele></trkpt>
<trkpt lat="48.475456" lon="-121.075276"><ele>1110.5</ele></trkpt>
<trkpt lat="48.475291" lon="-121.075264"><ele>1110.2</ele></trkpt>
</trkseg></trk>
</gpx>
