<?xml version="1.0" encoding="UTF-8"?>
<gpx version="1.1" creator="The Lost Trailhead" xmlns="http://www.topografix.com/GPX/1/1" xmlns:xsi="http://www.w3.org/2001/XMLSchema-instance" xsi:schemaLocation="http://www.topografix.com/GPX/1/1 http://www.topografix.com/GPX/1/1/gpx.xsd">
<metadata><name>Subway Cave</name><desc>The Lost Trailhead, thelosttrailhead.com/hikes/subway-cave. Conditions change. Use at your own risk.</desc><link href="https://thelosttrailhead.com/hikes/subway-cave"><text>Subway Cave on The Lost Trailhead</text></link></metadata>
<trk><name>Subway Cave</name><link href="https://thelosttrailhead.com/hikes/subway-cave"><text>Subway Cave on The Lost Trailhead</text></link><trkseg>
<trkpt lat="34.908101" lon="-111.848268"><ele>1377.1</ele></trkpt>
<trkpt lat="34.908136" lon="-111.848120"><ele>1376.1</ele></trkpt>
<trkpt lat="34.908319" lon="-111.847914"><ele>1373.7</ele></trkpt>
<trkpt lat="34.908465" lon="-111.847829"><ele>1372.7</ele></trkpt>
<trkpt lat="34.908726" lon="-111.847362"><ele>1372.7</ele></trkpt>
<trkpt lat="34.908787" lon="-111.847351"><ele>1372.3</ele></trkpt>
<trkpt lat="34.909009" lon="-111.847528"><ele>1372.0</ele></trkpt>
<trkpt lat="34.909113" lon="-111.847816"><ele>1373.1</ele></trkpt>
<trkpt lat="34.909424" lon="-111.848389"><ele>1375.8</ele></trkpt>
<trkpt lat="34.909654" lon="-111.848591"><ele>1376.3</ele></trkpt>
<trkpt lat="34.909711" lon="-111.848753"><ele>1375.4</ele></trkpt>
<trkpt lat="34.909702" lon="-111.848941"><ele>1375.2</ele></trkpt>
<trkpt lat="34.910070" lon="-111.849479"><ele>1378.1</ele></trkpt>
<trkpt lat="34.910280" lon="-111.849657"><ele>1379.4</ele></trkpt>
<trkpt lat="34.910648" lon="-111.849577"><ele>1383.2</ele></trkpt>
<trkpt lat="34.910883" lon="-111.849738"><ele>1381.8</ele></trkpt>
<trkpt lat="34.911053" lon="-111.849763"><ele>1383.5</ele></trkpt>
<trkpt lat="34.911415" lon="-111.849630"><ele>1383.9</ele></trkpt>
<trkpt lat="34.911442" lon="-111.849695"><ele>1384.3</ele></trkpt>
<trkpt lat="34.911412" lon="-111.849987"><ele>1383.3</ele></trkpt>
<trkpt lat="34.911482" lon="-111.850233"><ele>1383.3</ele></trkpt>
<trkpt lat="34.911570" lon="-111.850378"><ele>1383.9</ele></trkpt>
<trkpt lat="34.911748" lon="-111.850491"><ele>1384.0</ele></trkpt>
<trkpt lat="34.912052" lon="-111.850495"><ele>1384.9</ele></trkpt>
<trkpt lat="34.912504" lon="-111.850170"><ele>1387.8</ele></trkpt>
<trkpt lat="34.912737" lon="-111.850220"><ele>1387.0</ele></trkpt>
<trkpt lat="34.912967" lon="-111.850180"><ele>1389.0</ele></trkpt>
<trkpt lat="34.913311" lon="-111.850349"><ele>1391.5</ele></trkpt>
<trkpt lat="34.913488" lon="-111.850253"><ele>1394.6</ele></trkpt>
<trkpt lat="34.913605" lon="-111.850266"><ele>1399.1</ele></trkpt>
<trkpt lat="34.913661" lon="-111.850325"><ele>1398.6</ele></trkpt>
<trkpt lat="34.913752" lon="-111.850303"><ele>1398.5</ele></trkpt>
<trkpt lat="34.913815" lon="-111.850421"><ele>1398.9</ele></trkpt>
<trkpt lat="34.914181" lon="-111.850625"><ele>1404.6</ele></trkpt>
<trkpt lat="34.914642" lon="-111.850644"><ele>1408.2</ele></trkpt>
<trkpt lat="34.914967" lon="-111.850487"><ele>1412.1</ele></trkpt>
<trkpt lat="34.915224" lon="-111.850231"><ele>1413.1</ele></trkpt>
<trkpt lat="34.915432" lon="-111.850127"><ele>1412.7</ele></trkpt>
<trkpt lat="34.915634" lon="-111.850364"><ele>1411.4</ele></trkpt>
<trkpt lat="34.916094" lon="-111.850654"><ele>1411.0</ele></trkpt>
<trkpt lat="34.916292" lon="-111.850567"><ele>1409.8</ele></trkpt>
<trkpt lat="34.916315" lon="-111.850493"><ele>1410.0</ele></trkpt>
<trkpt lat="34.916303" lon="-111.851334"><ele>1409.1</ele></trkpt>
<trkpt lat="34.916368" lon="-111.851670"><ele>1410.1</ele></trkpt>
<trkpt lat="34.916602" lon="-111.851987"><ele>1412.6</ele></trkpt>
<trkpt lat="34.916636" lon="-111.852246"><ele>1409.9</ele></trkpt>
<trkpt lat="34.916747" lon="-111.852401"><ele>1408.1</ele></trkpt>
<trkpt lat="34.917361" lon="-111.852779"><ele>1407.0</ele></trkpt>
<trkpt lat="34.917883" lon="-111.852799"><ele>1409.3</ele></trkpt>
<trkpt lat="34.918142" lon="-111.852939"><ele>1410.1</ele></trkpt>
<trkpt lat="34.918355" lon="-111.852897"><ele>1409.8</ele></trkpt>
<trkpt lat="34.918552" lon="-111.853050"><ele>1409.1</ele></trkpt>
<trkpt lat="34.918620" lon="-111.853014"><ele>1408.7</ele></trkpt>
<trkpt lat="34.918742" lon="-111.852790"><ele>1406.9</ele></trkpt>
<trkpt lat="34.918819" lon="-111.852796"><ele>1406.7</ele></trkpt>
<trkpt lat="34.918924" lon="-111.852997"><ele>1406.2</ele></trkpt>
<trkpt lat="34.918953" lon="-111.853309"><ele>1406.3</ele></trkpt>
<trkpt lat="34.919005" lon="-111.853346"><ele>1406.3</ele></trkpt>
<trkpt lat="34.919172" lon="-111.853317"><ele>1406.6</ele></trkpt>
<trkpt lat="34.919291" lon="-111.853416"><ele>1406.5</ele></trkpt>
<trkpt lat="34.919406" lon="-111.853643"><ele>1405.2</ele></trkpt>
<trkpt lat="34.919467" lon="-111.853938"><ele>1404.7</ele></trkpt>
<trkpt lat="34.919435" lon="-111.854107"><ele>1404.3</ele></trkpt>
<trkpt lat="34.919578" lon="-111.854380"><ele>1403.3</ele></trkpt>
<trkpt lat="34.919816" lon="-111.854547"><ele>1402.8</ele></trkpt>
<trkpt lat="34.919904" lon="-111.854665"><ele>1402.8</ele></trkpt>
<trkpt lat="34.920155" lon="-111.854763"><ele>1403.2</ele></trkpt>
<trkpt lat="34.920407" lon="-111.854955"><ele>1403.6</ele></trkpt>
<trkpt lat="34.920547" lon="-111.855146"><ele>1404.6</ele></trkpt>
<trkpt lat="34.920628" lon="-111.855666"><ele>1407.7</ele></trkpt>
<trkpt lat="34.920606" lon="-111.855907"><ele>1409.6</ele></trkpt>
<trkpt lat="34.920733" lon="-111.856118"><ele>1410.7</ele></trkpt>
<trkpt lat="34.920938" lon="-111.856228"><ele>1410.3</ele></trkpt>
<trkpt lat="34.921177" lon="-111.856218"><ele>1410.0</ele></trkpt>
<trkpt lat="34.922512" lon="-111.856561"><ele>1412.8</ele></trkpt>
<trkpt lat="34.922811" lon="-111.856795"><ele>1413.3</ele></trkpt>
<trkpt lat="34.923088" lon="-111.857172"><ele>1415.3</ele></trkpt>
<trkpt lat="34.923473" lon="-111.857407"><ele>1417.9</ele></trkpt>
<trkpt lat="34.923606" lon="-111.857549"><ele>1419.9</ele></trkpt>
<trkpt lat="34.923952" lon="-111.857684"><ele>1420.6</ele></trkpt>
<trkpt lat="34.924331" lon="-111.857669"><ele>1422.3</ele></trkpt>
<trkpt lat="34.925417" lon="-111.858285"><ele>1428.9</ele></trkpt>
<trkpt lat="34.926019" lon="-111.858542"><ele>1433.0</ele></trkpt>
<trkpt lat="34.926301" lon="-111.858793"><ele>1433.3</ele></trkpt>
<trkpt lat="34.926596" lon="-111.858904"><ele>1433.3</ele></trkpt>
<trkpt lat="34.926891" lon="-111.860419"><ele>1436.7</ele></trkpt>
<trkpt lat="34.927060" lon="-111.860878"><ele>1438.3</ele></trkpt>
<trkpt lat="34.927128" lon="-111.861197"><ele>1439.8</ele></trkpt>
<trkpt lat="34.927332" lon="-111.861402"><ele>1437.3</ele></trkpt>
<trkpt lat="34.927321" lon="-111.861468"><ele>1438.3</ele></trkpt>
<trkpt lat="34.927403" lon="-111.861600"><ele>1439.6</ele></trkpt>
<trkpt lat="34.927738" lon="-111.861826"><ele>1443.9</ele></trkpt>
<trkpt lat="34.927836" lon="-111.862077"><ele>1445.8</ele></trkpt>
<trkpt lat="34.927790" lon="-111.861920"><ele>1444.3</ele></trkpt>
<trkpt lat="34.927810" lon="-111.861836"><ele>1443.6</ele></trkpt>
<trkpt lat="34.928276" lon="-111.861687"><ele>1444.0</ele></trkpt>
<trkpt lat="34.928445" lon="-111.861812"><ele>1448.8</ele></trkpt>
<trkpt lat="34.928719" lon="-111.861787"><ele>1451.5</ele></trkpt>
<trkpt lat="34.928827" lon="-111.861874"><ele>1451.9</ele></trkpt>
<trkpt lat="34.928993" lon="-111.861918"><ele>1453.2</ele></trkpt>
<trkpt lat="34.929092" lon="-111.861871"><ele>1454.6</ele></trkpt>
<trkpt lat="34.929277" lon="-111.861889"><ele>1456.6</ele></trkpt>
<trkpt lat="34.929391" lon="-111.861782"><ele>1457.3</ele></trkpt>
<trkpt lat="34.929695" lon="-111.862305"><ele>1458.7</ele></trkpt>
<trkpt lat="34.930181" lon="-111.862609"><ele>1464.3</ele></trkpt>
<trkpt lat="34.930355" lon="-111.862592"><ele>1467.7</ele></trkpt>
<trkpt lat="34.930472" lon="-111.862480"><ele>1469.8</ele></trkpt>
<trkpt lat="34.930838" lon="-111.862506"><ele>1478.0</ele></trkpt>
<trkpt lat="34.931074" lon="-111.862367"><ele>1480.2</ele></trkpt>
<trkpt lat="34.931546" lon="-111.862505"><ele>1486.0</ele></trkpt>
<trkpt lat="34.931856" lon="-111.862295"><ele>1488.5</ele></trkpt>
<trkpt lat="34.932088" lon="-111.862331"><ele>1486.8</ele></trkpt>
<trkpt lat="34.932226" lon="-111.862439"><ele>1491.9</ele></trkpt>
<trkpt lat="34.932293" lon="-111.862609"><ele>1495.3</ele></trkpt>
<trkpt lat="34.932363" lon="-111.862644"><ele>1496.1</ele></trkpt>
<trkpt lat="34.932391" lon="-111.862965"><ele>1500.8</ele></trkpt>
<trkpt lat="34.932339" lon="-111.863020"><ele>1511.4</ele></trkpt>
<trkpt lat="34.932404" lon="-111.862954"><ele>1512.7</ele></trkpt>
<trkpt lat="34.932470" lon="-111.863062"><ele>1510.2</ele></trkpt>
<trkpt lat="34.932472" lon="-111.862979"><ele>1507.8</ele></trkpt>
<trkpt lat="34.932404" lon="-111.862998"><ele>1513.4</ele></trkpt>
<trkpt lat="34.932480" lon="-111.863122"><ele>1531.4</ele></trkpt>
<trkpt lat="34.932698" lon="-111.863049"><ele>1540.6</ele></trkpt>
<trkpt lat="34.932581" lon="-111.863104"><ele>1547.6</ele></trkpt>
<trkpt lat="34.932538" lon="-111.862924"><ele>1546.1</ele></trkpt>
<trkpt lat="34.932476" lon="-111.862848"><ele>1545.7</ele></trkpt>
<trkpt lat="34.932233" lon="-111.862919"><ele>1543.2</ele></trkpt>
<trkpt lat="34.932170" lon="-111.862872"><ele>1541.5</ele></trkpt>
<trkpt lat="34.932250" lon="-111.862866"><ele>1536.7</ele></trkpt>
<trkpt lat="34.932247" lon="-111.862915"><ele>1533.2</ele></trkpt>
<trkpt lat="34.932352" lon="-111.862976"><ele>1524.9</ele></trkpt>
<trkpt lat="34.932316" lon="-111.863199"><ele>1524.7</ele></trkpt>
<trkpt lat="34.932431" lon="-111.863121"><ele>1525.3</ele></trkpt>
<trkpt lat="34.932355" lon="-111.863198"><ele>1526.0</ele></trkpt>
<trkpt lat="34.932281" lon="-111.863150"><ele>1526.3</ele></trkpt>
<trkpt lat="34.932381" lon="-111.863016"><ele>1522.6</ele></trkpt>
<trkpt lat="34.932363" lon="-111.862943"><ele>1518.4</ele></trkpt>
<trkpt lat="34.932234" lon="-111.863264"><ele>1517.4</ele></trkpt>
<trkpt lat="34.932196" lon="-111.863062"><ele>1516.0</ele></trkpt>
<trkpt lat="34.932301" lon="-111.863071"><ele>1514.2</ele></trkpt>
<trkpt lat="34.932285" lon="-111.862981"><ele>1514.3</ele></trkpt>
<trkpt lat="34.932189" lon="-111.862805"><ele>1511.5</ele></trkpt>
<trkpt lat="34.932027" lon="-111.862820"><ele>1510.3</ele></trkpt>
<trkpt lat="34.932031" lon="-111.862862"><ele>1510.8</ele></trkpt>
<trkpt lat="34.932027" lon="-111.862820"><ele>1510.3</ele></trkpt>
<trkpt lat="34.932189" lon="-111.862805"><ele>1511.5</ele></trkpt>
<trkpt lat="34.932285" lon="-111.862981"><ele>1514.3</ele></trkpt>
<trkpt lat="34.932301" lon="-111.863071"><ele>1514.2</ele></trkpt>
<trkpt lat="34.932196" lon="-111.863062"><ele>1516.0</ele></trkpt>
<trkpt lat="34.932234" lon="-111.863264"><ele>1517.4</ele></trkpt>
<trkpt lat="34.932363" lon="-111.862943"><ele>1518.4</ele></trkpt>
<trkpt lat="34.932381" lon="-111.863016"><ele>1522.6</ele></trkpt>
<trkpt lat="34.932281" lon="-111.863150"><ele>1526.3</ele></trkpt>
<trkpt lat="34.932355" lon="-111.863198"><ele>1526.0</ele></trkpt>
<trkpt lat="34.932431" lon="-111.863121"><ele>1525.3</ele></trkpt>
<trkpt lat="34.932316" lon="-111.863199"><ele>1524.7</ele></trkpt>
<trkpt lat="34.932352" lon="-111.862976"><ele>1524.9</ele></trkpt>
<trkpt lat="34.932247" lon="-111.862915"><ele>1533.2</ele></trkpt>
<trkpt lat="34.932250" lon="-111.862866"><ele>1536.7</ele></trkpt>
<trkpt lat="34.932170" lon="-111.862872"><ele>1541.5</ele></trkpt>
<trkpt lat="34.932233" lon="-111.862919"><ele>1543.2</ele></trkpt>
<trkpt lat="34.932476" lon="-111.862848"><ele>1545.7</ele></trkpt>
<trkpt lat="34.932538" lon="-111.862924"><ele>1546.1</ele></trkpt>
<trkpt lat="34.932581" lon="-111.863104"><ele>1547.6</ele></trkpt>
<trkpt lat="34.932698" lon="-111.863049"><ele>1540.6</ele></trkpt>
<trkpt lat="34.932480" lon="-111.863122"><ele>1531.4</ele></trkpt>
<trkpt lat="34.932404" lon="-111.862998"><ele>1513.4</ele></trkpt>
<trkpt lat="34.932472" lon="-111.862979"><ele>1507.8</ele></trkpt>
<trkpt lat="34.932470" lon="-111.863062"><ele>1510.2</ele></trkpt>
<trkpt lat="34.932404" lon="-111.862954"><ele>1512.7</ele></trkpt>
<trkpt lat="34.932339" lon="-111.863020"><ele>1511.4</ele></trkpt>
<trkpt lat="34.932391" lon="-111.862965"><ele>1500.8</ele></trkpt>
<trkpt lat="34.932363" lon="-111.862644"><ele>1496.1</ele></trkpt>
<trkpt lat="34.932293" lon="-111.862609"><ele>1495.3</ele></trkpt>
<trkpt lat="34.932226" lon="-111.862439"><ele>1491.9</ele></trkpt>
<trkpt lat="34.932088" lon="-111.862331"><ele>1486.8</ele></trkpt>
<trkpt lat="34.931856" lon="-111.862295"><ele>1488.5</ele></trkpt>
<trkpt lat="34.931546" lon="-111.862505"><ele>1486.0</ele></trkpt>
<trkpt lat="34.931074" lon="-111.862367"><ele>1480.2</ele></trkpt>
<trkpt lat="34.930838" lon="-111.862506"><ele>1478.0</ele></trkpt>
<trkpt lat="34.930472" lon="-111.862480"><ele>1469.8</ele></trkpt>
<trkpt lat="34.930355" lon="-111.862592"><ele>1467.7</ele></trkpt>
<trkpt lat="34.930181" lon="-111.862609"><ele>1464.3</ele></trkpt>
<trkpt lat="34.929695" lon="-111.862305"><ele>1458.7</ele></trkpt>
<trkpt lat="34.929391" lon="-111.861782"><ele>1457.3</ele></trkpt>
<trkpt lat="34.929277" lon="-111.861889"><ele>1456.6</ele></trkpt>
<trkpt lat="34.929092" lon="-111.861871"><ele>1454.6</ele></trkpt>
<trkpt lat="34.928993" lon="-111.861918"><ele>1453.2</ele></trkpt>
<trkpt lat="34.928827" lon="-111.861874"><ele>1451.9</ele></trkpt>
<trkpt lat="34.928719" lon="-111.861787"><ele>1451.5</ele></trkpt>
<trkpt lat="34.928445" lon="-111.861812"><ele>1448.8</ele></trkpt>
<trkpt lat="34.928276" lon="-111.861687"><ele>1444.0</ele></trkpt>
<trkpt lat="34.927810" lon="-111.861836"><ele>1443.6</ele></trkpt>
<trkpt lat="34.927790" lon="-111.861920"><ele>1444.3</ele></trkpt>
<trkpt lat="34.927836" lon="-111.862077"><ele>1445.8</ele></trkpt>
<trkpt lat="34.927738" lon="-111.861826"><ele>1443.9</ele></trkpt>
<trkpt lat="34.927403" lon="-111.861600"><ele>1439.6</ele></trkpt>
<trkpt lat="34.927321" lon="-111.861468"><ele>1438.3</ele></trkpt>
<trkpt lat="34.927332" lon="-111.861402"><ele>1437.3</ele></trkpt>
<trkpt lat="34.927128" lon="-111.861197"><ele>1439.8</ele></trkpt>
<trkpt lat="34.927060" lon="-111.860878"><ele>1438.3</ele></trkpt>
<trkpt lat="34.926891" lon="-111.860419"><ele>1436.7</ele></trkpt>
<trkpt lat="34.926596" lon="-111.858904"><ele>1433.3</ele></trkpt>
<trkpt lat="34.926301" lon="-111.858793"><ele>1433.3</ele></trkpt>
<trkpt lat="34.926019" lon="-111.858542"><ele>1433.0</ele></trkpt>
<trkpt lat="34.925417" lon="-111.858285"><ele>1428.9</ele></trkpt>
<trkpt lat="34.924331" lon="-111.857669"><ele>1422.3</ele></trkpt>
<trkpt lat="34.923952" lon="-111.857684"><ele>1420.6</ele></trkpt>
<trkpt lat="34.923606" lon="-111.857549"><ele>1419.9</ele></trkpt>
<trkpt lat="34.923473" lon="-111.857407"><ele>1417.9</ele></trkpt>
<trkpt lat="34.923088" lon="-111.857172"><ele>1415.3</ele></trkpt>
<trkpt lat="34.922811" lon="-111.856795"><ele>1413.3</ele></trkpt>
<trkpt lat="34.922512" lon="-111.856561"><ele>1412.8</ele></trkpt>
<trkpt lat="34.921177" lon="-111.856218"><ele>1410.0</ele></trkpt>
<trkpt lat="34.920938" lon="-111.856228"><ele>1410.3</ele></trkpt>
<trkpt lat="34.920733" lon="-111.856118"><ele>1410.7</ele></trkpt>
<trkpt lat="34.920606" lon="-111.855907"><ele>1409.6</ele></trkpt>
<trkpt lat="34.920628" lon="-111.855666"><ele>1407.7</ele></trkpt>
<trkpt lat="34.920547" lon="-111.855146"><ele>1404.6</ele></trkpt>
<trkpt lat="34.920407" lon="-111.854955"><ele>1403.6</ele></trkpt>
<trkpt lat="34.920155" lon="-111.854763"><ele>1403.2</ele></trkpt>
<trkpt lat="34.919904" lon="-111.854665"><ele>1402.8</ele></trkpt>
<trkpt lat="34.919816" lon="-111.854547"><ele>1402.8</ele></trkpt>
<trkpt lat="34.919578" lon="-111.854380"><ele>1403.3</ele></trkpt>
<trkpt lat="34.919435" lon="-111.854107"><ele>1404.3</ele></trkpt>
<trkpt lat="34.919467" lon="-111.853938"><ele>1404.7</ele></trkpt>
<trkpt lat="34.919406" lon="-111.853643"><ele>1405.2</ele></trkpt>
<trkpt lat="34.919291" lon="-111.853416"><ele>1406.5</ele></trkpt>
<trkpt lat="34.919172" lon="-111.853317"><ele>1406.6</ele></trkpt>
<trkpt lat="34.919005" lon="-111.853346"><ele>1406.3</ele></trkpt>
<trkpt lat="34.918953" lon="-111.853309"><ele>1406.3</ele></trkpt>
<trkpt lat="34.918924" lon="-111.852997"><ele>1406.2</ele></trkpt>
<trkpt lat="34.918819" lon="-111.852796"><ele>1406.7</ele></trkpt>
<trkpt lat="34.918742" lon="-111.852790"><ele>1406.9</ele></trkpt>
<trkpt lat="34.918620" lon="-111.853014"><ele>1408.7</ele></trkpt>
<trkpt lat="34.918552" lon="-111.853050"><ele>1409.1</ele></trkpt>
<trkpt lat="34.918355" lon="-111.852897"><ele>1409.8</ele></trkpt>
<trkpt lat="34.918142" lon="-111.852939"><ele>1410.1</ele></trkpt>
<trkpt lat="34.917883" lon="-111.852799"><ele>1409.3</ele></trkpt>
<trkpt lat="34.917361" lon="-111.852779"><ele>1407.0</ele></trkpt>
<trkpt lat="34.916747" lon="-111.852401"><ele>1408.1</ele></trkpt>
<trkpt lat="34.916636" lon="-111.852246"><ele>1409.9</ele></trkpt>
<trkpt lat="34.916602" lon="-111.851987"><ele>1412.6</ele></trkpt>
<trkpt lat="34.916368" lon="-111.851670"><ele>1410.1</ele></trkpt>
<trkpt lat="34.916303" lon="-111.851334"><ele>1409.1</ele></trkpt>
<trkpt lat="34.916315" lon="-111.850493"><ele>1410.0</ele></trkpt>
<trkpt lat="34.916292" lon="-111.850567"><ele>1409.8</ele></trkpt>
<trkpt lat="34.916094" lon="-111.850654"><ele>1411.0</ele></trkpt>
<trkpt lat="34.915634" lon="-111.850364"><ele>1411.4</ele></trkpt>
<trkpt lat="34.915432" lon="-111.850127"><ele>1412.7</ele></trkpt>
<trkpt lat="34.915224" lon="-111.850231"><ele>1413.1</ele></trkpt>
<trkpt lat="34.914967" lon="-111.850487"><ele>1412.1</ele></trkpt>
<trkpt lat="34.914642" lon="-111.850644"><ele>1408.2</ele></trkpt>
<trkpt lat="34.914181" lon="-111.850625"><ele>1404.6</ele></trkpt>
<trkpt lat="34.913815" lon="-111.850421"><ele>1398.9</ele></trkpt>
<trkpt lat="34.913752" lon="-111.850303"><ele>1398.5</ele></trkpt>
<trkpt lat="34.913661" lon="-111.850325"><ele>1398.6</ele></trkpt>
<trkpt lat="34.913605" lon="-111.850266"><ele>1399.1</ele></trkpt>
<trkpt lat="34.913488" lon="-111.850253"><ele>1394.6</ele></trkpt>
<trkpt lat="34.913311" lon="-111.850349"><ele>1391.5</ele></trkpt>
<trkpt lat="34.912967" lon="-111.850180"><ele>1389.0</ele></trkpt>
<trkpt lat="34.912737" lon="-111.850220"><ele>1387.0</ele></trkpt>
<trkpt lat="34.912504" lon="-111.850170"><ele>1387.8</ele></trkpt>
<trkpt lat="34.912052" lon="-111.850495"><ele>1384.9</ele></trkpt>
<trkpt lat="34.911748" lon="-111.850491"><ele>1384.0</ele></trkpt>
<trkpt lat="34.911570" lon="-111.850378"><ele>1383.9</ele></trkpt>
<trkpt lat="34.911482" lon="-111.850233"><ele>1383.3</ele></trkpt>
<trkpt lat="34.911412" lon="-111.849987"><ele>1383.3</ele></trkpt>
<trkpt lat="34.911442" lon="-111.849695"><ele>1384.3</ele></trkpt>
<trkpt lat="34.911415" lon="-111.849630"><ele>1383.9</ele></trkpt>
<trkpt lat="34.911053" lon="-111.849763"><ele>1383.5</ele></trkpt>
<trkpt lat="34.910883" lon="-111.849738"><ele>1381.8</ele></trkpt>
<trkpt lat="34.910648" lon="-111.849577"><ele>1383.2</ele></trkpt>
<trkpt lat="34.910280" lon="-111.849657"><ele>1379.4</ele></trkpt>
<trkpt lat="34.910070" lon="-111.849479"><ele>1378.1</ele></trkpt>
<trkpt lat="34.909702" lon="-111.848941"><ele>1375.2</ele></trkpt>
<trkpt lat="34.909711" lon="-111.848753"><ele>1375.4</ele></trkpt>
<trkpt lat="34.909654" lon="-111.848591"><ele>1376.3</ele></trkpt>
<trkpt lat="34.909424" lon="-111.848389"><ele>1375.8</ele></trkpt>
<trkpt lat="34.909113" lon="-111.847816"><ele>1373.1</ele></trkpt>
<trkpt lat="34.909009" lon="-111.847528"><ele>1372.0</ele></trkpt>
<trkpt lat="34.908787" lon="-111.847351"><ele>1372.3</ele></trkpt>
<trkpt lat="34.908726" lon="-111.847362"><ele>1372.7</ele></trkpt>
<trkpt lat="34.908465" lon="-111.847829"><ele>1372.7</ele></trkpt>
<trkpt lat="34.908319" lon="-111.847914"><ele>1373.7</ele></trkpt>
<trkpt lat="34.908136" lon="-111.848120"><ele>1376.1</ele></trkpt>
<trkpt lat="34.908101" lon="-111.848268"><ele>1377.1</ele></trkpt>
</trkseg></trk>
</gpx>
