<?xml version="1.0" encoding="UTF-8"?>
<gpx version="1.1" creator="The Lost Trailhead" xmlns="http://www.topografix.com/GPX/1/1" xmlns:xsi="http://www.w3.org/2001/XMLSchema-instance" xsi:schemaLocation="http://www.topografix.com/GPX/1/1 http://www.topografix.com/GPX/1/1/gpx.xsd">
<metadata><name>Rattlesnake Ledge</name><desc>The Lost Trailhead, thelosttrailhead.com/hikes/rattlesnake-ledge. Conditions change. Use at your own risk.</desc><link href="https://thelosttrailhead.com/hikes/rattlesnake-ledge"><text>Rattlesnake Ledge on The Lost Trailhead</text></link></metadata>
<trk><name>Rattlesnake Ledge</name><link href="https://thelosttrailhead.com/hikes/rattlesnake-ledge"><text>Rattlesnake Ledge on The Lost Trailhead</text></link><trkseg>
<trkpt lat="47.436848" lon="-121.767085"><ele>309.2</ele></trkpt>
<trkpt lat="47.436802" lon="-121.767147"><ele>302.7</ele></trkpt>
<trkpt lat="47.436850" lon="-121.767165"><ele>298.3</ele></trkpt>
<trkpt lat="47.436735" lon="-121.767157"><ele>295.8</ele></trkpt>
<trkpt lat="47.436050" lon="-121.767785"><ele>282.6</ele></trkpt>
<trkpt lat="47.435874" lon="-121.768111"><ele>281.2</ele></trkpt>
<trkpt lat="47.434879" lon="-121.768835"><ele>279.9</ele></trkpt>
<trkpt lat="47.434893" lon="-121.769024"><ele>282.2</ele></trkpt>
<trkpt lat="47.435059" lon="-121.769167"><ele>281.8</ele></trkpt>
<trkpt lat="47.435049" lon="-121.769251"><ele>288.7</ele></trkpt>
<trkpt lat="47.435521" lon="-121.769210"><ele>284.0</ele></trkpt>
<trkpt lat="47.435991" lon="-121.769285"><ele>288.1</ele></trkpt>
<trkpt lat="47.436156" lon="-121.769448"><ele>289.1</ele></trkpt>
<trkpt lat="47.436256" lon="-121.769694"><ele>293.1</ele></trkpt>
<trkpt lat="47.436291" lon="-121.770299"><ele>293.8</ele></trkpt>
<trkpt lat="47.436228" lon="-121.770720"><ele>292.7</ele></trkpt>
<trkpt lat="47.435604" lon="-121.771580"><ele>286.3</ele></trkpt>
<trkpt lat="47.435777" lon="-121.771978"><ele>291.1</ele></trkpt>
<trkpt lat="47.435746" lon="-121.772559"><ele>305.0</ele></trkpt>
<trkpt lat="47.435624" lon="-121.772970"><ele>309.2</ele></trkpt>
<trkpt lat="47.435786" lon="-121.773106"><ele>314.2</ele></trkpt>
<trkpt lat="47.436004" lon="-121.773126"><ele>317.2</ele></trkpt>
<trkpt lat="47.436126" lon="-121.773295"><ele>320.8</ele></trkpt>
<trkpt lat="47.436227" lon="-121.773284"><ele>320.8</ele></trkpt>
<trkpt lat="47.436369" lon="-121.773091"><ele>320.8</ele></trkpt>
<trkpt lat="47.436540" lon="-121.773204"><ele>321.3</ele></trkpt>
<trkpt lat="47.436444" lon="-121.773142"><ele>323.6</ele></trkpt>
<trkpt lat="47.436570" lon="-121.773531"><ele>329.2</ele></trkpt>
<trkpt lat="47.436551" lon="-121.773698"><ele>329.0</ele></trkpt>
<trkpt lat="47.436841" lon="-121.773899"><ele>329.1</ele></trkpt>
<trkpt lat="47.437069" lon="-121.774178"><ele>336.1</ele></trkpt>
<trkpt lat="47.437632" lon="-121.774657"><ele>340.9</ele></trkpt>
<trkpt lat="47.438092" lon="-121.774844"><ele>346.5</ele></trkpt>
<trkpt lat="47.438237" lon="-121.774824"><ele>348.3</ele></trkpt>
<trkpt lat="47.438206" lon="-121.774780"><ele>350.3</ele></trkpt>
<trkpt lat="47.438388" lon="-121.774896"><ele>349.9</ele></trkpt>
<trkpt lat="47.438779" lon="-121.774920"><ele>355.8</ele></trkpt>
<trkpt lat="47.439080" lon="-121.775168"><ele>364.6</ele></trkpt>
<trkpt lat="47.439247" lon="-121.775131"><ele>367.6</ele></trkpt>
<trkpt lat="47.439572" lon="-121.775266"><ele>368.5</ele></trkpt>
<trkpt lat="47.439617" lon="-121.775347"><ele>368.8</ele></trkpt>
<trkpt lat="47.439520" lon="-121.775418"><ele>369.1</ele></trkpt>
<trkpt lat="47.439190" lon="-121.775456"><ele>369.8</ele></trkpt>
<trkpt lat="47.438812" lon="-121.775700"><ele>382.5</ele></trkpt>
<trkpt lat="47.438759" lon="-121.775662"><ele>380.5</ele></trkpt>
<trkpt lat="47.438658" lon="-121.775780"><ele>377.4</ele></trkpt>
<trkpt lat="47.438113" lon="-121.775928"><ele>377.7</ele></trkpt>
<trkpt lat="47.437882" lon="-121.776090"><ele>381.6</ele></trkpt>
<trkpt lat="47.437700" lon="-121.776052"><ele>381.2</ele></trkpt>
<trkpt lat="47.437414" lon="-121.775880"><ele>381.9</ele></trkpt>
<trkpt lat="47.437063" lon="-121.775861"><ele>386.5</ele></trkpt>
<trkpt lat="47.437015" lon="-121.775953"><ele>389.4</ele></trkpt>
<trkpt lat="47.436938" lon="-121.775919"><ele>390.8</ele></trkpt>
<trkpt lat="47.436818" lon="-121.775980"><ele>393.9</ele></trkpt>
<trkpt lat="47.436752" lon="-121.776109"><ele>401.1</ele></trkpt>
<trkpt lat="47.436817" lon="-121.776031"><ele>400.6</ele></trkpt>
<trkpt lat="47.436802" lon="-121.775949"><ele>399.5</ele></trkpt>
<trkpt lat="47.436594" lon="-121.776130"><ele>395.8</ele></trkpt>
<trkpt lat="47.436039" lon="-121.776174"><ele>402.4</ele></trkpt>
<trkpt lat="47.435896" lon="-121.776266"><ele>404.6</ele></trkpt>
<trkpt lat="47.435947" lon="-121.776303"><ele>407.7</ele></trkpt>
<trkpt lat="47.435918" lon="-121.776261"><ele>405.9</ele></trkpt>
<trkpt lat="47.435876" lon="-121.776321"><ele>405.4</ele></trkpt>
<trkpt lat="47.435778" lon="-121.776300"><ele>406.7</ele></trkpt>
<trkpt lat="47.435608" lon="-121.776385"><ele>407.4</ele></trkpt>
<trkpt lat="47.435356" lon="-121.776552"><ele>407.6</ele></trkpt>
<trkpt lat="47.435043" lon="-121.776941"><ele>411.2</ele></trkpt>
<trkpt lat="47.434205" lon="-121.777709"><ele>432.8</ele></trkpt>
<trkpt lat="47.434133" lon="-121.777804"><ele>437.7</ele></trkpt>
<trkpt lat="47.434102" lon="-121.777999"><ele>433.8</ele></trkpt>
<trkpt lat="47.434168" lon="-121.777985"><ele>437.0</ele></trkpt>
<trkpt lat="47.434166" lon="-121.777932"><ele>436.3</ele></trkpt>
<trkpt lat="47.434204" lon="-121.778004"><ele>437.9</ele></trkpt>
<trkpt lat="47.434201" lon="-121.777942"><ele>441.5</ele></trkpt>
<trkpt lat="47.434242" lon="-121.777949"><ele>442.4</ele></trkpt>
<trkpt lat="47.434094" lon="-121.777921"><ele>440.9</ele></trkpt>
<trkpt lat="47.433980" lon="-121.777978"><ele>439.4</ele></trkpt>
<trkpt lat="47.433827" lon="-121.778377"><ele>440.7</ele></trkpt>
<trkpt lat="47.433648" lon="-121.778720"><ele>443.8</ele></trkpt>
<trkpt lat="47.433629" lon="-121.778661"><ele>442.8</ele></trkpt>
<trkpt lat="47.433692" lon="-121.778699"><ele>438.5</ele></trkpt>
<trkpt lat="47.433582" lon="-121.778522"><ele>447.3</ele></trkpt>
<trkpt lat="47.433711" lon="-121.778765"><ele>429.7</ele></trkpt>
<trkpt lat="47.433656" lon="-121.778756"><ele>429.0</ele></trkpt>
<trkpt lat="47.433531" lon="-121.778992"><ele>446.5</ele></trkpt>
<trkpt lat="47.433299" lon="-121.779067"><ele>446.5</ele></trkpt>
<trkpt lat="47.433069" lon="-121.779276"><ele>446.4</ele></trkpt>
<trkpt lat="47.433056" lon="-121.779504"><ele>446.1</ele></trkpt>
<trkpt lat="47.432945" lon="-121.779759"><ele>448.2</ele></trkpt>
<trkpt lat="47.433043" lon="-121.780265"><ele>451.0</ele></trkpt>
<trkpt lat="47.433046" lon="-121.780781"><ele>459.4</ele></trkpt>
<trkpt lat="47.432976" lon="-121.781159"><ele>462.4</ele></trkpt>
<trkpt lat="47.433069" lon="-121.781468"><ele>462.4</ele></trkpt>
<trkpt lat="47.433097" lon="-121.781802"><ele>463.3</ele></trkpt>
<trkpt lat="47.433201" lon="-121.781818"><ele>464.0</ele></trkpt>
<trkpt lat="47.433083" lon="-121.781896"><ele>461.6</ele></trkpt>
<trkpt lat="47.433210" lon="-121.781806"><ele>460.2</ele></trkpt>
<trkpt lat="47.433259" lon="-121.781860"><ele>459.7</ele></trkpt>
<trkpt lat="47.433183" lon="-121.781895"><ele>467.5</ele></trkpt>
<trkpt lat="47.433212" lon="-121.781862"><ele>467.8</ele></trkpt>
<trkpt lat="47.433273" lon="-121.782051"><ele>462.0</ele></trkpt>
<trkpt lat="47.433228" lon="-121.782072"><ele>454.7</ele></trkpt>
<trkpt lat="47.433213" lon="-121.782641"><ele>456.3</ele></trkpt>
<trkpt lat="47.433360" lon="-121.783454"><ele>468.1</ele></trkpt>
<trkpt lat="47.433405" lon="-121.783887"><ele>471.1</ele></trkpt>
<trkpt lat="47.433365" lon="-121.783888"><ele>474.5</ele></trkpt>
<trkpt lat="47.433428" lon="-121.783973"><ele>476.1</ele></trkpt>
<trkpt lat="47.433628" lon="-121.784022"><ele>474.2</ele></trkpt>
<trkpt lat="47.433632" lon="-121.784137"><ele>472.2</ele></trkpt>
<trkpt lat="47.433710" lon="-121.784282"><ele>472.6</ele></trkpt>
<trkpt lat="47.433839" lon="-121.784337"><ele>477.9</ele></trkpt>
<trkpt lat="47.433934" lon="-121.784270"><ele>473.4</ele></trkpt>
<trkpt lat="47.433883" lon="-121.784363"><ele>475.1</ele></trkpt>
<trkpt lat="47.433925" lon="-121.784735"><ele>483.0</ele></trkpt>
<trkpt lat="47.433968" lon="-121.784851"><ele>485.9</ele></trkpt>
<trkpt lat="47.434141" lon="-121.785050"><ele>488.8</ele></trkpt>
<trkpt lat="47.434159" lon="-121.785019"><ele>488.7</ele></trkpt>
<trkpt lat="47.434147" lon="-121.784733"><ele>492.3</ele></trkpt>
<trkpt lat="47.434226" lon="-121.784333"><ele>488.0</ele></trkpt>
<trkpt lat="47.434282" lon="-121.784237"><ele>491.0</ele></trkpt>
<trkpt lat="47.434211" lon="-121.783821"><ele>493.5</ele></trkpt>
<trkpt lat="47.434307" lon="-121.783727"><ele>494.9</ele></trkpt>
<trkpt lat="47.434176" lon="-121.783565"><ele>496.5</ele></trkpt>
<trkpt lat="47.434051" lon="-121.783538"><ele>495.8</ele></trkpt>
<trkpt lat="47.434097" lon="-121.783475"><ele>492.7</ele></trkpt>
<trkpt lat="47.433947" lon="-121.782773"><ele>500.1</ele></trkpt>
<trkpt lat="47.434046" lon="-121.782741"><ele>502.4</ele></trkpt>
<trkpt lat="47.433930" lon="-121.782397"><ele>505.1</ele></trkpt>
<trkpt lat="47.433969" lon="-121.782001"><ele>508.3</ele></trkpt>
<trkpt lat="47.433949" lon="-121.781531"><ele>511.2</ele></trkpt>
<trkpt lat="47.434085" lon="-121.781809"><ele>517.2</ele></trkpt>
<trkpt lat="47.434141" lon="-121.782096"><ele>522.4</ele></trkpt>
<trkpt lat="47.434204" lon="-121.782053"><ele>523.8</ele></trkpt>
<trkpt lat="47.434184" lon="-121.782218"><ele>526.0</ele></trkpt>
<trkpt lat="47.434271" lon="-121.782561"><ele>525.5</ele></trkpt>
<trkpt lat="47.434330" lon="-121.782556"><ele>527.3</ele></trkpt>
<trkpt lat="47.434356" lon="-121.782474"><ele>529.8</ele></trkpt>
<trkpt lat="47.434302" lon="-121.782507"><ele>529.3</ele></trkpt>
<trkpt lat="47.434337" lon="-121.782494"><ele>527.1</ele></trkpt>
<trkpt lat="47.434465" lon="-121.782848"><ele>531.4</ele></trkpt>
<trkpt lat="47.434744" lon="-121.783112"><ele>534.1</ele></trkpt>
<trkpt lat="47.434949" lon="-121.783763"><ele>543.9</ele></trkpt>
<trkpt lat="47.435120" lon="-121.784047"><ele>549.4</ele></trkpt>
<trkpt lat="47.434977" lon="-121.784016"><ele>568.6</ele></trkpt>
<trkpt lat="47.434892" lon="-121.784082"><ele>575.9</ele></trkpt>
<trkpt lat="47.434949" lon="-121.784063"><ele>567.7</ele></trkpt>
<trkpt lat="47.434947" lon="-121.784117"><ele>562.8</ele></trkpt>
<trkpt lat="47.435054" lon="-121.784204"><ele>552.5</ele></trkpt>
<trkpt lat="47.435236" lon="-121.784614"><ele>544.8</ele></trkpt>
<trkpt lat="47.435438" lon="-121.784791"><ele>550.0</ele></trkpt>
<trkpt lat="47.435558" lon="-121.785088"><ele>552.6</ele></trkpt>
<trkpt lat="47.435548" lon="-121.784804"><ele>558.7</ele></trkpt>
<trkpt lat="47.435403" lon="-121.784415"><ele>562.5</ele></trkpt>
<trkpt lat="47.435421" lon="-121.783654"><ele>577.9</ele></trkpt>
<trkpt lat="47.435627" lon="-121.782266"><ele>589.0</ele></trkpt>
<trkpt lat="47.435527" lon="-121.781117"><ele>597.5</ele></trkpt>
<trkpt lat="47.435594" lon="-121.780701"><ele>597.2</ele></trkpt>
<trkpt lat="47.435688" lon="-121.780467"><ele>598.9</ele></trkpt>
<trkpt lat="47.435780" lon="-121.780334"><ele>602.3</ele></trkpt>
<trkpt lat="47.435824" lon="-121.780371"><ele>605.2</ele></trkpt>
<trkpt lat="47.436218" lon="-121.779672"><ele>613.4</ele></trkpt>
<trkpt lat="47.436208" lon="-121.779407"><ele>612.2</ele></trkpt>
<trkpt lat="47.436272" lon="-121.779632"><ele>613.2</ele></trkpt>
<trkpt lat="47.436250" lon="-121.779794"><ele>614.8</ele></trkpt>
<trkpt lat="47.436298" lon="-121.779834"><ele>616.3</ele></trkpt>
<trkpt lat="47.436277" lon="-121.779963"><ele>618.8</ele></trkpt>
<trkpt lat="47.436316" lon="-121.779618"><ele>614.4</ele></trkpt>
<trkpt lat="47.436238" lon="-121.779499"><ele>612.4</ele></trkpt>
<trkpt lat="47.436239" lon="-121.778992"><ele>613.7</ele></trkpt>
<trkpt lat="47.436147" lon="-121.778766"><ele>619.0</ele></trkpt>
<trkpt lat="47.436160" lon="-121.778654"><ele>618.5</ele></trkpt>
<trkpt lat="47.436103" lon="-121.778676"><ele>621.3</ele></trkpt>
<trkpt lat="47.436116" lon="-121.778630"><ele>627.2</ele></trkpt>
<trkpt lat="47.436103" lon="-121.778676"><ele>621.3</ele></trkpt>
<trkpt lat="47.436160" lon="-121.778654"><ele>618.5</ele></trkpt>
<trkpt lat="47.436147" lon="-121.778766"><ele>619.0</ele></trkpt>
<trkpt lat="47.436239" lon="-121.778992"><ele>613.7</ele></trkpt>
<trkpt lat="47.436238" lon="-121.779499"><ele>612.4</ele></trkpt>
<trkpt lat="47.436316" lon="-121.779618"><ele>614.4</ele></trkpt>
<trkpt lat="47.436277" lon="-121.779963"><ele>618.8</ele></trkpt>
<trkpt lat="47.436298" lon="-121.779834"><ele>616.3</ele></trkpt>
<trkpt lat="47.436250" lon="-121.779794"><ele>614.8</ele></trkpt>
<trkpt lat="47.436272" lon="-121.779632"><ele>613.2</ele></trkpt>
<trkpt lat="47.436208" lon="-121.779407"><ele>612.2</ele></trkpt>
<trkpt lat="47.436218" lon="-121.779672"><ele>613.4</ele></trkpt>
<trkpt lat="47.435824" lon="-121.780371"><ele>605.2</ele></trkpt>
<trkpt lat="47.435780" lon="-121.780334"><ele>602.3</ele></trkpt>
<trkpt lat="47.435688" lon="-121.780467"><ele>598.9</ele></trkpt>
<trkpt lat="47.435594" lon="-121.780701"><ele>597.2</ele></trkpt>
<trkpt lat="47.435527" lon="-121.781117"><ele>597.5</ele></trkpt>
<trkpt lat="47.435627" lon="-121.782266"><ele>589.0</ele></trkpt>
<trkpt lat="47.435421" lon="-121.783654"><ele>577.9</ele></trkpt>
<trkpt lat="47.435403" lon="-121.784415"><ele>562.5</ele></trkpt>
<trkpt lat="47.435548" lon="-121.784804"><ele>558.7</ele></trkpt>
<trkpt lat="47.435558" lon="-121.785088"><ele>552.6</ele></trkpt>
<trkpt lat="47.435438" lon="-121.784791"><ele>550.0</ele></trkpt>
<trkpt lat="47.435236" lon="-121.784614"><ele>544.8</ele></trkpt>
<trkpt lat="47.435054" lon="-121.784204"><ele>552.5</ele></trkpt>
<trkpt lat="47.434947" lon="-121.784117"><ele>562.8</ele></trkpt>
<trkpt lat="47.434949" lon="-121.784063"><ele>567.7</ele></trkpt>
<trkpt lat="47.434892" lon="-121.784082"><ele>575.9</ele></trkpt>
<trkpt lat="47.434977" lon="-121.784016"><ele>568.6</ele></trkpt>
<trkpt lat="47.435120" lon="-121.784047"><ele>549.4</ele></trkpt>
<trkpt lat="47.434949" lon="-121.783763"><ele>543.9</ele></trkpt>
<trkpt lat="47.434744" lon="-121.783112"><ele>534.1</ele></trkpt>
<trkpt lat="47.434465" lon="-121.782848"><ele>531.4</ele></trkpt>
<trkpt lat="47.434337" lon="-121.782494"><ele>527.1</ele></trkpt>
<trkpt lat="47.434302" lon="-121.782507"><ele>529.3</ele></trkpt>
<trkpt lat="47.434356" lon="-121.782474"><ele>529.8</ele></trkpt>
<trkpt lat="47.434330" lon="-121.782556"><ele>527.3</ele></trkpt>
<trkpt lat="47.434271" lon="-121.782561"><ele>525.5</ele></trkpt>
<trkpt lat="47.434184" lon="-121.782218"><ele>526.0</ele></trkpt>
<trkpt lat="47.434204" lon="-121.782053"><ele>523.8</ele></trkpt>
<trkpt lat="47.434141" lon="-121.782096"><ele>522.4</ele></trkpt>
<trkpt lat="47.434085" lon="-121.781809"><ele>517.2</ele></trkpt>
<trkpt lat="47.433949" lon="-121.781531"><ele>511.2</ele></trkpt>
<trkpt lat="47.433969" lon="-121.782001"><ele>508.3</ele></trkpt>
<trkpt lat="47.433930" lon="-121.782397"><ele>505.1</ele></trkpt>
<trkpt lat="47.434046" lon="-121.782741"><ele>502.4</ele></trkpt>
<trkpt lat="47.433947" lon="-121.782773"><ele>500.1</ele></trkpt>
<trkpt lat="47.434097" lon="-121.783475"><ele>492.7</ele></trkpt>
<trkpt lat="47.434051" lon="-121.783538"><ele>495.8</ele></trkpt>
<trkpt lat="47.434176" lon="-121.783565"><ele>496.5</ele></trkpt>
<trkpt lat="47.434307" lon="-121.783727"><ele>494.9</ele></trkpt>
<trkpt lat="47.434211" lon="-121.783821"><ele>493.5</ele></trkpt>
<trkpt lat="47.434282" lon="-121.784237"><ele>491.0</ele></trkpt>
<trkpt lat="47.434226" lon="-121.784333"><ele>488.0</ele></trkpt>
<trkpt lat="47.434147" lon="-121.784733"><ele>492.3</ele></trkpt>
<trkpt lat="47.434159" lon="-121.785019"><ele>488.7</ele></trkpt>
<trkpt lat="47.434141" lon="-121.785050"><ele>488.8</ele></trkpt>
<trkpt lat="47.433968" lon="-121.784851"><ele>485.9</ele></trkpt>
<trkpt lat="47.433925" lon="-121.784735"><ele>483.0</ele></trkpt>
<trkpt lat="47.433883" lon="-121.784363"><ele>475.1</ele></trkpt>
<trkpt lat="47.433934" lon="-121.784270"><ele>473.4</ele></trkpt>
<trkpt lat="47.433839" lon="-121.784337"><ele>477.9</ele></trkpt>
<trkpt lat="47.433710" lon="-121.784282"><ele>472.6</ele></trkpt>
<trkpt lat="47.433632" lon="-121.784137"><ele>472.2</ele></trkpt>
<trkpt lat="47.433628" lon="-121.784022"><ele>474.2</ele></trkpt>
<trkpt lat="47.433428" lon="-121.783973"><ele>476.1</ele></trkpt>
<trkpt lat="47.433365" lon="-121.783888"><ele>474.5</ele></trkpt>
<trkpt lat="47.433405" lon="-121.783887"><ele>471.1</ele></trkpt>
<trkpt lat="47.433360" lon="-121.783454"><ele>468.1</ele></trkpt>
<trkpt lat="47.433213" lon="-121.782641"><ele>456.3</ele></trkpt>
<trkpt lat="47.433228" lon="-121.782072"><ele>454.7</ele></trkpt>
<trkpt lat="47.433273" lon="-121.782051"><ele>462.0</ele></trkpt>
<trkpt lat="47.433212" lon="-121.781862"><ele>467.8</ele></trkpt>
<trkpt lat="47.433183" lon="-121.781895"><ele>467.5</ele></trkpt>
<trkpt lat="47.433259" lon="-121.781860"><ele>459.7</ele></trkpt>
<trkpt lat="47.433210" lon="-121.781806"><ele>460.2</ele></trkpt>
<trkpt lat="47.433083" lon="-121.781896"><ele>461.6</ele></trkpt>
<trkpt lat="47.433201" lon="-121.781818"><ele>464.0</ele></trkpt>
<trkpt lat="47.433097" lon="-121.781802"><ele>463.3</ele></trkpt>
<trkpt lat="47.433069" lon="-121.781468"><ele>462.4</ele></trkpt>
<trkpt lat="47.432976" lon="-121.781159"><ele>462.4</ele></trkpt>
<trkpt lat="47.433046" lon="-121.780781"><ele>459.4</ele></trkpt>
<trkpt lat="47.433043" lon="-121.780265"><ele>451.0</ele></trkpt>
<trkpt lat="47.432945" lon="-121.779759"><ele>448.2</ele></trkpt>
<trkpt lat="47.433056" lon="-121.779504"><ele>446.1</ele></trkpt>
<trkpt lat="47.433069" lon="-121.779276"><ele>446.4</ele></trkpt>
<trkpt lat="47.433299" lon="-121.779067"><ele>446.5</ele></trkpt>
<trkpt lat="47.433531" lon="-121.778992"><ele>446.5</ele></trkpt>
<trkpt lat="47.433656" lon="-121.778756"><ele>429.0</ele></trkpt>
<trkpt lat="47.433711" lon="-121.778765"><ele>429.7</ele></trkpt>
<trkpt lat="47.433582" lon="-121.778522"><ele>447.3</ele></trkpt>
<trkpt lat="47.433692" lon="-121.778699"><ele>438.5</ele></trkpt>
<trkpt lat="47.433629" lon="-121.778661"><ele>442.8</ele></trkpt>
<trkpt lat="47.433648" lon="-121.778720"><ele>443.8</ele></trkpt>
<trkpt lat="47.433827" lon="-121.778377"><ele>440.7</ele></trkpt>
<trkpt lat="47.433980" lon="-121.777978"><ele>439.4</ele></trkpt>
<trkpt lat="47.434094" lon="-121.777921"><ele>440.9</ele></trkpt>
<trkpt lat="47.434242" lon="-121.777949"><ele>442.4</ele></trkpt>
<trkpt lat="47.434201" lon="-121.777942"><ele>441.5</ele></trkpt>
<trkpt lat="47.434204" lon="-121.778004"><ele>437.9</ele></trkpt>
<trkpt lat="47.434166" lon="-121.777932"><ele>436.3</ele></trkpt>
<trkpt lat="47.434168" lon="-121.777985"><ele>437.0</ele></trkpt>
<trkpt lat="47.434102" lon="-121.777999"><ele>433.8</ele></trkpt>
<trkpt lat="47.434133" lon="-121.777804"><ele>437.7</ele></trkpt>
<trkpt lat="47.434205" lon="-121.777709"><ele>432.8</ele></trkpt>
<trkpt lat="47.435043" lon="-121.776941"><ele>411.2</ele></trkpt>
<trkpt lat="47.435356" lon="-121.776552"><ele>407.6</ele></trkpt>
<trkpt lat="47.435608" lon="-121.776385"><ele>407.4</ele></trkpt>
<trkpt lat="47.435778" lon="-121.776300"><ele>406.7</ele></trkpt>
<trkpt lat="47.435876" lon="-121.776321"><ele>405.4</ele></trkpt>
<trkpt lat="47.435918" lon="-121.776261"><ele>405.9</ele></trkpt>
<trkpt lat="47.435947" lon="-121.776303"><ele>407.7</ele></trkpt>
<trkpt lat="47.435896" lon="-121.776266"><ele>404.6</ele></trkpt>
<trkpt lat="47.436039" lon="-121.776174"><ele>402.4</ele></trkpt>
<trkpt lat="47.436594" lon="-121.776130"><ele>395.8</ele></trkpt>
<trkpt lat="47.436802" lon="-121.775949"><ele>399.5</ele></trkpt>
<trkpt lat="47.436817" lon="-121.776031"><ele>400.6</ele></trkpt>
<trkpt lat="47.436752" lon="-121.776109"><ele>401.1</ele></trkpt>
<trkpt lat="47.436818" lon="-121.775980"><ele>393.9</ele></trkpt>
<trkpt lat="47.436938" lon="-121.775919"><ele>390.8</ele></trkpt>
<trkpt lat="47.437015" lon="-121.775953"><ele>389.4</ele></trkpt>
<trkpt lat="47.437063" lon="-121.775861"><ele>386.5</ele></trkpt>
<trkpt lat="47.437414" lon="-121.775880"><ele>381.9</ele></trkpt>
<trkpt lat="47.437700" lon="-121.776052"><ele>381.2</ele></trkpt>
<trkpt lat="47.437882" lon="-121.776090"><ele>381.6</ele></trkpt>
<trkpt lat="47.438113" lon="-121.775928"><ele>377.7</ele></trkpt>
<trkpt lat="47.438658" lon="-121.775780"><ele>377.4</ele></trkpt>
<trkpt lat="47.438759" lon="-121.775662"><ele>380.5</ele></trkpt>
<trkpt lat="47.438812" lon="-121.775700"><ele>382.5</ele></trkpt>
<trkpt lat="47.439190" lon="-121.775456"><ele>369.8</ele></trkpt>
<trkpt lat="47.439520" lon="-121.775418"><ele>369.1</ele></trkpt>
<trkpt lat="47.439617" lon="-121.775347"><ele>368.8</ele></trkpt>
<trkpt lat="47.439572" lon="-121.775266"><ele>368.5</ele></trkpt>
<trkpt lat="47.439247" lon="-121.775131"><ele>367.6</ele></trkpt>
<trkpt lat="47.439080" lon="-121.775168"><ele>364.6</ele></trkpt>
<trkpt lat="47.438779" lon="-121.774920"><ele>355.8</ele></trkpt>
<trkpt lat="47.438388" lon="-121.774896"><ele>349.9</ele></trkpt>
<trkpt lat="47.438206" lon="-121.774780"><ele>350.3</ele></trkpt>
<trkpt lat="47.438237" lon="-121.774824"><ele>348.3</ele></trkpt>
<trkpt lat="47.438092" lon="-121.774844"><ele>346.5</ele></trkpt>
<trkpt lat="47.437632" lon="-121.774657"><ele>340.9</ele></trkpt>
<trkpt lat="47.437069" lon="-121.774178"><ele>336.1</ele></trkpt>
<trkpt lat="47.436841" lon="-121.773899"><ele>329.1</ele></trkpt>
<trkpt lat="47.436551" lon="-121.773698"><ele>329.0</ele></trkpt>
<trkpt lat="47.436570" lon="-121.773531"><ele>329.2</ele></trkpt>
<trkpt lat="47.436444" lon="-121.773142"><ele>323.6</ele></trkpt>
<trkpt lat="47.436540" lon="-121.773204"><ele>321.3</ele></trkpt>
<trkpt lat="47.436369" lon="-121.773091"><ele>320.8</ele></trkpt>
<trkpt lat="47.436227" lon="-121.773284"><ele>320.8</ele></trkpt>
<trkpt lat="47.436126" lon="-121.773295"><ele>320.8</ele></trkpt>
<trkpt lat="47.436004" lon="-121.773126"><ele>317.2</ele></trkpt>
<trkpt lat="47.435786" lon="-121.773106"><ele>314.2</ele></trkpt>
<trkpt lat="47.435624" lon="-121.772970"><ele>309.2</ele></trkpt>
<trkpt lat="47.435746" lon="-121.772559"><ele>305.0</ele></trkpt>
<trkpt lat="47.435777" lon="-121.771978"><ele>291.1</ele></trkpt>
<trkpt lat="47.435604" lon="-121.771580"><ele>286.3</ele></trkpt>
<trkpt lat="47.436228" lon="-121.770720"><ele>292.7</ele></trkpt>
<trkpt lat="47.436291" lon="-121.770299"><ele>293.8</ele></trkpt>
<trkpt lat="47.436256" lon="-121.769694"><ele>293.1</ele></trkpt>
<trkpt lat="47.436156" lon="-121.769448"><ele>289.1</ele></trkpt>
<trkpt lat="47.435991" lon="-121.769285"><ele>288.1</ele></trkpt>
<trkpt lat="47.435521" lon="-121.769210"><ele>284.0</ele></trkpt>
<trkpt lat="47.435049" lon="-121.769251"><ele>288.7</ele></trkpt>
<trkpt lat="47.435059" lon="-121.769167"><ele>281.8</ele></trkpt>
<trkpt lat="47.434893" lon="-121.769024"><ele>282.2</ele></trkpt>
<trkpt lat="47.434879" lon="-121.768835"><ele>279.9</ele></trkpt>
<trkpt lat="47.435874" lon="-121.768111"><ele>281.2</ele></trkpt>
<trkpt lat="47.436050" lon="-121.767785"><ele>282.6</ele></trkpt>
<trkpt lat="47.436735" lon="-121.767157"><ele>295.8</ele></trkpt>
<trkpt lat="47.436850" lon="-121.767165"><ele>298.3</ele></trkpt>
<trkpt lat="47.436802" lon="-121.767147"><ele>302.7</ele></trkpt>
<trkpt lat="47.436848" lon="-121.767085"><ele>309.2</ele></trkpt>
</trkseg></trk>
</gpx>
